Program Name,DBA,Street,City,State,Zipcode,Phone
"Serenity Health, LLC", ,780 W. Bel Air Ave Suite B,Aberdeen,MD,21001,(410) 273-1030
ARS of Aberdeen LLC,ARS of Aberdeen LLC,24-26 West Bel Air Ave.,Aberdeen,MD,21001,(410) 272-0230
WTCR Abilene, ,212 South Leggett Street,Abilene,TX,79605,(325) 670-9339
"BHG XXXIX, LLC dba BHG Aiken Treatment Center", ,410 University Parkway,Aiken,SC,29801,(803) 641-6911
Community Health Center, ,725 East Market St.,Akron,OH,44305,(330) 434-4141
Crossroads' Turning Points Inc.,Crossroads' Turning Points Inc.,2265 Lava Lane,Alamosa,CO,81101,(719) 589-5176
Whitney M. Young Jr. Rehabilitation Program, ,4-10 Dewitt St.,Albany,NY,12207,(518) 463-3882
"Promesa, Inc",Camino Nuevo,175 Central Avenue,Albany,NY,12206,(518) 729-5659
"BHG XLIV, LLC d/b/a BHG Albany Treatment Center", ,2607 Ledo Rd.,Albany,GA,31707,(757) 673-3644
Recovery Services of New Mexico,Opioid Treatment Program,1528 Five Points,Albuquerque,NM,87105,(505) 242-6919
Metro Treatment of New Mexico,Central New Mexico Treatment center,630 Haines NW,Albuquerque,NM,87102,(505) 268-5611
Addictions & Substance Abuse Program (ASAP),Substance Use Disorder program with MAT,2600 Yale Blvd. SE,Albuquerque,NM,87106,(505) 994-7999
"Albuquerque Treatment Services, LLC", ,"123 Madiera Street, SE",Albuquerque,NM,87108,(505) 262-1538
"Duke City Recovery Toolbox, LLC",Duke City Recovery Toolbox,912 First Street NW,Albuquerque,NM,87102,(505) 224-9777
Albuquerque Health Services,"Albuquerque Health Services,NW Clinic",172 Montano Rd,Albuquerque,NM,87107,(310) 534-5590
Recovery Services of New Mexico MDC,Recovery Services of New Mexico MDC,100 Deputy Dean Miera Dr. S.W.,Albuquerque,NM,87151,(505) 833-4491
Albuquerque Health Services,Albuquerque Health Services,"112 Monroe St., NE",Albuquerque,NM,87108,(505) 260-9917
"Courageous Transformations, Inc",Courageous Transformations,3301 Los Arboles NE,Albuquerque,NM,87107,(505) 800-7092
Alexandria Community Services Board Opioid Treatment Program, ,2355 Mill Rd.,Alexandria,VA,22314,(703) 746-3600
"Choices of Louisiana, Inc. at Alexandria", ,2116 N Bolton Ave,Alexandria,LA,71301,(318) 445-1250
"Pinnacle Treatment Centers PA-V, LLC", ,400 Woodlawn Dr.,Aliquippa,PA,15001,(724) 857-9640
"Habit Opco, LLC",Habit OPCO - Allentown,4400 South Cedarbrook Road,Allentown,PA,18103,(610) 481-0444
White Deer Run, ,360 White Deer Run Road,Allenwood,PA,17810,(800) 255-2335
CommQuest Detox Center-Alliance, ,200 East State Street,Alliance,OH,44601,(330) 596-6000
Centerstone of Illinois,Centerstone of Illinois,2615 Edwards St.,Alton,IL,62002,(618) 462-2331 x2301
Dolminis Methadone Maintenance Program, ,2 Sellers Drive,Altoona,PA,16601,(814) 204-0059
West Texas Counseling and Rehabilitation Program of Amarillo Inc., ,2300 Line Ave.,Amarillo,TX,79106-6636,(806) 373-0922
The Long Island Home,South Oaks Hospital,400 Sunrise Hwy.,Amityville,NY,11701,(631) 264-4000 x4100
St. Mary's Comprehensive Outpatient Clinic,Hospital Based,76 Guy Park Ave.,Amsterdam,NY,12010,(518) 843-4410
DIDGWALIC WELLNESS CENTER, ,8212 S. March Point Road,Anacortes,WA,98221,(360) 588-2800
"WCHS, Inc.",Anchorage Treatment Solutions,"121 W. Fireweed Lane, Ste 105",Anchorage,AK,99503,(844) 490-6533
"Narcotic Drug Treatment Center, Inc.",Center for Drug Problems,"520 East Fourth Ave., Suite 102",Anchorage,AK,99501,(907) 276-6430
"Southwest Carolina Treatment Center, LLC", ,341 W. Beltline Blvd.,Anderson,SC,29625,(864) 222-9798
"CRC Recovery, Inc.",Ann Arbor Treatment Center,522 South Maple Road,Ann Arbor,MI,48103,(734) 585-7970
FMTC - Fairfax Methadone Treatment Center, ,"7008 Little River Turnpike, Suite G",Annandale,VA,22003,(703) 333-3113
"New Journey, Incorporated", ,32 Defense Street,Annapolis,MD,21401,(443) 949-7150
South County Addiction Clinic,South County Addiction Clinic,839 Bestgate Road,Annapolis,MD,21401,(410) 222-0100
Addiction Research & Treatment, ,3707 Sunset Lane,Antioch,CA,94509,(925) 522-0124
BAART Behavioral Health Services,Antioch Clinic,3707 Sunset Lane,Antioch,CA,94509,(925) 522-0124
Western Wake Treatment Center, ,2172 North Salem Street,Apex,NC,27523,(919) 629-4360
"Milwaukee Health Services System, LLC",Appleton Comprehensive Treatment Center,3301 N. Ballard Road,Appleton,WI,54911,(920) 733-4443
"Southern Oklahoma Treatment Services, Ardmore",Transitions,905 Holiday Dr.,Ardmore,OK,73401,(580) 226-5003
Island Crossing Counseling Services, ,21123 Smokey Point Blvd.,Arlington,WA,98223,(360) 652-9640
"CDHS, Inc",Chemical Dependency Health Services,"214 Billings St., Suite 240",Arlington,TX,76010,(817) 652-1004
Western Carolina Treatment Center, ,"573 Merrimon Ave., Suite I-B",Asheville,NC,28804,(828) 251-1478
"ATS of North Carolina, LLC",Mountain Health Solutions Asheville,2 MCDOWELL STREET,ASHEVILLE,NC,28804,(828) 225-6050
"Crossroads Treatment Center of Asheville, PC", ,"6 Roberts Road, Suite 103",Asheville,NC,28803,(828) 505-3086
BHG XXXVI,BHG Asheville Treatment Center,18 Wedgefield Dr.,Asheville,NC,28806,(828) 252-8748
"Intentional Longevity, Inc. dba Katharos Sanctuary", ,370 North Louisiana Avenue,Asheville,NC,28806,(828) 412-3688
"Crossroads Treatment Center of Ashland, PSC", ,1220 Greenup Avenue,Ashland,KY,41101,(606) 393-1165
ULTIMATE TREATMENT CENTER,ULTIMATE CARE MEDICAL SERVICES LLC,3655 WINCHESTER AVENUE,ASHLAND,KY,41101,(606) 393-4632
"Pennsylvania Care, LLC",Miners Medical,43 South Main Street,Ashley,PA,18706,(570) 822-5145
"Aegis Treatment Centers, LLC",Narcotic Treament Program,6500 Morro Rd. Ste. C & D,Atascadero,CA,93422,(805) 461-5212
"DM & ADR, Inc.", ,1720 Commerce Rd.,Athens,GA,30607,(706) 552-0688
"Health Recovery Services, Inc.",Athens Outpatient Treatment Center,224 Columbus Road,Athens,OH,45701,(740) 592-6720
Alliance Recovery Center Athens,Alliance Recovery Center,119 Sycamore Dr,Athens,GA,30606,(706) 850-2121
"New Day Treatment Center, Inc.", ,2563 Martin Luther King Jr. Drive,Atlanta,GA,30311,(404) 699-7774
John Brooks Recovery Center Atlantic City Campus,John Brooks Recovery Center Atlantic City Campus,1931 Bacharach Blvd.,Atlantic City,NJ,8401,(609) 345-2020
Medicine Wheel Clinic,Winder,85 Auburn Park Drive,Auburn,GA,30011,(770) 277-7958
"Colonial Management Group, LP",Augusta Metro Treatment Center,2357 Tobacco Road,Augusta,GA,30906,(706) 722-3855
"Family Guidance Center, Inc.", ,751 Aurora Ave.,Aurora,IL,60505,(630) 801-0017
The ARTS Potomac Street Center, ,"1330 South Potomac St., Suite 104A",Aurora,CO,80012,(303) 283-5991
"Aeschbach and Associates, Inc.",Addiction and Psychotherapy Services,2824 South Congress Ave.,Austin,TX,78704,(512) 444-5092
Austin Travis County MHMR Center Narcotic Treatment Program,Austin Travis County Integral Care,1631-A East Second St.,Austin,TX,78702,(512) 804-3380
"Maintenance & Recovery Service, Inc. of North Austin", ,305 Ferguson Drive,Austin,TX,78753,(512) 339-9757
"Maintenance and Recovery Services, Inc. (MARS)", ,1110 W. William Cannon #303,Austin,TX,78745,(512) 899-2100
Tavarua Medical Rehab Services,Azusa Medical and Mental Health Services,474 S Citrus Ave,Azusa,CA,91702-4733,(626)858-9500
Bainbridge Treatment Center, ,931 S. West Street,Bainbridge,GA,39819,(229) 248-4220
Bakersfield Medical and Mental Services, ,1010 1/2 South Union Ave.,Bakersfield,CA,93307,(661) 321-0234
"Aegis Treatment Centers, LLC",Narcotic Treatment Program,1018 21st Street,Bakersfield,CA,93301,(661) 861-9967
"Aegis Treatment Centers, LLC", ,501 W. Columbus Street,Bakersfield,CA,93301,(661) 328-0245
"Northern Parkway Treatment Services, Inc.", ,3007 E Northern Parkway,Baltimore,MD,21214,(443) 475-0737
"Concerted Care Group, LLC",CCG,428 E. 25th Street,Baltimore,MD,21218,(410) 617-0142
"B.N.J. Health Services, LLC (Washington Blvd)", ,2701 Washington Blvd.,Baltimore,MD,21230, 
"Park Heights Health Services, Inc.",Park Heights Health Services,5260 Park Heights ave,Baltimore,MD,21215,443-221-0566
"Glass Health Programs, Inc.",dba MedMark Treatment Centers Mt. Vernon,817 N. Calvert Street,Baltimore,MD,21202,(443) 290-6424
Baltimore City Detention Center-Men's Detention Center, ,531 E. Madison St.,Baltimore,MD,21202,(410) 209-4068
UMMC CAM, ,880 LINDEN AVENUE,BALTIMORE,MD,21201,(410) 225-8240
"Redeem Health Care Medical Systems, INC", ,917 N. Caroline Street,Baltimore,MD,21205,(410) 522-1030
"Dundalk Health Services, Inc.","Baltimore Health Solutions, Inc.",6706 Holabird Avenue,Baltimore,MD,21222,410-650-2413
"Man Alive, Inc.","Man Alive, Inc.",2117 Maryland Ave.,Baltimore,MD,21218,(410) 837-4292
Sinai Hospital Addictions Recovery Program,Sinai Hospital Addictions Recovery Program,2401 West Belvedere Ave.,Baltimore,MD,21215,(410) 601-5355
Veterans Administration Maryland Health Care System Opioid Agonist Treatment Program (VAMHCS OATP),OATP,10 North Greene St.,Baltimore,MD,21201,(410) 605-7357
Bon Secours' ADAPT Cares, ,3101 Towanda Ave.,Baltimore,MD,21215,(410) 383-4995
Bon Secours New Hope Treatment Center, ,2401 West Baltimore St.,Baltimore,MD,21223,(410) 945-7706
Addiction Treatment Services at Johns Hopkins Bayview -BBRC Building, ,"5501 Nathan Shock Drive, Suite 1500",Baltimore,MD,21224,(410) 550-0133
"Glenwood Life Counseling Center, Inc.",Glenwood LIfe Counsenling Center,516 Glenwood Ave.,Baltimore,MD,21212,(410) 323-9811
Medmark Treatment Centers Daybreak,Medmark Treatment Centers Daybreak,2490 Giles Rd.,Baltimore,MD,21225,(410) 354-2800
Johns Hopkins Hospital Program for Alcoholism and Other Drug Dependencies,Johns Hopkins Broadway Center for Addiction,911 North Broadway,Baltimore,MD,21205,(410) 955-5439
"Institutes for Behavioral Resources, Inc., REACH Health Services",REACH Health Services,2104 Maryland Ave.,Baltimore,MD,21218,(410) 752-6080
Medmark Treatment Centers Baltimore Downtown 201,Medmark Treatment Centers Baltimore Downtown 201,"821 North Eutaw St., Suite 201",Baltimore,MD,21201,(410) 225-9185
Addiction Treatment Services at Johns Hopkins Bayview - MFL Building, ,"Mason F Lord Building, Floor 6-E, 5200 Eastern Ave",Baltimore,MD,21224,(410) 550-0004
Medmark Treatment Centers Baltimore Downtown 101,Medmark Treatment Centers Baltimore Downtown 101,"821 North Eutaw St., Suite 101",Baltimore,MD,21201,(410) 225-9185
"Belair Health Solutions, Inc.",Belair Health Solutions,4825 Belair Road,Baltimore,MD,21206,410-509-0205
Bon Secours Next Passage, ,2401 West Baltimore Street,Baltimore,MD,21223,(410) 728-8901
University of Maryland Methadone Treatment Program,University of Maryland Treatment Center,1001 West Pratt Street,Baltimore,MD,21223,(443) 462-3400
"Hampden Health Solutions at the Rail, Inc.", ,3612 Falls Rd,Baltimore,MD,21211,(410) 467-4357
"Eastern Avenue Health Solutions, Inc.", ,5920 Eastern Avenue,Baltimore,MD,21224,(410) 631-2772
"ATS of Cecil County, LLC",Pine Heights Treatment Center,"3455 Wilkens Ave., Lower Level 20",Baltimore,MD,21229,(410) 646-6970
Baltimore Central Booking and Intake Facility, ,300 East Madison Street,Baltimore,MD,21202,(410) 545-8103
Metropolitan Transition Center, ,954 Forrest Street,Baltimore,MD,21202,(410) 837-2135
Reflective Treatment Center,East Baltimore Community Corporation,301 North Gay Street,Baltimore,MD,21202,(410) 752-3500
By Grace Counseling Services,Substance Abuse Treatment Program,1002 Patapsco Ave,Baltimore,MD,21225,(410) 354-0849
Turning Point Substance Abuse Clinic,Turning Point Clinic,2401 E. North Ave.,Baltimore,MD,21213,(410) 675-2113
MedMark Treatment Centers Cherry Hill,Medmark Treatment Centers Cherry Hill,"2490 Giles Road, Suite 2",Baltimore,MD,21225,(410) 354-2800
"Metro Treatment of Maine, LP",Penobscot County Metro Treatment,Maine Square Mall,Bangor,ME,4401,(207) 973-0400
"Discovery House-BR, Inc.", ,74 Dowd Road,Bangor,ME,4401,(207) 947-6800
Acadia Healthcare, ,268 Stillwater Ave.,Bangor,ME,4401,(207) 973-6443
"Oklahoma Treatment Services, LLC",Rightway Medical of Bartlesville,610 W. Hensley Blvd,Bartlesville,OK,74003,918-337-6007
"Clermont Recovery Center, Inc.","Clermont Recovery Center, Inc.","1088 Wasserman Way, Suite C",Batavia,OH,45103,(513) 735-8100
Loyola Recovery Foundation,Loyola Recovery Foundation,76 Veterans Ave.,Bath,NY,14810,(607) 664-5800
"Baton Rouge Treatment Center, LLC",Baton Rouge Treatment Center,11445 Reiger Rd.,Baton Rouge,LA,70809,(225) 932-9867
Clinica de Tratamiento Integral Asistido con Medicamentos de Aguadilla, ,P.O. Box 607087,Bayamon,PR,00960-7087,(787) 891-2360
Centro de Quimioterapia de Bayamon,Centro de Tratamiento Integral Asistido con Medicamentos de Bayamón,Carretera # 5 Avenida Central Juanita,Bayamon,PR,960,(787) 269-3045
"Texas Treatment Services, LLC",Beaumont Treatment Services,4349 Crow Road,Beaumont,TX,77706,(409) 813-2206
"Beckley Treatment Center, LLC",Beckley Treatment Center,175 Philpott Ln.,Beaver,WV,25813,(304) 254-9262
Father Martin's Ashley Outpatient,Ashley Addiction Treatment - Bel Air IOP/OMT,520 Upper Chesapeake Drive,Bel Air,MD,21014,(443) 760-3456
Medmark Treatment Centers Belcamp,Medmark Treatment Centers Belcamp,1361 Brass Mill Road,Belcamp,MD,21017,(410) 273-9700
Recovery Services of New Mexico,Opioid Treatment Program,2443 Highway 47,Belen,NM,87002,(505) 861-2066
Community Medical Services- Bozeman, ,8707 Jackrabbit Lane,Belgrade,MT,59714,(602) 248-8886
Therapeutic Health Services Eastside,Same,1412 140th Place NE,Bellevue,WA,98007,(425) 747-7892
Lummi OTP, ,2616 Kwina Road,Bellingham,WA,98226,(360) 380-6945
McLean Hospital Alcohol and Drug Abuse Treatment Program, ,115 Mill St.,Belmont,MA,2478,(617) 855-3450
"Quality Addiction Management, Inc.",Beloit Comprehensive Treatment Center,2240 Prairie Ave.,Beloit,WI,53511,(608) 361-7200
"Oregon Recovery and Treatment Center, LLC",Bend Treatment Center,155 NE Revere Suite 150,Bend,OR,97701,(541) 617-4544
Harbortown Treatment Center, ,"1022 E. Main St., P.O. Box 929",Benton Harbor,MI,49022,(269) 926-0015
Berkeley Addiction Treatment Services, ,2975 Sacramento St.,Berkeley,CA,94702,(510) 644-0200
BAART Behavioral Health Services, ,617 Comstock Road,Berlin,VT,5602,(802) 223-2003
"Northwest Alabama Treatment Center, Inc", ,4204 Edmonton Dr.,Bessemer,AL,35022,(205) 425-1200
New Directions Treatment Services, ,2442 Broadhead Rd.,Bethlehem,PA,18020,(610) 758-8011
Community Medical Services- Billings, ,2040 Rosebud Drive Suite 7,Billings,MT,59102,(406) 969-4812
"Metro Treatment of Mississippi, LP",Biloxi Treatment Center,1989 Pass Road,Biloxi,MS,39531,(228) 207-1248
"United Health Services, Southern Tier Drug Abuse Treatment Center", ,10-42 Mitchell Avenue,Binghamton,NY,13903,(607) 762-2800
Metro Treatment of Alabama L.P.,Birmingham Metro Treatment Center,151 Industrial Drive,Birmingham,AL,35211,(205) 941-1799
Tri County Treatment Center P.C., ,5605 Clifford Circle,Birmingham,AL,35210,(205) 836-3345
Heartview Foundation OTP,Heartview Foundation,121 E. Broadway Avenue,Bismarck,ND,58501,(701) 222-0386
MedMark Treatment Centers - Blairsville PA,MedTech Rehab,1984 Route 22,Blairsville,PA,15717,(724) 459-4884
"Medmark Treatment Centers of Georgia, Inc.",MedMark Treatment Centers Blairsville,20 Commerce Drive,Blairsville,GA,30512,(706) 781-6987
Sunlight Recovery,Sunlight Recovery,900 Glades Road,Boca Raton,FL,33431,(561) 314-6858
"Center for Behavioral Health Idaho, Inc.", ,92 South Cole Road,Boise,ID,83709,(208) 376-5021
Raise The Bottom Training & Counseling Services, ,9196 W. Barnes St,Boise,ID,83709,208-433-0400
McLeod Addictive Disease Center - Boone,McLeod Center,150 DenMac Dr.,Boone,NC,28607,(828) 263-8171
"Stepping Stones Wellness Center, LLC",Stepping Stone of Boone,643-L Greenway Road PO Box 2318,Boone,NC,28607,(828) 265-7078
Andrew House Detox Center Stoughton,Bay Cove Human Services,909 Sumner St,Boston,MA,2072,(617) 371-6000
"Community Health Care, Inc.",Health Care Resource Centers,23-27 Bradston Street,Boston,MA,2118,(617) 318-6480
Department of Veterans Affairs Drug Dependence Treatment Center,Drug Dependence Treatment Center,251 Causeway St.,Boston,MA,2114,(617) 248-1010
Bay Cove Treatment Program,"Bay Cove Human Services, Inc.","66 Canal St., First Floor",Boston,MA,2114,(617) 371-3030
"Habit Opco, LLC",Habit OPCO - Boston,99 Topeka Street,Boston,MA,02118-2717,(617) 442-1499
Boston Treatment Center,Lahey Health Behavioral Services,784 Rear Massachusetts Ave.,Boston,MA,2118,(617) 247-1001
"WCHS, Inc.",Canyon Park Treatment Solutions,"22026 20th Ave SE, Ste 101",Bothell,WA,98021,(425) 672-7293
Denver Recovery Group/West, ,5330 Manhattan Circle Unit H,Boulder,CO,80301,(720) 536-5571
"Metro Treatment of Utah, LP",Bountiful Treatment Center,"146 West 300 South, Suite 100",Bountiful,UT,84010,(801) 292-2318
"Center for Behavioral Health Kentucky, Inc.", ,"1990 Louisville Road, Suite 110",Bowling Green,KY,42101,(270) 782-2100
"Summit Detox, Inc.",Summit Detox,3330 South Federal Highway,Boynton Beach,FL,33435,(561) 336-3783
The Watershed Treatment Programs, ,4905 Park Ridge Blvd.,Boynton Beach,FL,33462,(561) 880-6220
Operation PAR Medication Assisted Patient Services, ,6253 14th Street West,Bradenton,FL,34207,(941) 753-0877
Valley Vista, ,23 Upper Plain,Bradford,VT,5033,(802) 222-5201
"Valhalla Place Brainerd, LLC", ,2215 South Sixth Street,Brainerd,MN,56401,(218) 454-1010
"Counseling Solutions of Murphy, LLP d/b/a Counseling Solutions Treatment Centers - Murphy",Counseling Solutions Treatment Centers - Murphy,7540 U.S. Hwy 64 West,Brasstown,NC,28902,(828) 837-5335
Brattleboro Retreat Buprenorphine Clinic, ,1 Anna Marsh Lane,Brattleboro,VT,5302,(802) 257-7785
"Habit Opco, LLC",Habit Opco - Brattleboro,16 Town Crier Drive,Brattleboro,VT,5301,(802) 258-4623
Brattleboro Retreat, ,1 Anna Marsh Lane,Brattleboro,VT,5301,(802) 257-7785
"BayMark Health Services of Louisiana, Inc.",BAART Programs Breaux Bridge,648 Latiolais Drive,Breaux Bridge,LA,70517,(337) 332-4878
Metro Treatment of Missouri,"St. Louis Metro Treatment Center, Inc.","9733 St. Charles Rock Road, Suite 108",Breckenridge,MO,63114,(314) 423-7030
"Ocean Monmouth Care, LLC", ,"495 Jack Martin Blvd., Suite 6 & 7",Brick,NJ,8724,(732) 458-2180
First Steps Detoxification Program, ,425 Grant Street,Bridgeport,CT,6610,(203) 416-1915
"APT Foundation, Inc.",APT Residential Services,425 Grant Street,Bridgeport,CT,6610,(203) 781-4600
"New Era Rehabilitation Center, Inc", ,3851 Main St. 2nd Fl.,Bridgeport,CT,6606,(203) 372-3333
Liberation Programs Methadone Clinic, ,399 Mill Hill Avenue,Bridgeport,CT,6610,(203) 851-2077
Kinsella Treatment Center, ,1862 Commerce Drive,Bridgeport,CT,6605,203-335-2173
South Jersey Drug Treatment Center, ,PO Box 867,Bridgeton,NJ,8302,(856) 455-5441
"Addiction Treatment Center of New England, Inc.", ,77F Warren St.,Brighton,MA,2135,(617) 254-1271
The Brighton Center, ,2512 Harte Dr.,Brighton,MI,48114,(810) 229-9220
The Hartford Dispensary - Bristol Clinic,Bristol Clinic,1098 Farmington Ave,Bristol,CT,6010,(860) 589-6433
"Habit Opco, Inc.",Habit OPCO - Brockton,180 Centre Street,Brockton,MA,02302-2733,(508) 586-6300
Brockton Opioid Treatment Program,High Point Treatment Center,30 Meadowbrook Road,Brockton,MA,2301,(508) 408-6190
Brockton Addiction Treatment Center,High Point Treatment Center,30 Meadowbrook Road,Brockton,MA,2301,(508) 584-9210
High Point Treatment Center Inc.- Men's Addiction Treatment Center,Men's Addiction Treatment Center (MATC),10 Meadowbrook Road,Brockton,MA,2301,(508) 742-4400
Montefiore Medical Center - Wellness Center at Port Morris, ,804 East 138th Street,Bronx,NY,10454,(718) 665-7500
James J. Peters VA Medical Center,Bronx VA Medical Center Substance Abuse Services Program,130 West Kingsbridge Road,Bronx,NY,10468,(718) 584-9000
Jacobi Medical Center,Jacobi Medical Center,"1400 Pelham Pkwy So., Building #1, Floor 10 East",Bronx,NY,10461,(718) 918-4465
St. Barnabas Hospital - Drug Detoxification Service, ,4422 3rd Avenue 4 West Detox,Bronx,NY,10457,(718) 960-6159
St. Barnabas Hospital Methadone Maintenance Treatment Program,St. Barnabas Hospital Methadone Maintenance Program,4535-39 Third Ave.,Bronx,NY,10457,(718) 960-6214
Samaritan Village OTP, ,250 Grand Concourse,Bronx,NY,10451,(718) 292-4455
Vocational Instruction Project, ,1910 Arthur Ave.,Bronx,NY,10457,(718) 466-6192
"Promesa, Inc.", ,1776 Clay Ave.,Bronx,NY,10457,(718) 960-7601
Montefiore Medical Center SATP Unit I, ,3550 Jerome Ave.,Bronx,NY,10467,(718) 920-4067
Montefiore Medical Center -Wellness Center at Waters Place, ,1510 Waters Place,Bronx,NY,10461,(718) 829-3440
"Concourse Medical Center, Inc.","Concourse Medical Center, Inc.",880 Morris Ave.,Bronx,NY,10451,(718) 665-9340
Montefiore Medical Center - Wellness Center at Melrose, ,260 East 161st Street- C Level,Bronx,NY,10451,(718) 993-3397
Samaritan Village OTP, ,477 Willis Ave.,Bronx,NY,10455,(718) 292-2990
The Bronx Lebanon Hospital Center MMTP,Opioid Treatment Program,1276 Fulton Avenue,Bronx,NY,10456,(718) 503-7750
"Montefiore Medical Center, Substance Abuse Treatment Program (SATP) Unit III", ,2058 Jerome Avenue,Bronx,NY,10453,(917) 564-8700
PUERTO RICAN ORGANIZATION TO MOTIVATE ENLIGHTEN AND SERVE ADDICTS INC. (Promesa),Ramon Velez Recovery Center,754 East 151 Street,Bronx,NY,10455, 
First Psychiatric Planners,Bournewood Hospital,300 South Street,Brookline,MA,2467,(617) 469-0300
"St. Joseph's Hospital, Yonkers- Alabama Ave Clinic",St. Martin de Porres Clinic-Brooklyn Addiction Services Program,480 Alabama Ave.,Brooklyn,NY,11207,(718) 485-3400
"St. Joseph's Hospital, Yonkers-Powell Street Clinic",Brooklyn Addiction Services Program,211-221 Powell St.,Brooklyn,NY,11212,(718) 485-6000
"St. Joseph's Hospital, Yonkers-Prospect Place Clinic",Brooklyn Addiction Services Program,1480 Prospect Pl.,Brooklyn,NY,11213,(718) 953-2302
"START Treatment & Recovery Centers, Inc", ,1149-55 Myrtle Ave.,Brooklyn,NY,11206,(718) 574-1801
"START Treatment & Recovery Centers, Inc", ,494 Dumont Ave.,Brooklyn,NY,11207,(718) 385-4000
Staten Island University Hospital - 105th St. M.M.T.P.,Staten Island University Hospital,567 East 105th St.,Brooklyn,NY,11236,(718) 307-3001
Staten Island University Hospital CIA MMTP,Staten Island University Hospital,425 Coney Island Ave,Brooklyn,NY,11218,(718) 226-4952
Kingsboro Addiction Treatment Center, ,754 Lexington Avenue,Brooklyn,NY,11221,(718) 453-3200
Woodhull Medical and Mental Health Center, ,"Units 8-300 and 9300, 760 Broadway",Brooklyn,NY,11206,(718) 963-8829
Interfaith Medical Center - Detoxification Unit, ,1545 Atlantic Ave.,Brooklyn,NY,11213,(718) 613-4330
Coney Island Hospital - Acute Care Addiction Program, ,2601 Ocean Pkwy.,Brooklyn,NY,11235,(718) 616-5500
Parkside Depedency Treatment Program - The Brooklyn Hospital Center Caledonian Campus, ,121 DeKalb Ave.,Brooklyn,NY,11201,(718) 250-8900
"South Brooklyn Medical Administrative Services, Inc.", ,685 Third Ave.,Brooklyn,NY,11232,(718) 788-2594
Mount Sinai Beth Israel O.T.P. - Cumberland Clinic,Opioid Treatment Program,98-100 Flatbush Ave.,Brooklyn,NY,11217,(718) 237-9600
Mount Sinai Beth Israel O.T.P. - Vincent P. Dole Clinic,Opioid Treatment Program,25-12th St.,Brooklyn,NY,11215,(718) 965-7900
"START Treatment & Recovery Centers, Inc", ,937 Fulton St.,Brooklyn,NY,11238,(718) 789-1212
"ACACIA NETWORK, Inc. as sponsor, The Puerto Rican Organization to Motivate, Enlighten, and Serve Addicts, Inc. as operator", ,553-561 Court St.,Brooklyn,NY,11231,(718) 802-1111
Interfaith Medical Center - Methadone Maintenance Treatment Program, ,880 Bergen Street,Brooklyn,NY,11213,(718) 613-7511
"NYC H and H/ Kings County, Chemical Dependency, Detoxification Unit", ,"410 Winthrop Street, R-2 East",Brooklyn,NY,11203,(718) 245-2665
"NYC H and H/ Kings County, Wellness and Recovery Center OTP", ,591 Kingston Avenue,Brooklyn,NY,11203,(718) 245-2625
"Specialized Treatment Services, Inc., Brooklyn Park", ,7472 Lakeland Blvd,Brooklyn Park,MN,55428,(612) 236-1702
"Valhalla Place, LLC - Brooklyn Park","Valhalla Place, LLC",2807 Brookdale Drive,Brooklyn Park,MN,55444,(763) 237-9898
"BPH, Inc. t/a Starting Point", ,4109 Ritchie Highway,Brooklyn Park,MD,21225,(410) 609-0040
El Dorado Texas Community Service Center, ,954 E. Madison St.,Brownsville,TX,78520,(956) 550-9970
Treatment Center of Brunswick, ,100 Cornerstone Drive,Brunswick,GA,31523,(912) 262-0311
Sister's Hospital Pathways,Buffalo Pathways,158 Holden St.,Buffalo,NY,14214,(716) 862-1330
"Community Action Organization of Western NY, Inc.", ,1237 Main St.,Buffalo,NY,14209,(716) 884-9101
Erie County Medical Center Withdrawal and Stabilization Service,Erie County Medical Center Withdrawal and Stabilization Service,ECMC Withdrawal and Stabilization Service,Buffalo,NY,14215,(716) 898-3415
Promesa Inc., ,254 Virginia Street,Buffalo,NY,14201,(716) 768-4040
HealthQwest Frontiers,Outpatient Narcotic Treatment Program,4271 South Lee Street,Buford,GA,30518,(678) 765-8160
Bullhead City ORS,"Southwest Behavioral Health Services, Inc.","809 Hancock Rd., Suite 1",Bullhead City,AZ,86442,(928) 763-7111
Howard Center - UHC Methadone,Chittenden Clinic,"1 South Prospect St., Room 1420",Burlington,VT,5401,(802) 488-6450
CRC Health of Tennessee,Mirror Lake Recovery Center,999 Girl Scout Rd,Burns,TN,37029,(615) 446-7034
"Metro Treatment of Minnesota, LP","Dakota Treatment Center, Inc.",11939 River Hills Drive,Burnsville,MN,55337,(952) 890-4480
"Foundations Medical Services, LLC", ,160 Hindman Road,Butler,PA,16001,(724) 431-2006
"Discovery House WC, Inc.", ,12 Beech St. Unit 2,Calais,ME,4619,(207) 454-1300
"Imperial Valley Medical Clinic, Inc.", ,535 West Cesar Chavez Blvd.,Calexico,CA,92231,(760) 357-6566
"Crossroads Treatment Center of Calhoun, PC", ,"367 Richardson Road, SE",Calhoun,GA,30701,(762) 204-2451
"Outlook Recovery, LLC", ,21030 Point Lookout Road,Callaway,MD,20620, 
"Great Heights Family Medicine, Ltc.", ,1473 Ring Road,Calumet City,IL,60409,(708) 862-8156
North Charles Institute for the Addictions: The Cambridge Hospital Narcotic Treatment Program, ,1493 Cambridge Street,Cambridge,MA,2139,(617) 661-5700
Camden Treatment Associates (Urban Treatment Associates), ,424-32 Market St.,Camden,NJ,8102,(856) 338-1811
ARS of Pennsylvania LLC, ,3433 Trindle Road,Camp Hill,PA,17011,(717) 761-4500
Mountainside Treatment Center, ,187 S. Canaan Road,Canaan,CT,6018,(860) 824-1397
"CommQuest Services, Inc.", ,1341 Market Ave. North,Canton,OH,44714-2675,(330) 453-8252
"Metro Treatment of Missouri, LP",Cape Girardeau Metro Treatment Center,"760 South Kings Highway, Suite F",Cape Girardeau,MO,63701,(573) 335-4333
ARS of Rio Grande LLC,Addiction Recovery Systems,1200 Route 9 South,Cape May Court House,NJ,8210,(609) 463-0500
"Arms Acres, Inc.", ,21 Old Route 6,Carmel,NY,10512,845-225-5202
"Arms Acres, Inc","Arms Acres, Inc",75 Seminary Hill Rd,Carmel,NY,10512,(845) 704-6117
Bi-Valley Medical Clinic and BAART Behavioral Health Services,BAART Programs Carmichael,6127 Fair Oaks Blvd.,Carmichael,CA,95608,(916) 974-8090
"Fayette Treatment Program, LLC",Greene Treatment Center,2695 Roy E Furman Highway,Carmichaels,PA,15320,(724) 966-5000
"Toxicology Associates of North Georgia Carrollton, Inc.","Toxicology Associates of North Georgia Carrollton, Inc.",2536 Carollton-Villa Rica Hwy,Carrollton,GA,30117,(770) 214-9788
The Life Change Center,The Life Change Center,1201 N. Stewart St #120,Carson City,NV,89706,(775) 350-7250
"Cartersville Center, LLC",Cartersville Comprehensive Treatment Center,218 Stonewall St.,Cartersville,GA,30120,(770) 386-1907
Clínica de Tratamiento Integral Asistido con Medicamentos Cayey, ,Ave. Jose' de Diego #392 Oeste,Cayey,PR,736,(787) 738-2222
"Galax Treatment Center, LLC",Clinch Valley Treatment Center,111 Town Hollow Rd.,Cedar Bluff,VA,24609,(276) 963-3554
Cedar Valley Recovery Services, ,2603 Rainbow Drive,Cedar Falls,IA,50613,(319) 277-5808
Medication Assisted Recovery Services - MARS LLC, ,"1101 Arrow Point Drive, Suite 214",Cedar Park,TX,78613,(512) 986-7743
"CRC Recovery, Inc.",Cedar Rapids Treatment Center,"5005 Bowling Street SW, Ste C",Cedar Rapids,IA,52404,(319) 531-3840
"VCPHCS XIIa, LLC",BHG Centennial Treatment Center,7286 S.Yosemite Street Suite 125,Centennial,CO,80112,(303) 824-5866
"MedMark Treatment Centers of Texas, Inc.",MedMark Treatment Centers Center,1110 Tenaha St,Center,TX,75935,(936) 598-6608
Lakeview Center Inc. Century Clinic,"Lakeview Center, Inc.",6021 Industrial blvd,Century,FL,32535,(850) 256-6280
Champaign Treatment Center, ,106 S. Country Fair Drive,Champaign,IL,61821,(217) 373-8200
"BAART Behavioral Health Services, Inc.", ,908A West Chandler Blvd.,Chandler,AZ,85225,(480) 899-0200
Pinnacle Treatment Centers PA-VIII,Charleroi Treatment Services,15 Arentzen Blvd.,Charleroi,PA,15022,(724) 565-1310
"Charleston Treatment Center, LLC",Charleston Treatment Center,2157 Greenbrier St.,Charleston,WV,25311,(304) 344-5924
Department of Alcohol and Other Drug Abuse Services of Charleston County,Charleston Center,5 Charleston Center Dr.,Charleston,SC,29401,(843) 958-3333
"Southern Indiana Treatment Center, LLC",Southern Indiana Treatment Center,7509-7511 Charlestown Pike,Charlestown,IN,47111,(812) 256-4686
Metro Treatment of North Carolina -Charlotte,Charlotte Treatment Center,3315 Wilkinson Blvd.,Charlotte,NC,28208,(704) 697-0044
"Queen City Treatment Center DBA Treatment Centers, LLC-Charlotte", ,6115 Hickory Grove Rd.,Charlotte,NC,28215,(704) 532-4262
McLeod Addictive Disease Center - Charlotte,McLeod Center,521 Clanton Road,Charlotte,NC,28217,(704) 332-9001
"Addiction Recovery Systems, LLC",ARS Pantops Clinic,103 S. Pantops Drive,Charlottesville,VA,22911,(434) 220-0080
"Counseling Solutions of Chatsworth, LLC d/b/a Counseling Solutions Treatment Centers - Chatsworth",Counseling Solutions Treatment Centers — Chatsworth,1289 GI Maddox Pkwy (US Hwy 76),Chatsworth,GA,30705,(706) 971-3366
"Volunteer Treatment Center, LLC",Volunteer Treatment Center,2347 Rossville Blvd.,Chattanooga,TN,37408,(423) 265-3122
"Community Health Care, Inc.",Health Care Resource Centers,175 Crescent Ave.,Chelsea,MA,2150,(617) 889-8779
"BHG XLI, LLC",BHG Chesapeake Treatment Center,3356 Western Branch Blvd.,Chesapeake,VA,23321,(757) 673-3644
"Jk2c, LLC",The Chesapeake Treatment Center,109 WIMBLEDON SQUARE,CHESAPEAKE,VA,23320,(757) 410-8244
SOAR Corp, ,419-421 E. 22nd Street,Chester,PA,19013,(610) 876-3324
"Prospect CCMC, LLC",Crozer Chester Medical Center,"2600 West Ninth St., Ground Floor, Community Hosp.",Chester,PA,19013,(610) 497-7282
Prince George's County Health Department,Cheverly Drug Treatment Program,3003 Hospital Drive,Cheverly,MD,20785,(301) 583-5920
Garfield Counseling Center, ,4132 West Madison St.,Chicago,IL,60624-2303,(773) 533-0433
"Human Resources Development Institute, Inc. (BRASS I)",BRASS I,340 East 51st St.,Chicago,IL,60615,773-966-0333
"Family Guidance Centers, Inc.", ,310 West Chicago Ave.,Chicago,IL,60654,(312) 943-6545 x304
"Human Resources Development Institute, Inc.",Southwest Central,33 East 114th St.,Chicago,IL,60628,(773) 660-4630
Jesse Brown Opioid Addiction Treatment Program VA,Drug Dependence Treatment Program (DDTC),820 South Damen Ave.,Chicago,IL,60612,(312) 569-7484
"Human Resources Development Institute, Inc. (BRASS II)",BRASS II,8000 South Racine,Chicago,IL,60620,(773) 966-0255
Center for Addictive Problems, ,609 North Wells St.,Chicago,IL,60654,(312) 266-0404
New Age Services Corporation, ,1330 South Kostner Avenue,Chicago,IL,60623,(773) 542-1150
Southwood Interventions, ,5701 South Wood St.,Chicago,IL,60636,(773) 737-4600
The Women's Treatment Center, ,140 North Ashland Ave.,Chicago,IL,60607,(312) 850-0050
"Pilsen-Little Village Community Mental Health Center, Inc. - Substance Abuse Division","Pilsen Wellness Center, Inc.",3113 West Cermak Rd.,Chicago,IL,60623,(773) 277-3413
Chicago Treatment and Counseling Center II, ,4453 North Broadway,Chicago,IL,60640,(773) 506-2900
"Specialized Assistance Services, Inc. (Outpatient Unit)", ,2630 South Wabash Ave.,Chicago,IL,60616,(312) 808-3218
South Shore Hospital,OTP,8012 South Crandon Ave.,Chicago,IL,60617,(773) 768-0810
Caritas Central Intake Unit,Substance Abuse Provider,140 North Ashland Ave.,Chicago,IL,60607,(312) 850-9411
FOLA Community Action Services, ,8014-8018 S. Ashland Avenue,Chicago,IL,60620,(773) 487-4310
"Nuway Community Services, Inc.","Nuway Community Services, Inc.",110 East 79th street,Chicago,IL,60619,(773) 723-2790
"Hardin House / Drexel Counseling Services, Inc.", ,936 East 93rd Street,Chicago,IL,60619,(773) 731-5395
Katherine Boone Robinson Foundation, ,4100 West Ogden Avenue,Chicago,IL,60623,(773) 521-1601
"Chicago Treatment and Counseling Center, Inc.", ,3520 S. Ashland Ave.,Chicago,IL,60609,(773) 523-3400
IJEGBA Community Inc., ,1950 E. 75th St.,Chicago,IL,60649,(773) 684-8422
Rincon Family Services, ,3809 W. Grand Avenue,Chicago,IL,60651,(773) 276-0200
Cermak Health Services of Cook County,Cermak Health Services of Cook County,2800 South California Ave.,Chicago,IL,60608,(773) 674-5641
NEXA/HAS, ,210 N. Ashland Ave.,Chicago,IL,60607,(312) 948-0200
"PDSSC - Chicago, Inc.", ,2260 N. Elston Ave.,Chicago,IL,60614,(773) 772-2450
"Sundance Methadone Treatment Center, LLC",Sundance Methadone Treatment Center,4545 North Broadway,Chicago,IL,60640,(773) 784-1111
"Eva Mae Recovery Hope, Inc.",Eva Mae Kuye Memorial Clinic,6614 S. Halsted Street,Chicago,IL,60621-1812,(773) 952-6861
"St. Michaels Counseling Center, Inc.","St. Michael's Counseling Center, Inc.",7124 W Grand Ave,Chicago,IL,60707,(773) 598-8540
"Renewed Hope Community Services, Inc.", ,626-628 East 71st Street,Chicago,IL,60619,773-783-3579
New Hope Community Service Center, ,2559 W. 79th St,Chicago,IL,60652,(773) 737-9555
Family Guidance Centers at St. Bernard Hospital, ,326 W. 64th Street,Chicago,IL,60621,(773) 635-2060
Elite Treatment Center, ,395 Lincoln Highway,Chicago Heights,IL,60411,(708) 755-5117
"Buena Vista Group, LLC", ,418 Dixie Highway,Chicago Heights,IL,60411,(708) 481-4200
"Aegis Treatment Centers, LLC",Narcotic Treatment Program,"582, 584, 586, 588 & 590 Rio Lindo Ave.",Chico,CA,95926,(530) 345-3491
"Community Health Care, Inc.",Health Care Resource Centers,628 Center St.,Chicopee,MA,1013,(413) 746-0051
"Pinnacle Treatment Centers OH-II, LLC",Chillicothe Treatment Services,606 Central Center,Chillicothe,OH,45601, 
St. Croix Rehabilitation Program,"Division of Mental Health, Alcoholism, & Drug Dependency","3500 Richmond, Charles Harwood Complex",Christiansted,VI,820,(340) 773-1311 x3025
"San Diego Treatment Service, LLC",Third Avenue Clinic,1155 Third Ave.,Chula Vista,CA,91911,(619) 498-8260
"Chicago Treatment and Counseling Center, Inc. IV", ,5635 West Roosevelt Rd.,Cicero,IL,60804,(708) 652-6500
"Chicago Treatment and Counseling Center, Inc. III", ,1849 South Cicero Ave.,Cicero,IL,60804,(708) 656-9500
"Central Community Health Board of Hamilton County, Drug Services Program","Central Community Health Board of Hamilton County, Drug Services Program",3020 Vernon Pl.,Cincinnati,OH,45219,(513) 559-2933
"Opiate Substitution Services, VAMC - Cincinnati Division", ,3200 Vine St.,Cincinnati,OH,45220,(513) 475-6402
"University of Cincinnati Physicians Company, LLC (UCPC,LLC)", ,3131 Harvey Avenue,Cincinnati,OH,45229,(513) 585-8227
"Premier Care of Ohio, LLC", ,42 East Crescentville Road,Cincinnati,OH,45246,(513) 671-7117
The Crossroads Medication Assisted Treatment Program,Crossroads MAP,3009 Burnet Avenue,Cincinnati,OH,45219,(513) 332-0350
"Sunrise Treatment Center, LLC",Sunrise Treatment Center,6460 Harrison Ave.,Cincinnati,OH,45247,(513) 941-4999
"Pinnacle Treatment Centers OH-VI, LLC",Covedale Treatment Services,5122 Glencrossing Way,Cincinnati,OH,45238,(513) 827-9044
Chilton County Treatment Center,Chilton County Treatment Center,2100 Holiday Inn Drive,Clanton,AL,35046,(205) 755-4300
"Clarksburg Treatment Center, LLC",Clarksburg Treatment Center,706 Oakmound Road,Clarksburg,WV,26301,(304) 622-7511
"ATS of Delaware, Inc.",Claymont Treatment Center,2999 Philadelphia Pike,Claymont,DE,19703,(302) 792-0700
"HHDM, Inc. dba Johnston Recovery Services",Johnston Recovery Services,1699 Old US Highway 70 West,Clayton,NC,27520,(919) 359-1699
"Discovery House CU, Inc.", ,214 Airport Road,Clearfield,PA,16830,(814) 768-7575
Operation PAR Medication Assisted Patient Services, ,6150 150th Ave,Clearwater,FL,33760,727-507-4673
"Lakeside Clinic, LLC", ,13700 58th Street North,Clearwater,FL,33760,(727) 223-3545
Lutheran Hospital Alcohol and Drug Recovery Center, ,1730 West 25th Street,Cleveland,OH,44113,(216) 363-2230
Community Action Against Addiction,CAAA,5209 Euclid Avenue,Cleveland,OH,44103,216-881-0765
"Cleveland VA Medical Center-Wade Park Division, Opioid Treatment Program", ,10701 East Blvd.,Cleveland,OH,44016,(216) 791-3800
Bureau of Drug Abuse - Cleveland Treatment Center,Cleveland Treatment Center,1127 Carnegie Ave.,Cleveland,OH,44115,(216) 861-4246
"Clear Skye Medical Holding, LLC",Clear Skye Treatment Centers,1035 Medical Ridge Rd.,Clinton,SC,29325,(864) 547-2089
"St. Genevieve Detox and Maintenance, Inc.", ,141 N. Brazosport Blvd,Clute,TX,77531,(979) 265-0705
BHG XXXVII,BHG Clyde Treatment Center,414 Hospital Drive,Clyde,NC,28721,(828) 454-0560
"Advanced Treatment Systems, LLC",Coatesville Treatment Center,1825 East Lincoln Hwy.,Coatesville,PA,19320,(610) 466-9250
Central Florida Substance Abuse Treatment Center, ,7 North Cocoa Blvd.,Cocoa Beach,FL,32922,(321) 631-4578
"Soft Landing Interventions, LLC",Soft Landing Recovery at College Station,1651 Rock Prairie Rd,College Station,TX,77080, 
"Colorado Treatment Services, LLC",Colorado Treatment Services LLC,5360 N Academy Blvd,Colorado Springs,CO,80918,(719) 434-2061
"WCHS, Inc.",Colton Clinical Services,2275 East Cooley Dr.,Colton,CA,92324,(909) 370-1777
"VCPHCS XVII, LLC",BHG Columbia,1202 S. James Campbell Blvd. Ste 7A,Columbia,TN,38402,(931) 381-0020
Crossroads Treatment Center of Columbia, ,1421 Bluff Road,Columbia,SC,29201,803-733-5855
"DRD Management, Inc.",Columbia Treatment Clinic,"1301 Vandiver Road, Suite Y",Columbia,MO,65201,(573) 449-8338
SRR Treatment Solutions,Silverman Treatment Solutions,8930 Stamford Blvd,Columbia,MD,21046,(443) 285-0807
Maryhaven Addiction Stabilization Center (MASC), ,1430 S. High Street,Columbus,OH,43207,(614) 643-6821
"Premier Care of Ohio, LLC",Premier Care Columbus,1380 Dublin Rd,Columbus,OH,43215,(614) 488-7117
"Metro Treatment of Georgia, LP",Columbus Metro Treatment Center,1135 13th Street,Columbus,GA,31902,(706) 887-5030
Columbus Addiction Associates,Private Clinic Columbus,5617 Princeton Avenue,Columbus,GA,31904,(706) 257-7722
Maryhaven,Maryhaven OTP,1791 Alum Creek Dr.,Columbus,OH,43207,(614) 445-8131
"MedMark Treatment Centers of Georgia, Inc. MedMark Treatment Centers -- Columbus", ,1301 Wynnton Court,Columbus,GA,31906,(706) 576-4033
CompDrug, ,547 East 11th Ave.,Columbus,OH,43211,(614) 224-4506
Robert W. Dail Memorial Treatment Center,Robert W. Dail Memorial Treatment Center,734 Hospital Road,Commerce,GA,30529,(706) 335-5180
McLeod Addictive Disease Center - Concord,McLeod Center,300 Copperfield Blvd. Stes 105,Concord,NC,28025,(704) 782-3131
"Metro Treatment of New Hampshire, LP",Concord Metro Treatment,100 Hall Street,Concord,NH,3301,(603) 229-4260
Huntsville Clinic Inc.,Conroe Treatment & Recovery Center,501 Everett Street,Conroe,TX,77301,(936) 441-9172
Alliance Recovery Center Conyers,Alliance Recovery Centers,3430 Highway 20,Conyers,GA,30013,(770) 922-4482
"BHG XXXIV, LLC",BHG Corbin Treatment Center,967 South Hwy. 25 West,Corbin,KY,40702,(606) 526-9348
"South Texas Substance Abuse Recovery Services, Inc.", ,907 Antelope St.,Corpus Christi,TX,78401,(361) 882-9979
"Toxicology Associates, Inc.", ,"5233 I.H. 37, Suite C-17",Corpus Christi,TX,78408,(361) 882-2064
Counseling And Recovery Services (CARS),Counseling and Recovery Services,4300 SPID,Corpus Christi,TX,78411,361-814-8107
"NKY Med Clinic, LLC", ,1717 Madison Avenue,Covington,KY,41011,(859) 360-0250
"Metro Treatment of Kentucky, LP",Covington Metro Treatment Center,1450 Madison Avenue,Covington,KY,41011,(859) 444-4499
"Center for Behavioral Health, Inc.",Discovery House,"301 Smith Dr., Suite 3",Cranberry Township,PA,16066,(724) 779-2010
CODAC Cranston, ,1052 Park Ave,Cranston,RI,2910,(401) 275-5037
CODAC ACI,CODAC Inc,18 Slate Hill Dr.,Cranston,RI,2920,(401) 275-5039
Cullman County Treatment Center, ,"1912 Commerce Ave. NW, P.O. Box 2085",Cullman,AL,35056,(256) 739-5595
Western Maryland Recovery Services,"WMRS, Inc.",11604 Bedford Road,Cumberland,MD,21502,(301) 724-1144
Georgia Treatment Center, ,514 West Maple Street,Cumming,GA,30040,(770) 884-7826
Addiction Campus of Massachusetts,Swift River,151 South Street,Cummington,MA,1026,(214) 412-7869
S.T.E.P. Med, ,2929 Martin Luther King Jr. Blvd.,Dallas,TX,75215,(214) 421-9100
"Brand New Start Treatment Center - Paulding, LLC", ,311 White Ingram Parkway,Dallas,GA,30132,(678) 363-7442
West Texas Counseling And Rehabilitation of Dallas, ,1808 Market Center Blvd,Dallas,TX,75207,(214) 630-7146
Life's Second Chance Treatment Center, ,2615 S Lancaster Rd,Dallas,TX,75216,(214) 376-7388
"Anti-Aging & Longevity Center of Texas, P.A.", ,8021 East R.L. Thornton Freeway,Dallas,TX,75228,(214) 328-4848
North Texas VA Health Care System, ,4500 S Lancaster Rd.,Dallas,TX,75216,(214) 857-0945
"Cross Roads Recovery, Inc.","Cross Roads, Inc",5552 South Hampton Rd.,Dallas,TX,75232,(214) 339-3181
Metro Treatment of Texas L.P.,Dallas County Treatment Center,123 East Colorado Blvd.,Dallas,TX,75203,(214) 946-5540
"Connecticut Counseling Centers, Inc.","Connecticut Counseling Centers, Inc.",60 Beaverbrook Rd.,Danbury,CT,6810,(203) 743-7574
"Midwestern Connecticut Council on Alcoholism, Inc.", ,38 Old Ridgebury Road,Danbury,CT,6810,(203) 792-4515
Danvers Treatment Center,Lahey Health Behavioral Services,111 Middleton Rd.,Danvers,MA,1923,(978) 777-2121
RECOVERY CENTERS OF AMERICA,Recovery Centers of America at Danvers,75 Lindall Street,Danvers,MA,1923,(800) 732-6837
"Crossroads Treatment Center of Danville, PC", ,1555 Meadowview Dr.,Danville,VA,24541,(434) 685-1570
"Center for Behavioral Health Iowa, Inc.", ,3811 North Harrison Street,Davenport,IA,52806,(563) 388-8000
"Crossroads Treatment Center of Dawsonville, PC", ,"400 Dawson Commons Circle, Suite 410",Dawsonville,GA,30534,(706) 344-1263
"Pinnacle Treatment Centers OH-V, LLC",Dayton Treatment Services,7301 Poe Avenue,Dayton,OH,45414, 
Department of Veteran Affairs,Opioid Treatment Program,"4100 West Third St., Building 302, Room 125",Dayton,OH,45428,937-268-6511 x1267
"Metro Treatment of Florida, LP",Daytona Methadone Treatment Center,1823 Business Park Blvd,Daytona Beach,FL,32114,(386) 254-1931
Premier Services of Michigan LLC,Premier Care Dearborn Heights,25639 Ford Rd.,Dearborn Heights,MI,48127,(313) 277-3293
"Alliance Recovery Center, Inc.", ,1116 E. Ponce De Leon Ave.,Decatur,GA,30030,(404) 377-7669
Department of Veterans Affairs, ,1670 Clairmont Road,Decatur,GA,30033,(404) 321-6111 x7392
Heritage Behavioral Health Center, ,1029 North Water Street,Decatur,IL,62523,(217) 330-5676
Deerfield Florida House,Deerfield Florida House,504 South Federal Highway,Deerfield Beach,FL,33441,(866) 421-6242
"Aegis Treatment Centers, LLC",Narcotic Treatment Program,1019 Jefferson Street,Delano,CA,93215,(661) 721-0463
Fair Oaks Pavilion at Delray Medical Center, ,5440 Linton Blvd.,Delray Beach,FL,33484,(561) 495-3724
"Access Recovery Solutions, LLC", ,"16244 S. Military Trail, Suite 110",Delray Beach,FL,33484,(561) 865-2550
"Finch Clinic, PllP",Axcel Treatment & Recovery Program,1105 Memorial Dr,Denison,TX,75020,(214) 631-5234
Texas Treatment Services,Denton Treatment Services,621 Londonderry Ln.,Denton,TX,76205,(940) 483-0644
Outpatient Behavioral Health Services, ,"777 Bannock St., Unit 9",Denver,CO,80204,(303) 436-5699
A.R.T.S. Parkside Clinic, ,1620 Gaylord St.,Denver,CO,80206,(303) 388-5894
Comprehensive Behavioral Health Center, ,2217 Champa St.,Denver,CO,80205,720-398-9666
Denver Recovery Group, ,2822 E. Colfax,Denver,CO,80206,(303) 953-2299
"VCPHCS XII, LLC",BHG Denver Treatment Center,"5250 Leetsdale Drive, Ste. 220",Denver,CO,80204,(303) 629-5293
"Crossroads Treatment Center of Denver, PC", ,1801 West 13th Avenue,Denver,CO,80204,(303) 893-4291
"Resource Center for the Chemically Dependent, Inc. Morris County",Morris County Aftercare Center,273 East Main Street,Denville,NJ,7834,(973) 927-6641
Covert Action LLC,Covert Action,1223 Center Street,Des Moines,IA,50309,(515) 218-6125
"United Community Service, Inc", ,4908 Franklin Avenue,Des Moines,IA,50310,(515) 280-3860
"Center for Behavioral Health Iowa, Inc.", ,"1200 University, Ste. 106",Des Moines,IA,50314,(515)244-9500
"Family Guidance Centers, Inc.", ,484 Lee St.,Des Plaines,IL,60016,(847) 827-7517
Soft Landing Interventions,Soft Landing at Des Plaines,1460 Market St,Des Plaines,IL,60016,(630) 261-9220
"Institute of Supportive Services, Inc.", ,"19940 Conant St. Suites A,B, & C",Detroit,MI,48219,(313) 733-4528
Nardin Park Recovery Center, ,9605 Grand River Ave.,Detroit,MI,48204,(313) 834-5930
"S.T.A.R. Center, Inc.", ,13575 Lesure St.,Detroit,MI,48227,(313) 493-4410
Metro East Substance Abuse Treatment Corporation Harper/ Chalmers Clinic, ,13929 Harper Ave.,Detroit,MI,48213,(313) 371-0055
"New Light Recovery Center, Inc.", ,300 W. McNichols St.,Detroit,MI,48203,(313) 867-8015
John D. Dingell VA Medical Center, ,4646 John R. St.,Detroit,MI,48201,(313) 576-1000
"Sunshine Treatment Institute, PLLC", ,4821 E. McNichols Rd.,Detroit,MI,48212,(313) 368-4800
Wayne State University Physicians Group - Tolan Park Research Program,Tolan Park Research Program,3901 Chrysler Service Drive,Detroit,MI,48201,(313) 993-3964
Recovery Centers of America at Devon,Recovery Centers of America at Devon,235 E. Lancaster Ave,Devon,PA,19333, 
"GPA Treatment, Inc.", ,4255 Chamblee-Tucker Rd.,Doraville,GA,30340,(770) 493-1922
Health Qwest,HealthQwest,2109 Fairburn Rd. Unit A,Douglasville,GA,30134,(770) 726-7958
Kent Sussex Community Services,Substance abuse and Co occuring treatment,1241 College Park Dr.,Dover,DE,19904,(302) 735-7790
Connections Community Support Programs -- Dover, ,1114 South DuPont Highway,Dover,DE,19901,(302) 672-9360
CAP of Downers Grove,Opiod Treatment Program,4954 S. Main St.,Downers Grove,IL,60515,(630) 810-0186
"Aldie Foundation, Inc.", ,11 Welden Drive,Doylestown,PA,18901,(215) 345-8530
CFMG Opioid Treatment Program - Santa Rita Jail, ,5325 Broder Blvd.,Dublin,CA,94568-3309,(925) 803-7022
Genesis Treatment Center, ,"1022 Hillcrest Parkway, Suite 106",Dublin,GA,31201,(478) 272-5020
Preferred Treatment, ,"1101 Hillcrest Parkway, Unit F",Dublin,GA,31021,(478) 274-8426
Medication Assisted Recovery Clinic,ClearPath Clinic,1402 E. Superior SE,Duluth,MN,55805,(218) 529-1188
Metro Treatment Center of Minnesota,Lake Superior Treatment Center,"14 East Central Entrance, Suite B",Duluth,MN,55811,(218) 786-0223
Palmetto Carolina Treatment Center, ,325 Inglesby Parkway,Duncan,SC,29334,(864) 433-8443
"Discovery House- BC, Inc.", ,3438 Route 764,Duncansville,PA,16635,(814) 944-7000
"BD Health Services, Inc", ,3955 Old North Point Road,Dundalk,MD,21222,(410) 477-0744
"Habit Opco, LLC",Habit OPCO - Dunmore,118 Monahan Avenue,Dunmore,PA,18512,(570) 344-5327
Southern Rockies Addiction Treatment Services, ,450 Camino Del Rio,Durango,CO,81301,(970) 828-3030
BAART Community HealthCare, ,800 N. Mangum St. Suites 300 and 400,Durham,NC,27701,(919) 683-1607
Metro Treatment of North Carolina LP -Durham,Durham Treatment Center,1913 Lamar Street,Durham,NC,27705,(919) 286-1509
"BHG XXXI, LLC",BHG-Dyersburg,"640 Highway 51 Bypass East, Suite M",Dyersburg,TN,38024,(731) 285-6535
Eagleville Hospital, ,100 Eagleville Rd.,Eagleville,PA,19403,(610) 539-6000
"314 Grove Neck Opco, LLC",Recovery Centers of America Bracebridge,314 Grove Neck Rd,Earleville,MD,21919,(410) 275-6200
Recovery Concepts of the Carolina - Upstate,Recovery Concepts - Upstate,1653 E. Main St.,Easley,SC,29640,(864) 306-8533
George Motchan Detention Center/Rikers Island Correctional Facility, ,15-15 Hazen St.,East Elmhurst,NY,11370,(347) 774-7864
Nassau County Substance Alternative Clinic- Butler Building,Nassau County Methadone Maintenance Treatment Program,2201 Hempstead Turnpike,East Meadow,NY,11534,(516) 572-5906
Nassau Health Care Corporation, ,2201 Hempstead Turnpike,East Meadow,NY,11554,(516) 572-6511
Opioid Treatment Program East Orange Veterans Administration Hospital,part of VANJ Healthcare System,385 Tremont Ave.,East Orange,NJ,7018,(973) 676-1000 x3330
East Orange Substance Abuse Treatment Program,EOSATP,"160 Halsted St., First Floor",East Orange,NJ,7018,(973) 266-5200
Peoria Treatment Center, ,"731 E. Sabrina Drive, Suite C",East Peoria,IL,61611,(309) 699-9700
Southside Behavioral Lifestyle Enrichment Center, ,1100 Cleveland Avenue,East Point,GA,30344,(404) 627-1385
CODAC East Bay, ,850 Waterman Ave.,East Providence,RI,2914,(401)434-4999
"Comprehensive Behavioral Health Center of St. Clair County, Inc.", ,505 South 8th Street,East Saint Louis,IL,62201,(618) 482-7330
"Habit Opco, LLC",Habit OPCO - Wareham,3088A Cranberry Hwy.,East Wareham,MA,02538-4804,(508) 295-7990
Southeast Georgia Treatment Center,Southeast Georgia Treatment Center,816 Professional Center Drive,Eastman,GA,31023,(478) 374-0390
Chesapeake Treatment Services, ,402 Marvel Ct,Easton,MD,21601,(410) 822-7150
"Easton Treatment Solutions, LLC", ,505 Dutchmans Lane,Easton,MD,21601,(410) 763-9040
"Milwaukee Health Services System, LLC",North West Wisconsin Comprehensive Treatment Center,3440 Oakwood Hills Pkwy,Eau Claire,WI,54701,(855) 380-8273
"Colonial Management Group, LP",Eau Claire Metro Treatment Center,"2000 Oxford Avenue, Bldg. 2",Eau Claire,WI,54703,(715) 834-1078
"Riverside Treatment Services Edgewood, LLC", ,2205 Pulaski Hwy,Edgewood,MD,21040,(443) 730-6104
"San Diego Health Alliance, Inc.",El Cajon Treatment Center,234 North Magnolia Ave.,El Cajon,CA,92020,(619) 579-8373
"Imperial Valley Medical Clinic, Inc.",Medical Teatment Center,200 SOUTH 5TH STREET,El Centro,CA,92243,(760) 482-0864
"Aegis Treatment Centers, LLC",Narcotic Treatment Program,11041 East Valley Blvd.,El Monte,CA,91731,(626) 442-4177
"MedMark Treatment Centers of Texas, Inc.",MedMark Treatment Centers – El Paso,5004 Alameda Ave.,El Paso,TX,79905,(915) 772-6555
Aliviane Methadone Treatment Program,Opioid Treatment Center,"1626 Medical Center Dr., Suite 100",El Paso,TX,79902-5000,(915) 779-4527
"Metwork Health Services, Inc.","Metwork Health Services, Inc.",2120 Liberty Rd.,Eldersburg,MD,21784,(410) 781-4158
"Mathers Recovery, LLC",Methadone Maintenance Outpatient Clinic,585 Tollgate Road,Elgin,IL,60123,847-462-6099
The Lennard Clinic III,Outpatient Methadone Clinic,850 Woodruff Lane,Elizabeth,NJ,7201,(908) 352-0850
JK2C LLC,ELIZABETH CITY TREATMENT CENTER,105 MEDICAL DRIVE,ELIZABETH CITY,NC,27909,(757) 848-3478
"E-Town Addiction Solutions, LCC", ,"2645 Leitchfield Road, Suite 104",Elizabethtown,KY,42701,(270) 234-8180
"ATS of Cecil County, LLC",Elkton Treatment Center,212 Blue Ball Ave.,Elkton,MD,21921,(410) 620-6077
Ashley Addiction Treatment in Elkton,Ashely Addiction Treatment in Elkton,111 W High Street,Elkton,MD,21921,(443) 760-3620
"Serenity Health, LLC","Serenity Health, Elkton",953 West Pulaski Highway,Elkton,MD,21921,(443) 485-6544
"J.A.E.L. Health Services, Inc.", ,"10176 Baltimore National Pike, Unit 115",Ellicott City,MD,21042,(410) 203-2120
"Elmhurst Hospital Center, M.M.T.P.", ,"79-01 Broadway, Annex O, Second Floor",Elmhurst,NY,11373,(718) 334-3195
New Age Services Corporation, ,386 N. York St.,Elmhurst,IL,60126,(630) 501-1742
"Community Health Resources, Inc.",Pathways Enfield,153 Hazard Avenue,Enfield,CT,6082,(860) 253-5020
New Directions Healthcare,New Directions Healthcare,306 West 11th Street,Erie,PA,16501,(814) 240-6216
Esper Treatment Center, ,25 West 18th St.,Erie,PA,16508,(814) 459-0817
Morse Clinic of Dunn,Morse Clinic of Dunn,596 East Jackson Blvd,Erwin,NC,27615,(910) 897-2008
"Mission Treatment Services, Inc.", ,161 North Date Street,Escondido,CA,92025,(760) 745-7786
"New Mexico Treatment Services, LLC",Una Ala Clinic,1227 N Railroad Ave,Espanola,NM,87532,(505) 747-8187
MedMark Treatment Centers Essex,Medmark Treatment Centers Essex,8909 Kelso Drive,Essex,MD,21221,(410) 486-2500
Integrated Health Management, ,715 Lincoln St.,Eugene,OR,97401,(541) 344-3574
Lane County Methadone Treatment Program,Medication Assisted Treatment,"151 W 7th Avenue, Suite 163",Eugene,OR,97401,(541) 682-4464
Treatment Center of Augusta, ,4158 Washington Rd. Suite 4,Evans,GA,30809,(706) 854-9225
The Bobby Buonauro Clinic, ,"1029 West Howard St., Suite 303",Evanston,IL,60202,(847) 869-1808
"PEER Services, Inc.", ,906 Davis St.,Evanston,IL,60201,(847) 492-1778
"Evansville Treatment Center, LLC",Evansville Treatment Center,1510 West Franklin St.,Evansville,IN,47710,(812) 424-0223
Therapeutic Health Services - Everett Branch, ,9930 Evergreen Way Z150,Everett,WA,98101,(425) 347-5121
Phoenix House Detoxification Center,"Phoenix Houses of New England, Inc.",251 Main St.,Exeter,RI,2822,(401) 294-0219
Project Special Delivery Interior AIDS Association,Project Special Delivery Interior AIDS Association,710 Third Ave.,Fairbanks,AK,99701,(907) 452-4222
"MedMark Treatment Centers - Fairfield, Inc.", ,1143 Missouri Street,Fairfield,CA,94533-4302,(707) 435-9911
"Habit Opco, LLC",Habit OPCO - Fall River,22 Front St.,Fall River,MA,02721-4302,(508) 676-1307
"Stanley St. Treatment and Resources, Inc.", ,386 Stanley St.,Fall River,MA,2720,(508) 324-3555
SSTAR's Lifeline,Lifeline,1010 South Main Street,Fall River,MA,2721,(508) 235-5010
Comprehensive Addiction Treatment Services (CATS),Inova CATS Inpatient and Day Treatment Services,3300 Gallows Rd.,Falls Church,VA,22042,(703) 776-7782
Community Medical Services- Fargo, ,901 28th Street,Fargo,ND,58103,(701) 404-1100
North Dallas DRC Inc.,North Dallas Drug Rehabilatation Center,2307 Springlake Rd.,Farmers Branch,TX,75234,(972) 446-0972
New Mexico Treatment Services LLC Farmington, ,607 E Apache,Farmington,NM,87401,(505) 326-2012
"Discovery House - NPA, Inc.", ,1914 Mercer Avenue,Farrell,PA,16121,(724) 981-9815
"ATS of North Carolina, LLC",Carolina Treatment Center - Fayetteville,3427 Melrose Road,Fayetteville,NC,28304,(910) 864-8739
Metro Treatment of North Carolina,Fayetteville Treatment Center,"418 Person St., Ste 202",Fayetteville,NC,28301,(910) 483-0958
Access Health Treatment Center, ,105-A Bradford Square,Fayetteville,GA,30215,(404) 425-4684
"Habit Opco, LLC",Habit OPCO - Fitchburg,155 Airport Rd.,Fitchburg,MA,01420-8142,(978) 343-6300
Flagstaff ORS,"Southwest Behavioral Health Services, Inc.","1515 E. Cedar Avenue, Ste. E-2",Flagstaff,AZ,86004,(928) 779-4550
Bio Medical Behavioral Health System,BIOMED,1044 Gilbert,Flint,MI,48532,(586) 783-4802
"Sacred Heart Rehabilitation Center, Inc.", ,2091 Professional Drive,Flint,MI,48532,(810) 732-1652
Starting Point of Florence, ,1341 N. Cashua Drive,Florence,SC,29501,(843) 673-9320
Flushing Hospital Medical Center- Chemical Dependency Unit, ,45th Ave. & Parsons Blvd.,Flushing,NY,11355,(718) 670-5693
"Premier Care of Wisconsin, LLC",Premier Care Fond Du Lac,23 West Scott Street,Fond Du Lac,WI,54935,(920) 926-0101
Sunrise Treatment Center - Forest Park, ,680 Northland Blvd.,Forest Park,OH,45240,(513) 941-4999
"BHG X, LLC",BHG Fort Collins Treatment Center,2114 MidPoint Drive Suite 4,Fort Collins,CO,80525,(970) 372-3144
Broward Addiction Recovery Center, ,1011 SW 2nd Court,Fort Lauderdale,FL,33312,(954) 357-4880
Fort Lauderdale Hospital,Fort Lauderdale Behavioral Health Center,1601 East Las Olas Blvd,Fort Lauderdale,FL,33498,954-463-4321
"Metro Treatment of South Carolina, LP","York County Treatment Center, Inc.",377 Rubin Center Drive,Fort Mills,SC,29715,(803) 547-7238
"Metro Treatment of Georgia, LP","Northwest Georgia Treatment Center, Inc.",2007 Old LaFayette Road,Fort Oglethorpe,GA,30742,(706) 861-9390
CFSATC,Central Florida Treatment Center - Fort Pierce,"1302 North Lawnwood Circle, Suite B",Fort Pierce,FL,34950-4884,(772) 468-6800
Liberation Way,Liberation Way,1035 Virginia Drive,Fort Washington,PA,19034,(215) 367-5446
"Center for Behavioral Health Indiana, Inc.", ,3910 Lima Road,Fort Wayne,IN,46805,(260) 420-6010
"Crossroads Treatment Center of Fort Worth, PLLC", ,6733 Camp Bowie Boulevard,Fort Worth,TX,76116,(817) 386-9180
LAAM and Methadone Program Clinic, ,2201 SE Loop 820,Fort Worth,TX,76119,(817) 730-0702
Medmark Treatment Centers - Fort Worth,"Medmark Treatment Centers, Inc.","5201 McCart Avenue, Suite H",Fort Worth,TX,76115,(817) 207-8700
Texas Treatment Services,Hemphill Treatment Services,700 Hemphill Street,Fort Worth,TX,76104,817-334-0111
Texas Treatment Services,Brentwood Treatment Services,"4801 Brentwood Stair Road, Suite 404",Fort Worth,TX,76103,(817) 492-9383
"Mathers Recovery, LLC", ,81 East Grand Ave,Fox Lake,IL,60020,(847) 462-6099
"Spectrum Health Systems, Inc.", ,68 Franklin Street,Framingham,MA,1702,(508) 875-5801
"Center for Behavioral Health Kentucky, Inc.", ,"2225 Lawrenceburg Road, Building C",Frankfort,KY,40601,(502) 352-2111
"Affinity Healthcare Group Franklin,LLC", ,1333 Carrsville Highway,Franklin,VA,23851,(757) 304-9857
Concerted Care Group Frederick, ,300-B Scholls Lane,Frederick,MD,21701,(301) 600-3444
"Smith-Berch, Inc.",Frederick Institute,5716-C Industry Lane,Frederick,MD,21704-5185,(301) 663-4130
Family Counseling Center for Recovery,FCCR,11720 Main Street,Fredericksburg,VA,22408,(540)735-9350
Medical Arts Sanitarium,Cornerstone of Medical Arts,159-05 Union Turnpike,Fresh Meadows,NY,11366,(718) 906-6700
"MedMark Treatment Centers - Fresno West, Inc.", ,1310 M Street,Fresno,CA,93721,(559) 264-2700
"Aegis Treatment Centers, LLC",Narcotic Treatment Program,3707 East Shields Ave.,Fresno,CA,93726,(559) 229-9040
Addiction Research & Treatment, ,3103 East Cartwright Ave.,Fresno,CA,93725,(559) 498-7100
BAART Behavioral Health Services,Cartwright Clinic,3103 East Cartwright Ave.,Fresno,CA,93725,(559) 498-7100
"Addiction Research and Treatment, Inc.", ,539 North Van Ness Ave.,Fresno,CA,93728,(559) 266-9581
"Addiction Research and Treatment, Inc. (ART)",BAART,1235 E St.,Fresno,CA,93706,(559) 268-6261
BAART Behavioral Health Services,Van Ness Clinic,539 North Van Ness Ave.,Fresno,CA,93728,(559) 266-9581
BAART Behavioral Health Services,E Street Clinic,1235 E St.,Fresno,CA,93706,(559) 268-6261
Western Pacific Med-Corp, ,218 East Commonwealth Ave.,Fullerton,CA,92632,(714) 992-4770
Western Pacific Rehabilitation (Fullerton), ,218 East Commonwealth Ave.,Fullerton,CA,92632,(714) 992-4770
Gadsden Treatment Center, ,1117 Gardner Street,Gadsden,AL,35901,(256) 549-0807
"Meridian Behavioral Healthcare, Inc. - OTP Program", ,4310 SW 13th St.,Gainesville,FL,32608,(352) 374-5600 x8976
Lanier Treatment Center, ,592-A Medical Park Drive,Gainesville,GA,30501,(770) 503-7721
"Galax Treatment Center, LLC",New River Treatment Center,140 Larkspur Lane,Galax,VA,24333,(276) 236-6341
"Galax Treatment Center, Inc.",The Life Center of Galax,"PO Box 27, 112 Painter Street",Galax,VA,24333,276-236-2994
Galena Clinic, ,9567 US Route 20 W,Galena,IL,61036,(815) 777-1300
Garland Treatment Center, ,"6246 Broadway Blvd., Suite 102",Garland,TX,75043,(972) 203-1141
"West Texas Counseling and Rehabilitation Program of Garland, Inc.", ,"2848 West Kingsley Rd., Suite B",Garland,TX,75041,(972) 840-1431
New Life Center -Edgewater Systems for Balanced Living, ,1110 West Fifth Ave.,Gary,IN,46402,(219) 885-4264 x4235
"Metro Treatment Center of Gary, LP",Semoran Treatment Center,8000 Melton Road,Gary,IN,46403,(219) 938-4651
McLeod Addictive Diseases Center - Gastonia,McLeod Center,549 Cox Road,Gastonia,NC,28054,(704) 865-1558
"Metro Treatment of North Carolina, LP",Gastonia Treatment Center,238 Wilmot Drive,Gastonia,NC,28054,(980) 285-2990
"Northern Michigan Substance Abuse Services, Inc.",NMSAS Recovery Center,2136 West M-32,Gaylord,MI,49735,(989) 732-1791
"Michigan Therapeutic Consultants, PC",Michigan Therapeutic Consultants - Gaylord,711 S. Illinois,Gaylord,MI,49735,989-732-4357
Baldpate,Baldpate,83 Baldpate Rd.,Georgetown,MA,1833,(978) 352-2131
Kent Sussex Community Services, ,20728 North DuPont Boulevard,Georgetown,DE,19947,(302) 854-0172
"BornFree Wellness Centers of America, LLC", ,19537 Doctors Drive,Germantown,MD,20874,(240) 654-4001
River City Comprehensive Counseling Services, ,13100 Mountain Road,Glen Allen,VA,23059,(804) 230-0999
Department of Health Adult Addictions Clinic, ,122 Langley Road North,Glen Burnie,MD,21060,(410) 222-0100
Allcare Treatment Services, ,550 Crain Highway,Glen Burnie,MD,21061, 
"E.J.A.L. Health Services, Inc.", ,7229 Ritchie Hwy,Glen Burnie,MD,21060,(410) 761-3686
Ordnance Road Detention Center,Road to Recovery,600 E Ordnance Road,Glen Burnie,MD,21060,(410) 222-7095
B.N.J. HEALTH SERVICES, ,7541 Ritchie Hwy,Glen Burnie,MD,21061,410-553-0506
"We Care Arundel Health Services, Inc.","We Care Arundel Health Services, Inc.","13 A Aquahart Rd., Suite A",Glen Burnie,MD,21061,(410) 766-9668
Long Island Jewish Hillside Medical Center Methadone Maintenance Treatment Program, ,75-59 263rd Street,Glen Oaks,NY,11040,(718) 470-8940
Western Pacific Rehabilitation (Glendale), ,"4544 San Fernando Road, Suite 201",Glendale,CA,91204,(818) 240-8843
Western Pacific Med-Corp, ,"4544 San Fernando Road, Suite 201",Glendale,CA,91204,(818) 240-8843
Thunderbird Treatment Center,Thunderbird Treatment Center,"13820 North 51st Ave., Suite 300",Glendale,AZ,85306,(602) 938-2301
"PDSSC,LLC", ,1640 Pleasant lane,Glenview,IL,60025,(847) 729-9017
"Conifer Park, Inc.",Conifer Park Inc.,79 Glenridge Rd.,Glenville,NY,12302-4523,(518) 399-6446
Northeast Behavioral Health,Lahey Health Behavioral Services,298 Washington St.,Gloucester,MA,1930,(978) 283-0296
"ATS of North Carolina, LLC",Carolina Treatment Center - Goldsboro,"1700 East Ash St., Suite 200",Goldsboro,NC,27530,(919) 583-9326
"Gulf Coast Treatment Center, Inc.", ,12271 Interchange Rd.,Grand Bay,AL,36541,(251) 865-0123
"Metro Treatment of Colorado, L.P.",Grand Junction Treatment Center,1001 Wellington Avenue,Grand Junction,CO,81502,(970) 208-1130
NuPoint Services, ,1620 44th Street,Grand Rapids,MI,49508,(616) 243-6262
"Cherry Street Services, Inc.",Cherry Health,2303 Kalamazoo Ave. SE,Grand Rapids,MI,49507,(616) 965-8390
"CRC Recovery, Inc.",Western Michigan Treatment Center,"3584 Fairlanes Ave SW, Ste 2",Grandville,MI,49418-1583,(855) 380-8272
"ORTC, LLC",Grants Pass Treatment Center,1885 NE 7th St.,Grants Pass,OR,97526,(541) 955-3210
"East Tennessee Healthcare Holdings, Inc.",Overmountain Recovery,203 Gray Commons Circle,Gray,TN,37615,(423) 467-2800
Colorado Treatment Services - Greeley, ,1624 17th Ave,Greeley,CO,80631, 
"Quality Addiction Management, Inc.",Green Bay Comprehensive Treatment Center,"2979 Allied St., Unit C",Green Bay,WI,54304,(920) 337-6740
"Community Health Care, Inc.",Health Care Resource Centers,177 Shelburne Rd.,Greenfield,MA,1301,(413) 774-3321
Franklin Recovery Center, ,298 Federal St.,Greenfield,MA,1302,(413) 223-5072
Quannacut at Eastern Long Island Hospital,Eastern Long Island Hospital,201 Manor Place,Greenport,NY,11944,(631) 477-5394
ADS Alcohol and Drug Services East, ,"301 East Washington St., Suite 101",Greensboro,NC,27401,(336) 333-6860
Metro Treatment of North Carolina LP,Greensboro Treatment Center,207-J South Westgate Drive,Greensboro,NC,27407,(336) 273-9611
"Crossroads Treatment Center of Greensboro, PC", ,2706 North Church Street,GREENSBORO,NC,27405,(336) 272-9990
Medmark Treatment Centers - Greensburg, ,1037 Compass Circle,Greensburg,PA,15601,(724) 834-1144
Greenville Recovery Center,"Sellati & Co., Inc",150 E. Arlington Blvd.,Greenville,NC,27858,252-353-2555
Greenville Metro Treatment Center, ,602 Airport Rd.,Greenville,SC,29609,(864) 234-7952
Walter B Jones Center, ,2577 W. Fifth Street,Greenville,NC,27834,(252) 830-3426
"Crossroads Treatment Center of Greenville, PC",OTP,157 Brozzini Court,Greenville,SC,29615,(864) 288-7636
PORT Health Services- Greenville MMP, ,501 Paladin Dr,Greenville,NC,27834,252-353-5346
Greenwood Treatment Specialists, ,110 Court Avenue West,Greenwood,SC,29646,(864) 407-4160
"VCPHCS V, LLC",New Orleans Narcotic Treatment Clinic,1141 Whitney Avenue Building 4,Gretna,LA,70056,(504) 347-1120
"New Start Treatment, LLC",New Start Treatment,600 South 8th Street,Griffin,GA,30224,(678) 603-1381
"Phoenix Health Center, LLC",Phoenix Health Center,217 East Antietam Street,Hagerstown,MD,21740,(240) 420-0000
"Metro Treatment of Maryland, LP",Hagerstown Treatment Center,16110 Everly Road,Hagerstown,MD,21740,(301) 714-0837
Texas Treatment Services,Haltom City Treatment Services,"3529 Denton Highway, Suite D",Haltom City,TX,76117,(817) 759-0707
Marion County Treatment Center,Marion County Treatment Center,1879 Military Street South,Hamilton,AL,35570,(205) 921-3799
Choices of Louisiana @ North Shore, ,615 Pride Drive,Hammond,LA,70401,(985) 419-1666
"Pinnacle Treatment Centers PA-VII, LLC",Hanover Treatment Services,120 Penn Street,Hanover,PA,17331,(717) 969-8400
Western Health Harbor City Clinic, ,1647 West Anaheim St.,Harbor City,CA,90710,(310) 534-5590
Connections Community Support Programs -- Harrington, ,1-11 East Street,Harrington,DE,19952,(302) 786-7800
Pennsylvania Psychiatric Institute, ,2501 North 3rd St.,Harrisburg,PA,17110,(717) 480-8083
"Center for Behavioral Health - Harrisburg, Inc.", ,99 South Cameron St.,Harrisburg,PA,17101,(717) 233-7290
"Metro Treatment of Virginia, LP",New Season,30 Baxter Drive,Harrisonburg,VA,22801,(540) 908-3917
"InterCommunity, Inc.", ,500 Blue Hills Ave.,Hartford,CT,6112,(860) 714-3700
8W Dual Diagnosis,Saint Francis Hospital & Medical Center,"8 fl.-W. Wing, Mt. Sinai Campus,500 Blue Hills Ave",Hartford,CT,6112,(860) 714-2435
Hartford Dispensary Henderson / Johnson Clinic,Henderson-Johnson Clinic,12-14 and 16-18 Weston Street,Hartford,CT,6120,(860) 527-5100
The Hartford Dispensary - Doctor's Clinic,"345 Main Street, Hartford, CT 06106",345 Main St.,Hartford,CT,6106,(860) 525-2181
Blue Hills Substance Abuse Services,BHSAS of Connecticut Valley Hospital,500 Vine St.,Hartford,CT,6112,(860) 293-6400
"Community Substance Abuse Centers, Inc.",Health Care Resource Centers,55 Fishfry St.,Hartford,CT,6120,(860) 247-8300
Starting Point of Darlington, ,1451 Retail Row,Hartsville,SC,29550,(843) 383-4848
"Family Guidance Centers, Inc- Harvey", ,15400 S. Page,Harvey,IL,60426,(708) 333-8960
"Suffolk County Department of Health Services, Division of Community Mental Hygiene - Hauppauge Methadone Maintenance Treatment Program", ,200 Wireless Blvd.,Hauppauge,NY,11788-5225,(631) 853-7373
"Suffolk County Department of Health Services, Division of Community Mental Hygiene, North County Complex M.M.T.P.", ,"North County Complex, Route 347, Building #151",Hauppauge,NY,11788,(631) 853-6410
"SBH Haverhill, LLC",Serenity at Summit NE,61 Brown Street,Haverhill,MA,1830,978-641-3001
Spectrum Outpatient - Haverhill,"Spectrum Health Systems, Inc.",100 Plaistow Rd,Haverhill,MA,1830,(978) 373-4985
Hawaiian Gardens Medical and Mental Health Services, ,21505 Norwalk Blvd.,Hawaiin Gardens,CA,90716,(562) 916-7581
American Addiction Treatment Center, ,6983C Mid County Drive,Hayes,VA,23072,(804) 824-2814
Humanistic Alternatives to Addiction Research & Treatment (HAART) - Hayward,HAART-Hayward,20094 Mission Blvd.,Hayward,CA,94541,(510) 727-9755
S.A.A.C.S. Inc.,MedMark Treatment Centers - Hayward,795 Fletcher Lane,Hayward,CA,94544,(510) 247-8300
"BHG XXVI, LLC",Kentucky Treatment Centers-Hazard,48 Independence Drive,Hazard,KY,41701,(606) 487-1646
Recovery Concepts,Recovery Concepts,"17100 Dixie Highway, Suite D",Hazel Crest,IL,60429,(708) 335-1155
"Center for Life Solutions, Inc.", ,9144 Pershall,Hazelwood,MO,63042,(314) 731-0100
Evexia Health Services, ,601 E Florida Ave,Hemet,CA,92543,(951) 391-1470
"Seven Hills Hospital, INC",Seven Hills Behavioral Institute,10625 Jeffreys St,Henderson,NV,89052,(702) 646-5000
"Mission Treatment Centers, Inc.", ,"704 West Sunset Road, Suite B-9",Henderson,NV,89015,(702) 558-8600
"DESERT TREATMENT CLINIC, LLC",DESERT TREATMENT CLINIC,1546 W. WARM SPRING RD #130,HENDERSON,NV,89014,(702) 248-0000
Vance Recovery,Vance Recovery,510 Dabney Drive,Henderson,NC,27536,(252) 572-2625
"Premier Treatment Specialists, LLC.",Premier Treatment Specialists,400 Beverly Hanks Centre,Hendersonville,NC,28792,(828) 595-9558
"Aegis Treatment Centers, LLC",Narcotic Treatment Program,"11776 Mariposa Road, Suite 101,103,104",Hesperia,CA,92345,(760) 956-2462
"Metro Treatment of North Carolina, LP",Hickory Metro Treatment Center,1152 Lenoir Rhyne Blvd. S.E.,Hickory,NC,28601,828-485-1320
McLeod Addictive Disease Center - Hickory,McLeod Center,1170 Fairgrove Church Road,Hickory,NC,28602-9696,(828) 464-1172
"Rainbow Center of Michigan, Inc.", ,12501 Hamilton Ave.,Highland Park,MI,48203,(313) 865-1580
Soft Landing Intervention,Soft Landing at Highland Park,1910 First Street,Highland Park,IL,60035,(630) 261-9220
Morse Clinic of Hillsborough, ,129 Mayo Street,Hillsborough,NC,27278,(919) 643-1739
"Ku Aloha Ola Mau, Inc",Ku Aloha Ola Mau-East Hawii Treatment Clinic,900 Leilani St.,Hilo,HI,96720,(808) 961-6822
"Edward Hines Jr., VA Hospital", ,5th Avenue and Roosevelt Road,Hines,IL,60141,(708) 202-8387
"Metro Treatmemt of Florida, LP",Broward Treatment Center,1101 South 21st Ave.,Hollywood,FL,33020,(954) 922-0522
Providence Hospital Inpatient Detoxification Unit, ,1233 Main St.,Holyoke,MA,1040,(413) 536-5111
Providence Hospital Holyoke Outpatient Methadone Clinic,MMTP,1233 Main St.,Holyoke,MA,1040,(413) 493-2737
Comprehensive Health and Attitude Management Program, ,173 South Kukui St.,Honolulu,HI,96813,(808) 426-4515
Ku Aloha Ola Mau, ,"1130 North Nimitz Hwy., C-302",Honolulu,HI,96817,(808) 538-0704
"Western KY Medical, LLC", ,609 Hammond Plaza,Hopkinsville,KY,42240,(270) 887-8333
Evergreen Treatment Services Grays Harbor Clinic,Evergreen Treatment Services,804 Levee St.,Hoquiam,WA,98550,(360) 209-6339
Texas American Medical Consultants Inc, ,7428 Park Place Blvd.,Houston,TX,77087,(713) 645-6303
"1 Stop Recovery, Inc.",All About Recovery,7007 North Freeway Ste 105,Houston,TX,77076,(713) 697-6820
"THRIVE TREATMENT LLC,OTP", ,17115 RED OAK DR,HOUSTON,TX,77090,(346) 220-6551
"Toxicology Associates, Inc.", ,"6910 Bellaire Blvd., Suite 13",Houston,TX,77074,(713) 271-0067
Texas Clinic Fulton, ,6311 Fulton St.,Houston,TX,77022-5705,(713) 694-8100
Texas Treatment Center, ,"4800 West 34th St., Suite B-3",Houston,TX,77092,(713) 956-7712
"Toxicology Associates, Inc.", ,"530 North Belt., Suite 112",Houston,TX,77060,(281) 847-2093
"Adult Rehabilitation Services, Inc.", ,6624 Hornwood,Houston,TX,77074,(713) 541-4422
"Toxicology Associates, Inc.", ,4405 Caroline St.,Houston,TX,77004,(713) 528-2071
Substance Disorders Treatment Program- Michael E. DeBakey VA Medical Center,Opioid Treatment Program,2002 Holcombe Blvd.,Houston,TX,77030,(713) 794-7058
Texas Clinic Westview, ,"9320 Westview Dr., Suite 10",Houston,TX,77055,(713) 468-0536
"Best Recovery Health Care, Inc.", ,9211 South Main St.,Houston,TX,77025,(713) 661-0971
"Houston Treatment Center, Inc.",Opioid Treatment Pogram,"1050 Edgebrook Dr., Suite 3",Houston,TX,77034,(713) 947-1773
Eldorado Texas Community Service Center,Durham Dr. Health Services,1213 Durham Dr.,Houston,TX,77007,(713) 636-9138
Northshore Treatment Center, ,176 Uvalde Rd.,Houston,TX,77015,(713) 455-7008
"Merrimack River Medical Services, Inc.",Health Care Resource Centers,323 Derry Rd.,Hudson,NH,3051,(603) 595-3399
RHJ Medical Center, ,"RR1 Box 224, Old Rt. 119S",Hunker,PA,15639,(724) 696-9600
"Discovery House, Inc.", ,2755 Philmont Avenue,Huntingdon Valley,PA,19006,(215) 947-4100
"Huntington Treatment Center, LLC",Huntington Treatment Center,135 4th Ave.,Huntington,WV,25701-1219,(304) 525-5691
"Suffolk County Department of Health Services, Division of Community Mental Hygiene, Huntington M.M.T.P.", ,689 Jericho Turnpike,Huntington Station,NY,11746,(631) 854-4400
"Huntsville Clinic, Inc.", ,829 Tenth St.,Huntsville,TX,77320,(936) 291-9172
Huntsville Metro Treatment Center P.C., ,"2227 Drake Ave., Suite 19",Huntsville,AL,35805,(256) 881-1311
"Huntsville Recovery, Inc.", ,4040 Independence Drive,Huntsville,AL,35816,(256) 721-1940
"Crossroads Treatment Center of Northern Kentucky, PSC", ,1974 Walton Nicholson Pike,Independence,KY,41051,(864) 527-3145
"Indianapolis Treatment Center, LLC",Indianapolis Treatment Center,"2626 East 46th St., Suite J",Indianapolis,IN,46205,(317) 475-9066
Opioid Substitution Clinic Indianapolis V.A. Medical Ctr, ,1481 W. 10th. St,Indianapolis,IN,46202,(317) 988-4337
Midtown Narcotics Treatment Program, ,832 North Meridian St.,Indianapolis,IN,46204,(317) 287-3720
"Aegis Treatment Centers, LLC",Narcotic Treatment Program,"614 West Manchester Blvd., #104",Inglewood,CA,90301,(310) 412-0879
Inglewood Mental Health Services, ,4450 West Century Blvd.,Inglewood,CA,90304,(310) 671-9294
"West Texas Counseling and Rehabilitation Program of Irving, Inc.", ,1116 West Pioneer Dr.,Irving,TX,75061,(972) 253-9370
"Sunrise Clinical Services, LLC", ,22 Ball Street 1st Floor,Irvington,NJ,7111,(973) 372-1095
"Health Recovery Services, Inc.", ,120 Twin Oaks Dr.,Jackson,OH,45640,(740) 577-3450
"Victory Clinical Services III, LLC", ,3300 Lansing Ave,Jackson,MI,49202,(517) 784-2929
"ALTR of Jackson, LLC","Alternatives for Life Treatment and Recovery, INC",500 D East Woodrow Wilson Dr.,Jackson,MS,39216,(601) 362-3131
"South Georgia Treatment, Inc.", ,"794 McDonough St., Suite 104",Jackson,GA,30233,(770) 775-9044
"VCPHCS XIX, LLC",BHG Jackson Treatment Center,58 Carriage House,Jackson,TN,38305,(731) 660-0880
"Mississippi Comprehensive Treatment Centers, LLC",Jackson Comprehensive Treatment Center,"1935 Lakeland Dr., Suite 900",Jackson,MS,39216,877-231-9902
"CRC Health Treatment Clinics, LLC",North Florida Treatment Center,"6639 Southpoint Pkwy, Ste 108",Jacksonville,FL,32216,(855) 380-8271
"Metro Treatment of Florida, L.P.",Duval County Treatment Center,590 Ellis Road South,Jacksonville,FL,32254,(904) 800-2231
"Parkside Clinic, LLC",Parkside Clinic,5600 Spring Park Road,Jacksonville,FL,32216,(904) 737-5000
"Stepping Stone Center for Recovery, LLC", ,1815 Corporate Square Blvd,Jacksonville,FL,32216,(904) 446-1041
"Lakeview Health Systems, LLC Woman's Program 1st Floor", ,1900 Corporate Square Dr.,Jacksonville,FL,32216,(904) 727-6455
Alternative Opiate Treatment Program,AOTP,1401 E Rusk,Jacksonville,TX,75766,903-284-6802
Jacksonville Treatment Center, ,806 Bell Fork Road,Jacksonville,NC,27540,(910) 347-2205
"River Region Human Services, Inc.", ,390 Park Street,Jacksonville,FL,32204,(904) 899-6300
"Metro Treatment of Florida, LP",Jacksonville Metro Treatment Center,4427 Emerson Street,Jacksonville,FL,32207,(904) 398-7015
"Lakeview Health Systems, LLC", ,1900 Corporate Square Blvd,Jacksonville,FL,32216,(904) 727-6455
"Community Health Care, Inc",Health Care Resource Centers,170 Morton Street,Jamaica Plain,MA,2130,(617) 541-3670
Andrew House Detoxification Center,Andrew House Detoxification Center,170 Morton St,Jamaica Plain,MA,2130,(617) 318-5600
High Point @ Shattuck,High Point,170 Morton Street,Jamaica Plain,MA,2130,(508) 317-2802
"St. Joseph's Hospital, Yonkers - Queens Clinic", ,175-20 Hillside Avenue,Jamaica Queens,NY,11432,(718) 558-7230
Walker Recovery Center,Walker Recovery Center,2195 North Airport Rd.,Jasper,AL,35504,(205) 221-1799
"Crossroads Treatment Center of Louisville, PSC", ,1700 Cargo Court,Jeffersontown,KY,40299,(502) 749-6764
"Spectrum Health Care, Inc.",OTP,74-80 Pacific Ave.,Jersey City,NJ,7304,(201) 451-2544
"Khaleidoscope Health Care, Inc.", ,75 Harrison Ave.,Jersey City,NJ,7304,(201) 451-5425
Baltimore City Detention Center-Women's Detention Center,Maryland Correctional Institution - Women,7943 Brockbridge Rd.,"Jessup, MD",MD,20794,(410) 209-4017
"The Journey to Hope, Health, & Healing, Inc.", ,985 Plainfield St.,Johnston,RI,2919,(401) 946-0650
"Pinnacle Treatment Centers PA-III, LLC",Alliance Medical Services-Johnstown,1425 Scalp Avenue #175,Johnstown,PA,15904,(814) 269-4700
Family Guidance Centers - Joliet, ,2400 Glenwood Ave,Joliet,IL,60435,(815)730-7521
"Northeast Arkansas Treatment Services, LLC","Northeast Arkansas Treatment Services, LLC","912 Osler, Suite B",Jonesboro,AR,72401,(870) 336-0549
"Consecrated Care, Inc.","Consecrated Care, Inc.","217 Arrowhead Blvd., Ste. B-1",Jonesboro,GA,30236,(770) 472-9110
"VCPHCS XV, LLC d/b/a Joplin Treatment Clinic",Joplin Treatment Clinic,2919 East 4th Street,Joplin,MO,64801,(417) 782-7966
"Joppa Health Services, Inc.", ,623-A Pulaski Hwy.,Joppa,MD,21085,(410) 538-5809
"Beach House Treatment Center, LLC",Beach House Center for Recovery,13321 US Highway 1 North,Juno Beach,FL,33408,561-337-3200
Healthy Living/ Inpatient Detoxification Program,Lumiere Detox Center,250 Thelma Ave,Jupiter,FL,33458,(561) 935-3885
Victory Clinical Services, ,401 Howard St.,Kalamazoo,MI,49001,(269) 344-4458
Community Medical Services-Kalispell, ,795 Sunset BLVD,Kalispell,MT,59901,(406) 260-4181
Duane Dean Behavioral Health Center, ,700 East Court St.,Kankakee,IL,60901,(815) 939-0125
ReDiscover dba Transitions, ,1000 East 24th Street,Kansas City,MO,64108,(816) 512-7143
"Kansas University Physicians, Inc.",Kansas City Metro Methadone Program,University of Kansas Medical Center,Kansas City,KS,66160-0001,(913) 588-6445
"BHG, XXX, LLC",BHG Kansas City North Treatment Center,1125 North 5th Street,Kansas City,KS,66101-2305,(913) 342-0888
ReDiscover, ,8800 Blue Ridge Blvd,Kansas City,MO,64138-4000,(816) 384-0700
DRD Management Inc.,BHG Kansas City Treatment Center,723 East 18th St.,Kansas City,MO,64108,(816) 283-3877
Inter-County Council on Drug and Alcohol Abuse, ,480-482 Kearny Ave.,Kearny,NJ,7032,(201) 997-4000
"WCHS, Inc.",Kelso Treatment Solutions,"305 Pacific Avenue S, Suite C",Kelso,WA,98626,(877) 575-5464
Treatment Center of Kennesaw, ,1735 Tuscan Heights Blvd. Suite 116,Kennesaw,GA,30152,(770) 426-7810
Bowling Green Brandywine,Bowling Green Brandywine,1385 Newark Road,Kennett Square,PA,19348,(610) 268-3588
"WCHS, Inc.",Kent Treatment Solutions,"21851 84th Ave S, #101",Kent,WA,98032,(425) 687-7082
The Health Alliance (formerly Benedictine) Hospital Detoxification and Rehabilitation Programs, ,105 Mary's Avenue,Kingston,NY,12401,(845) 334-4705
The Kingston Hospital Methadone Treatment Program,The Kingston Hospital Methadone Treatment Program,2 Barbarossa Lane,Kingston,NY,12401,(845) 943-6022
"Metro Treatment of Florida, LP",Mid Florida Metro Treatment Center,306 East Oak Street,Kissimmee,FL,34744,(407) 933-8331
DRD Knoxville Medical Clinic Central, ,412 Citico Street,Knoxville,TN,37921,(865) 522-0661
DRD Knoxville Medical Clinic, ,626 Bernard Avenue,Knoxville,TN,37921,(865) 522-0161
LaCrosse Lutheran Hospital Methadone Program, ,1910 South Ave.,La Crosse,WI,54601,(608) 775-2287
"Toxicology Associates, Inc.", ,2411 Franklin St.,La Marque,TX,77568,(409) 935-3749
"Aegis Treatment Centers, LLC",Narcotic Treatment Program,14240 E. Imperial Hwy.,La Mirada,CA,90638,(562) 946-1587
"Choices of Louisiana, Inc.", ,128 Woodland Drive,La Place,LA,70068,(985) 651-3777
BAART Behavioral Health Services,La Puente Clinic,15229 East Amar Rd.,La Puente,CA,91744,(626) 855-5090
"Crossroads Treatment Center of LaGrange, PC", ,"229 South Davis Road, Suite 900",LaGrange,GA,30241,(706) 756-1489
"VCPHCS VI, LLC",Lake Charles Substance Abuse Clinic,2829 4th Avenue,Lake Charles,LA,70601,(337) 433-8281
Meridian Behavioral Healthcare,Opioid Treatment Program,439 SW Michigan Street,Lake City,FL,32025,(386) 487-0800
"Metro Treatment of Florida, LP",West Palm Beach Treatment Center,1497 Forest Hill Blvd. Ste. E,Lake Clark Shores,FL,33406,(561) 433-5687
"CFSATC, Inc.",Central Florida Treatment Centers - Lake Worth,3155 Lake Worth Road,Lake Worth,FL,33461,(561) 439-8440
"North Texas Addiction Counseling and Education, Inc.","North Texas Addiction Counseling and Education, Inc.",3539 Jim Wright Freeway,Lake Worth,TX,76106,(682) 224-1441
Center for Alcohol and Drug Studies, ,7859 Lake Worth Road,Lake Worth,FL,33467,561-465-1443
Behavioral Health of the Palm Beaches, ,7859 Lake Worth Rd.,Lake Worth,FL,33467,561-465-1443
"DACCO, Opiate Addiction Treatment Services","DACCO Behavioral Health, Inc.",348 West Highland Drive,Lakeland,FL,33813,(863) 608-7778
Lakeland Centres, ,3506 Lakeland Hills Blvd.,Lakeland,FL,33805,(863) 687-9900
"WCHS, Inc.",Tacoma Treatment Solutions,"9500 Front Street, Suite 100",Lakewood,WA,98499,(253) 584-3996
ARTS Westside Center for Change,Opioid Treatment Program,6303 Wadsworh Bypass,Lakewood,CO,80226,(303) 935-7004
Northwest Integrated Health, ,9720 South Tacoma Way,Lakewood,WA,98499,(253) 503-3666
"ARS of Lancaster, LP",Addiction Recovery Systems,2192 Embassy Dr.,Lancaster,PA,17603,(717) 394-7160
Western Pacific Med-Corp, ,45335 North Sierra Hwy.,Lancaster,CA,93534,(661) 949-8599
Western Pacific Rehabilitation (Lancaster), ,45335 North Sierra Hwy.,Lancaster,CA,93534,(661) 949-8599
Aldie Foundation Inc., ,2291 Cabot Blvd. West,Langhorne,PA,19047-1806,(215) 642-3230
Victory Clinical Services Lansing, ,4902 South cedar,Lansing,MI,48910,(517) 394-7867
"Michigan Therapeutic Consultants, PC", ,"913 W. Holmes Road, Suite 189",Lansing,MI,48910,(517) 272-4357
Red Cedar Clinic, ,"2025 South Washington Avenue, Suite 210",Lansing,MI,48910,(517) 371-1111
Addiction Research and Treatment - La Puente Clinic,BAART - La Puente,15229 East Amar Rd.,LaPuente,CA,91744,(626) 855-5090
"Concilio Hispano Libre (operated by The Association for the Advancement of Mexican - Americans, Inc.)",AAMA-CHL,1205 East Hillside Rd.,Laredo,TX,78041,(956) 728-0440
ALT Recovery Group,ALT Recovery Group,1141 Mall Drive,Las Cruces,NM,88001,(575) 522-0660
"New Beginnings Counseling Centers, Inc.", ,3376 So. Eastern Ave. #148,Las Vegas,NV,89169,(702) 538-7412
Las Vegas Recovery Center, ,3371 N. Buffalo Ave.,Las Vegas,NV,89129,(702) 515-1374
"Mission Treatment Centers, Inc.", ,"1800 Industrial Rd., Suite 100",Las Vegas,NV,89102,(702) 474-4104
"Drs. Miram & Sheldon Adelson Clinic for Drug Abuse Tx & Research, Inc.", ,"3661 South Maryland Pkwy., #64",Las Vegas,NV,89109,(702) 735-7900
"Center for Behavioral Health Nevada, Inc.", ,"3050 East Desert Inn Rd., Suite 117",Las Vegas,NV,89121,(702) 796-0660
Eastern Treatment Clinic,Eastern Treatment Clinic,8455 S. Eastern Ave.,Las Vegas,NV,89123,(702) 451-0000
NEVADA INTEGRATED BEHAVIORAL SERVICES INC.,NEVADA TREATMENT CENTER,1721 EAST CHARLESTON BLVD,LAS VEGAS,NV,89104,(702) 685-0620
"NEW BEGINNINGS COUNSELING CENTERS, INC.","New Beginnings Counseling Centers, Inc.",2035 E. Lake Mead Blvd.,"LAS VEGAS,",NV,89030,(702) 538-7412
"New Horizons Health Services, Inc.","NEW HORIZONS HEALTH SERVICES, INC.",605 Main Street,Laurel,MD,20707-4065,(301) 483-0134
"We Care Health Services, Inc.", ,8730-1 Cherry Lane,Laurel,MD,20707,301-490-7995
"ATS of Cecil County, LLC",Cumberland Treatment Center,"14701 National Hwy, Suite 5&6",LaVale,MD,21502,(301) 687-0940
Lawndale Medical and Mental Health Services, ,4023 Marine Ave.,Lawndale,CA,90260,(310) 675-9555
"Habit Opco, LLC",Habit OPCO - Lawrence,10 Embankment Street,Lawrence,MA,01841-1244,(978) 687-6300
Center for Change - Lawrence, ,1910 Haskell Avenue - A,Lawrence,KS,66046,(785) 856-1158
"East Indiana Treatment Center, LLC",East Indiana Treatment Center,816 Rudolph Way,Lawrenceburg,IN,47025,(812) 537-1668
"Toxicology Associates of North Georgia Gwinnett, Inc.","Toxicology Associates of North Georgia Gwinnett, Inc.",751 Collins Hill Rd.,Lawrenceville,GA,30043,(770) 248-1616
Southern Oklahoma Treatment Services,Transitions Lawton Oklahoma,1307 SW Washington Avenue,Lawton,OK,73501,(580) 355-7500
"Discovery House-LT, Inc.",Discovery House,523 West Heritage Park,Layton,UT,84041,(801) 525-9998
"Advanced Treatment Systems, LLC",Lebanon Treatment Center,3030 Chestnut St.,Lebanon,PA,17046,(717) 273-8000
"Leesburg Treatment Services, LLC","Leesburg Treatment Services, LLC",209 Gibson Street NW,Leesburg,VA,20176,(571) 291-3166
"Metro Treatment of Florida, L.P.",Lee County Treatment Center,1415 Homestead Road,Lehigh Acres,FL,33936,(239) 491-8092
"McLeod Addictive Disease Center, Inc.", ,222 Morganton Boulevard SW,Lenoir,NC,28645,(828) 610-2742
"Spectrum Health Systems, Inc.", ,40 Spruce Street,Leominster,MA,1453,(978) 466-3820
SOAR CORP,SOAR Corp,7500 BRISTOL PIKE,LEVITTOWN,PA,19057,(215) 269-9081
"Merrimack River Medical Services, Inc.",Health Care Resource Centers,18 Mollison Way,Lewiston,ME,4240,(207) 312-6860
Lexington Treatment Associates, ,310 Murphy Drive,Lexington,NC,27295,(336) 224-1919
Bluegrass Narcotics Addictions Program,bluegrass.org/Narcotics Addiction Program,201 Mechanic Street,Lexington,KY,40507-1086,(859) 977-6080
"BHG XXXV, LLC",dba BHG Lexington Treatment Center,455 Park Place,Lexington,KY,40511,(859) 276-0533
"Premier Care Of Ohio, LLC",Premier Care Lima,2727 St. Johns Rd,Lima,OH,45804,(567) 940-9145
First Step Recovery Center Inc.,First Step,300 South 68th Street Place,Lincoln,NE,68510,(402) 434-2730
Lincoln Treatment Center, ,4305 O Street,Lincoln,NE,68510,(402) 488-2122
University of Arkansas for Medical Sciences Substance Abuse Treatment Clinic, ,"4301 West Markham St., Slot #835",Little Rock,AR,72250-7199,(501) 526-8400
Denver Recovery Group/South, ,72 East Arapahoe Road,Littleton,CO,80122,(720) 283-3055
"Conifer Park, Inc","Conifer Park, Inc",526 Old Liverpool Rd,Liverpool,NY,13088,(315) 453-3911
"Ultimate Solutions, Inc.","ULTIMATE SOLUTIONS, INC","29240 Buckingham, Ste. 11",Livonia,MI,48154,(734) 513-2800
"Aegis Treatment Centers, LLC",Healthy Connections,"441 South Ham Lane, Suite A",Lodi,CA,95242,(209) 224-8940
West County Medical Corporation, ,2272 Pacific Avenue,Long Beach,CA,90806,(562) 427-8018
West County Medical Clinic, ,100 East Market St.,Long Beach,CA,90805,(562) 428-4222
Narco Freedom - The Bridge Plaza M.M.T.P., ,37-18 34th St.,Long Island City,NY,11101,(718) 786-3474
"VCPHCS X, LLC",BHG Longmont Treatment Center,850 23rd Avenue,Longmont,CO,80501,(303) 245-0123
East Texas Clinic (ETC),East Texas Clinic,201 Pinetree Rd.,Longview,TX,75604,(903) 759-4966
Los Angeles Ambulatory Care Clinic (LAACC) VA Opioid Treatment Program, ,"351 East Temple St., Mail Code 11-C",Los Angeles,CA,90012-3328,(213) 253-2677
Community Health Care Clinic/ Narcotics Prevention Association Project,NPP,942 South Atlantic Blvd.,Los Angeles,CA,90022,(323) 263-9700
Addiction Research and Treatment - Southeast Clinic,BAART - Clinic,4920 South Avalon Blvd.,Los Angeles,CA,90011,(323) 235-5035
West Los Angeles Opiod Treatment Service, ,"11301 Wilshire Blvd., Building 257, Basement",Los Angeles,CA,90073,(310)478-3711 x41699
Addiction Research and Treatment - Beverly Clinic, ,1926 West Beverly Blvd.,Los Angeles,CA,90057,(213) 353-1140
BAART Behavioral Health Services,Beverly Clinic,1926 West Beverly Blvd.,Los Angeles,CA,90057,(213) 353-1140
BAART Behavioral Health Services,Southeast Clinic,4920 South Avalon Blvd.,Los Angeles,CA,90011,(323) 235-5035
"Addiction Research and Treatment/Baart Behavioral Health Services, Inc", ,1701 Zonal Ave.,Los Angeles,CA,90033,(323) 223-6298
Matrix Institute on Addictions, ,"5220 West Washington Blvd., Suite 101",Los Angeles,CA,90016,(323) 933-9186
Hollywood Medical and Mental Health Services, ,5015 W. Pico Blvd.,Los Angeles,CA,90019,(323) 653-1677
Tri-City Institute South, ,"11900 Avalon Blvd., Suite 200",Los Angeles,CA,90061,(323) 242-0500
"Center for Behavioral Health Kentucky, Inc.", ,1402-A Browns Lane,Louisville,KY,40207,(502) 894-0234
Methadone Opiate Rehabilitation and Education Center,The MORE Center,1448 South15th St.,Louisville,KY,40210,(502) 574-6414
"Options Treatment, LLC",Options Treatment,1068 S. 88th Street,Louisville,CO,80027,(303) 222-4451
"Habit Opco, LLC",Habit OPCO - Lowell,22 Olde Canal Drive,Lowell,MA,01851-2730,(978) 452-5155
Lubbock Regional MHMR Center Methadone Program,StarCare Specialty Health System,1950 Aspen Avenue,Lubbock,TX,79403,(806) 740-1571
Lubbock Lighthouse,Lubbock Lighthouse,1308-A Avenue Q,Lubbock,TX,79401,(806) 744-3419
"MedMark Treatment Centers of Texas, Inc.",MedMark Treatment Centers Lufkin,216 N. John Redditt Dr.,Lufkin,TX,75904,(936) 637-2223
Lumberton Treatment Center, ,2200 Clybourn Church Road,Lumberton,NC,28358,(910) 739-9160
"Virginia Treatment Center, LLC",Lynchburg Treatment Center,4000 Murray Place,Lynchburg,VA,24501,(434) 439-3283
"Habit Opco, LLC",Habit OPCO - Lynn,11 Circle Ave.,Lynn,MA,1905,(781) 595-2413
BAART Behavioral Health Services/ART,Lynnwood Clinic,11315 South Atlantic Blvd.,Lynwood,CA,90262,(310) 537-5883
"GPA Treatment of Macon, Inc.", ,6132 Hawkinsville Rd.,Macon,GA,31216,(478) 788-0066
"Trinity Treatment Center, Inc", ,1221 Newberg Avenue,Macon,GA,31206,(478) 788-5600
"HealthQwest Frontiers, Inc","890 Northwoods Plaza, Macon, GA 31204",890 Northwoods Plaza,Macon,GA,31204,(478) 330-7164
"Quality Addiction Management, Inc.",Madison West Comprehensive Treatment Center,151 E Badger Road,Madison,WI,53713,(608) 250-2512
"Milwaukee Health Services System, LLC",Madison East Comprehensive Treatment Center,5109 World Dairy Dr.,Madison,WI,53718,(608) 242-0220
Bradford Health Services - Madison Medically Monitored Residential Detoxification Adult NTP, ,1600 Browns Ferry Road,Madison,AL,35758,(256) 461-7272
"PSYCHOLOGICAL ADDICTION SERVICES, LLC", ,3113 E. WASHINGTON AVENUE,MADISON,WI,53704,(608) 416-5777
"Sacred Heart Rehabilitation Center, Inc.", ,1400 E 12 MIle Road,Madison Heights,MI,48071,(810) 392-2167
Woodbridge Methadone Treatment Center (WMTC), ,8427 Dorsey Circle,Manassas,VA,20110,(703) 330-7517
"Habit Opco, LLC",Habit OPCO - Manchester,20 Market St.,Manchester,NH,3104,(603) 622-4747
Hartford Dispensary - Manchester Clinic,Manchester Health & Wellness Center,335 Broad Street,Manchester,CT,06040-4036,(860) 643-3210
"Metro Treatment of Manchester, LP",Manchester Metro Treatment,228 Maple Street,Manchester,NH,3103,(603) 622-5005
"Aegis Treatment Centers, LLC",Healthy Connections,"955 West Center St., Suite 12A, 12B & 14",Manteca,CA,95337,(209) 239-9600
"Specialized Assistance Services, NFP (Branden House)","Specialized Assistance Services, NFP",333 West Evergreen St.,Manteno,IL,60950,(815) 468-6556
"Toxicology Associates of North Georgia, Inc.","Toxicology Associates of North Georgia, Inc.","1700 Cumberland Point Drive, Suite 1",Marietta,GA,30067,(770) 612-8264
Changing Phases Behavioral Support Inc.,Changing Phases Treatment Center,3655 Canton Rd,Marietta,GA,30066,(770) 726-1162
McLeod Addictive Disease Center - Marion,McLeod Center,117 West Medical Court,Marion,NC,28752-6519,(828) 659-3966
Cedar Valley Recovery Services,Substance abuse agency,151 Marion Blvd.,Marion,IA,52302,(319) 363-2678
"Premier Care of Indiana, INC",Premier Care Marion,317 S. Norton Ave,Marion,IN,46952,(765) 664-0101
Martinsburg Institute, ,223 Eagle School Road,Martinsburg,WV,25404,(304) 263-1101
"Addiction Treatment Services, Inc.", ,1496 N. Beale Rd.,Marysville,CA,95901,(530) 749-8640
"Aegis Treatment Centers, LLC",Narcotic Treatment Program,"201 D Street, Suite G",Marysville,CA,95901,(530) 742-7747
HOPE Center North,Lindner Center of HOPE,4483 US 42,Mason,OH,45040,(513) 536-4673
Regional Center for Opiate Recovery,"CommQuest Services, Inc.",1660 Nave Rd SE,Massillon,OH,44646,(330) 837-9411
"ARS of Somers Point, LLC",Addiction Recovery Systems,1409 Cantillion Blvd,Mays Landing,NJ,8330,(609) 601-8611
Substance Abuse Operations,"PLCCA, Inc.",308 South Fifth Ave.,Maywood,IL,60153,(708) 343-1275
"Oklahoma Treatment Services, LLC",Rightway Medical of McAlester,2202 Peaceable Road,McAlester,OK,74501, 
"Addiction Services, LLC",Medpro Treatment Centers,405 N McDonald St.,McKinney,TX,75069,(972) 542-4144
Southern Oklahoma Treatment Services,Transitions,5912 US Hwy 70,Mead,OK,73449,(580) 745-9083
"Pinnacle Treatment Centers PA-VI, LLC dba Greenfield Counseling, Inc.",Greenfield Counseling,11127 Perry Hwy,Meadville,PA,16335,814-337-7431
"Discovery House CC, Inc", ,920 Century Drive,Mechanicsburg,PA,17055,(717) 766-6974
"CRC Health Oregon, LLC",Allied Health Services Medford,777 Murphy Road,Medford,OR,97504,(541) 772-2763
"VCPHCS I, LLC",BHG Memphis South Treatment Center,4539 Winchester Road,Memphis,TN,38118,(901) 375-1050
"VCPHCS VIII, LLC",Tennessee Center for Research and Addiction Treatment,1734 Madison Ave.,Memphis,TN,38104,(901) 722-9420
"VCPHCS XXI, LLC",BHG Memphis North Treatment Center,"2165 Spicer Cove, Suite 5",Memphis,TN,38128,(901) 372-7878
"Sacred Heart Rehabilitation Center, Inc.", ,400 Stoddard Rd.,Memphis,MI,48041-1038,(810) 392-2167
Addiction Research and Treatment/BAART Behavioral Health Services, ,"795 Willow Rd., Building 332",Menlo Park,CA,94025,(650) 324-1470
"Aegis Treatment Centers, LLC",Narcotic Treatment Program,"1343 W. Main Street, Suites A&B and 1349 W. Main Street",Merced,CA,95340,(209) 725-1060
Rainbow Recovery Center, ,112 Timber Village Lane,Mercer,PA,16137,(724) 269-5130
"Center for Behavioral Health Idaho, Inc.", ,"2275 South Eagle Road, Suite 190",Meridian,ID,83642,(208) 288-0649
"Metro Treatment of Mississippi, L.P.",Meridian Treatment Center,2419 10th Street,Meridian,MS,39301,(601) 282-1600
Northwest Indiana Treatment Center, ,"8500 Broadway, Suite H",Merrillville,IN,46410,(219) 769-7710
"New Hope Behavioral Health Center, Inc.", ,"215 South Power Road, Suite #114",Mesa,AZ,85206,(480) 981-1022
Community Medical Services-Mesa, ,6116 East Arbor Ave,Mesa,AZ,85206,(602) 955-7997
Inspired Hope Group LLC, ,1228 W. Scyene Road #230,Mesquite,TX,75149,(972) 288-1800
Quapaw Counseling Services, ,58150 East 66 Road,Miami,OK,74354,(918) 542-1786
Comprehensive Psychiatric Center (Central), ,4790 N.W. 7th St. #102,Miami,FL,33126,(305) 529-5810
Comprehensive Psychiatric Center (South), ,9735 East Fern St.,Miami,FL,33157,(305) 238-5121
Comprehensive Psychiatric Center (CPC) - North, ,240 Northwest 183rd St.,Miami,FL,33169,(305) 651-2332
"HARBOR VILLAGE, INC.", ,9198 NW 8TH AVENUE,MIAMI,FL,33150,(305) 691-0086
Golden Glades Treatment Center,Golden Glades Treatment Center,100 NW 170 Street,Miami,FL,33169,(786) 785-0585
Center For Network Therapy,Center for Network Therapy,333 Cedar Avenue,Middlesex,NJ,8846,(732) 560-1080
"Rushford Center, Inc. - Ace Unit","Rushford Center, Inc.",1250 Silver St.,Middletown,CT,6457,(860) 346-0300
Connecticut Valley Hospital - Addiction Services Division - Merritt Hall, ,1000 Silver Street,Middletown,CT,5457,(860) 262-5000
West Texas Counseling and Rehabilitation Program of Midland Inc., ,2401 West Wall Street,Midland,TX,79701,(432) 687-3945
"Spectrum Health Systems, Inc.", ,200 East Main St.,Milford,MA,1757,(508) 634-1877
"Spectrum Health Systems, Inc", ,50 Howe Avenue,Millbury,MA,1527, 
"Connections CSP, Inc-Millsboro", ,315 Old Landing Road,Millsboro,DE,19966,(302) 947-1920
"Milwaukee Health Services System, LLC",River’s Shore Comprehensive Treatment Center,3707 N. Richards Street,Milwaukee,WI,53212,(414) 967-7012
"Milwaukee Health Services System, LLC",10th Street Comprehensive Treatment Center,4800 South Tenth St.,Milwaukee,WI,53221,(414) 744-5370
Integrated Health Clinics - LLC, ,17882 Southeast McLoughlin Blvd.,MIlwaukie,OR,97267,(503) 353-9415
Alliance Clinic,Alliance Clinic,3329 University Avenue SE,Minneapolis,MN,55414,(612) 454-2260
Minneapolis VA Health Care System Opiate Treatment Program,Addiction Recovery Services Opiate Treatment Program,"One Veterans Dr., Outpatient Methadone Progr. 116-A",Minneapolis,MN,55417,(612) 467-2228
"Specialized Treatment Services, Inc. / Central","STS, Inc",1132 Central Ave NE,Minneapolis,MN,55413,(612) 236-1702
HCMC Addiction Medicine, ,914 South Eighth Street,Minneapolis,MN,55404,(612) 873-5500
Community Medical Services- Minot, ,"300 30th Ave NW, Suite D",Minot,ND,58703,(701) 858-1801
REAWAKENINGS WELLNESS CENTER, ,3600 RED RD,MIRAMAR,FL,33025,(954) 544-3000
Community Medical Services-Missoula, ,2415 Catlin Street,Missoula,MT,59801,(406) 549-0114
Mobile Metro Treatment Center P.C., ,1924 - C Dauphin Island Parkway,Mobile,AL,36605,(251) 476-5733
Escape from Chemical Dependence,"ECD Program, Inc.",808 Downtowner Loop W.,Mobile,AL,36609,(251) 341-9505
AltaPointe Medication Assisted Treatment Program, ,4211 Government Blvd.,Mobile,AL,36693,(251) 666-2569
Genesis Narcotic Treatment Program, ,800 Scenic Drive,Modesto,CA,95350,(209) 525-6146
"Aegis Treatment Centers, LLC",Narcotic Treatment Program,"1235 McHenry Avenue, Suites A & B",Modesto,CA,95350,(209) 527-4597
Passion of Mind Healing Center, ,"14930 Laplaisance Road, #127",Monroe,MI,48161,(734) 344-5269
McLeod Addictive Disease Center,McLeod Center,2208 West Roosevelt Blvd.,Monroe,NC,28110,(704) 289-9869
Rainbow Center of Michigan, ,14733 South Telegraph Rd.,Monroe,MI,48161,(734) 243-8707
"Center for Behavioral Health Louisiana, Inc.", ,1910 Ruffin Drive,Monroe,LA,71203,(318) 340-9596
Metro Treatment Center of Alabama,Montgomery Metro Treatment Center,6001 East Shirley Lane,Montgomery,AL,36117,(334) 244-1618
Colorado Treatment Services - Montrose, ,2350 S Townsend,Montrose,CO,81401,(970) 249-5150
"Project Cure, Inc.","Project Cure, Inc.",200 Daruma Parkway,Moraine,OH,45417,(937) 262-3500
"BayMark Health Services of West Virginia, Inc",MedMark Treatment Centers Morgantown,53 Don Knotts Blvd,Morgantown,WV,26508,(304) 284-0025
Recovery Unlimited Treatment Center,Recovery Unlimited Treatment Center,G3169 West Pierson Rd.,Mount Morris,MI,48504,(810) 785-4930
"Pennsylvania Associates, LLC",Mount Pocono Medical,1151 Pocono Blvd. #3,Mount Pocono,PA,18344,(570) 839-7246
"New Brunswick Counseling Center, Inc.","Burlington Comprehensive Counseling, Inc.",75 Washington St.,Mt. Holly,NJ,8060,(609) 267-3610
Michigan Theraputic Consultants P.C.-MT. Pleasant, ,4273 Corporate Way,Mt. Pleasant,MI,48858,(989) 953-4357
Montefiore Mt. Vernon Hospital Methadone Maintenance Treatment Program,"Montefiore Mt. Vernon Hospital, S A T P",3 South Sixth Ave,Mt. Vernon,NY,10550,(914) 361-6239
"Metamorphosis Salt Lake City, Inc.", ,"164 East 5900 South, Ste 101",Murray,UT,84107,(801) 261-5790
Project Reality,Project Reality,5280 Commerce Drive Suite 110,Murray,UT,84107,(801) 364-8080
"WCHS, Inc.",Temecula Valley Treatment Center,"40700 California Oaks Rd., #201/202/203",Murrieta,CA,92562,(951) 894-5072
"Cherry Street Services, Inc.",Cherry Health,1611 Oak Avenue,Muskegon,MI,49442,(231) 767-1921
"Eastside Outpatient Services, PLLC",Eastside Substance Abuse Clinic,445 East Sherman Blvd.,Muskegon Heights,MI,49444,(231) 739-4359
"Center of HOPE of Myrtle Beach, LLC",Center of HOPE,104 George Bishop Pkwy.,Myrtle Beach,SC,29577,(843)903-6212
"Raise the Bottom Training & Counseling Services, LLC",Raise the Bottom Addiction Treatment - Nampa,"1603 12th Ave Rd, Unit B",Nampa,ID,83686, 
Soft Landing Recovery at Lakeview,Soft Landing Recovery,1601 Bond Street,Naperville,IL,60563,(888)782-6966
Soft Landing Interventions - Naperville Facility,Soft Landing,1601 N Bond Street,Naperville,IL,60563,(630) 261-9220
"Metro Treatment of Florida, LP",Naples Metro Treatment Center,"2770 Davis Blvd., Ste. 60",Naples,FL,34112,(239) 280-0487
"VCPHCS IX, LLC",Middle Tennessee Treatment Center,2410 Charlotte Ave.,Nashville,TN,37203-2504,(615) 321-2575
"The Next Door, Inc.","The Next Door, Inc.",402 22nd Avenue North,Nashville,TN,37203,(615) 251-8805
Jersey Shore Addiction Services T/A Asbury Park Drug Treatment Center,"JSAS HealthCare, Inc.",685 Neptune Boulevard,Neptune,NJ,7753,(732) 988-8877
"Community Health Care, Inc.",Health Care Resource Centers,8 Kilburn Street,New Bedford,MA,2740,(508) 979-1122
"High Point Treatment Center, Inc.",Women's Addiction Treatment Center,100 North Front Street,New Bedford,MA,2740,(774) 628-1000
"Gifford Street Wellness Center, LLC",Gifford Street Wellness Center,34 Gifford St.,New Bedford,MA,2744,(508) 999-3126
PORT Health Services - New Bern MMP, ,1309 Tatum Road,New Bern,NC,28560,(252) 672-8742
River City Rehabilitation Center - New Braunfels, ,1149 S. Academy Ave,New Braunfels,TX,78130,(830) 620-0282
The Hartford Dispensary New Britain Clinic, ,70 Whiting Street,New Britain,CT,6050,(860) 827-3313
New Brunswick Counseling Center, ,320 Suydam Street,New Brunswick,NJ,8901,(732) 246-4025
Silver Hill Hospital, ,208 Valley Rd.,New Canaan,CT,6840,(203) 966-3561
"Discovery House- NC, Inc.", ,2710 West State Street,New Castle,PA,16101,(724) 598-7999
ARS New Castle LLC,ARS New Castle LLC,263 Quigley Blvd.,New Castle,DE,19720,(302) 323-9400
"New Era Rehabilitation Center, Inc.", ,311 East Street,New Haven,CT,6511,(203) 562-2101
"APT Foundation, Inc.",Ambulatory Services Center,1 Long Wharf Drive,New Haven,CT,6511,(203) 781-4357
Cornell Scott - Hill Health Center,South Central Rehabilitation Center,232 Cedar St.,New Haven,CT,6519,(203) 503-3300
Multicultural Ambulatory Addiction Services,MAAS,426 East St.,New Haven,CT,6511,(203) 495-7710
APT Methadone Maintenance Program,Legion Clinic,495 Congress Ave.,New Haven,CT,6519,(203) 781-4740
The Hartford Dispensary New London Clinic,"931 Bank Street, New London, CT 06320",931 Bank St.,New London,CT,6320,(860) 447-2233
"Southeastern Council on Alcoholism and Drug Dependence, Inc. Detox Program",SCADD Detox,47 Coit Street,New London,CT,6320,(860) 447-1717
DRD Medical Clinic,DRD New Orleans Medical Clinic,2235 Poydras St. Suite B,New Orleans,LA,70115,(504) 524-7205
The Guidance Center- Chemical Dependency Treatment Center,The Guidance Center of Westchester,20 Sickles Ave.,New Rochelle,NY,10801,(914) 613-0700
"Lafayette Medical Approach, LLC", ,233 Lafayette St.,New York,NY,10012,(212) 431-6177
West Midtown Management Group,West Midtown Medical Group,311 West 35th St.,New York,NY,10001,(212) 736-5900
Carnegie Hill Institute, ,116 East 92nd St.,New York,NY,10128,(212) 289-7166
"START Treatment & Recovery Centers, Inc", ,500 West 180th St.,New York,NY,10033,(212) 543-2782
"Lower Eastside Service Center, Inc.", ,46 East Broadway,New York,NY,10002,(212) 343-3550
Mount Sinai Beth Israel O.T.P. Clinic 1,Opioid Treatment Program,1825 Park Avenue - 8th Floor,New York,NY,10035,(212) 774-3210
Mount Sinai Beth Israel O.T.P. Clinic 2,Opioid Treatment Program,1825 Park Avenue - 4th Floor,New York,NY,10035,(212) 774-3200
Mount Sinai Beth Israel O.T.P. Clinics 6 & 7,Opioid Treament Program,1825 Park Avenue - 2nd Floor,New York,NY,10035,(212) 774-3260
Mount Sinai Beth Israel O.T.P. Clinic 8,Opioid Treatment Program,"140 W 125th ST, 6th Floor",New York,NY,10027,(212) 636-4840
Mount Sinai Beth Israel O.T.P. - Gouverneur Clinic,Opioid Treatment Program,109-11 Delancey St.,New York,NY,10002,(212) 614-2840
Mount Sinai Beth Israel O.T.P. Ave. A Clinic,Opioid Treatment Program,26 Ave. A,New York,NY,10009,(212) 420-2079
Mount Sinai Beth Israel O.T.P. Clinic 2F,Opioid Treatment Program,429 Second Ave.,New York,NY,10010,(212) 726-6821
Mount Sinai Beth Israel O.T.P. Clinic 3C,Opioid Treatment Program,"435 Second Ave.,",New York,NY,10010,(212) 726-6824
Mount Sinai Beth Israel O.T.P. Clinic 2C,Opioid Treatment Program,435 Second Ave.,New York,NY,10010,(212) 726-6822
"START Treatment & Recovery Centers, Inc",Starting Point,119-121 West 124th St.,New York,NY,10027,(212) 932-2676
Metropolitan Hospital Center Detoxification Unit, ,1901 First Avenue,New York,NY,10029,(212) 423-7121
"A.R.E.B.A Casriel, Inc.",Opioid Treatment Program,500 West 57th St.,New York,NY,10019,(212) 293-3000
Stuyvesant Square Drug Detoxification and Rehabilitation Program,Mount Sinai Beth Israel,10 Nathan Perlman Place,New York,NY,10003,(212) 420-4220
Harlem Hospital Center - Detoxification Unit, ,506 Lenox Avenue,New York,NY,10037,(212) 939-3150
Metropolitan Correctional Center, ,150 Park Row,New York,NY,10007-1776,(646) 836-6461
"Bellevue Hospital Center, M.M.T.P.", ,462 First Avenue,New York,NY,10016,(212) 562-3201
"Lower Eastside Service Center, Inc., M.M.T.P. III", ,62 East Broadway,New York,NY,10002,(212) 343-3591
"Lower Eastside Service Center, Inc., Residence-MTAR & SSMR", ,7 Gouverneur Slip,New York,NY,10002,(212) 566-6820
"Center for Comprehensive Health Practice, Inc","Multitrack Abstinence Program (MAP), Pregnant Addicts-Addicted Mothers Program (PAAM), and Extended Care Program (ECP)","1900 Second Ave.,12th Floor",New York,NY,10029,(212) 360-7791
"START Treatment & Recovery Centers, Inc", ,2195 Third Ave.,New York,NY,10035,(212) 348-5650
"S.E.S. Operating Corporation d/b/a, Harlem East Life Plan", ,2367-69 Second Ave.,New York,NY,10035,(212) 876-2300
St. Lukes - Roosevelt Hospital Center,Methadone Maintenance Treatment Program,1000 Tenth Ave.,New York,NY,10019,(212) 523-6150
"S.E.S. Operating Corporation, Harlem East Life Plan Unit II",Harlem East Life Plan- Unit II,2367-69 Second Avenue,New York,NY,10035,(212) 876-2300
"Greenwich House Inc., East - M.M.T.P.", ,190 Mercer Street,New York,NY,10012,(212) 677-3400
Department of Veterans Administration Affairs Opiate Replacement Treatment Program NY Harbor Healthcare System, ,423 East 23rd Street,New York,NY,10010,(646) 273-8100
St. Lukes - Roosevelt Hospital - Inpatient Rehab Unit, ,1000 Tenth Ave. - Winston 9G,New York,NY,10019,(212) 523-8516
Bellevue Hospital Center - Detox Unit, ,"20 South, 462 First Ave.",New York,NY,10016,(212) 562-4623
Metropolitan Hospital Methadone Treatment Program, ,"1900 Second Ave., 99th St., Rm. 2M29",New York,NY,10029,(212) 423-6822
The New York Hospital Adult Methadone Maintenance Program,Vincent P. Dole Treatment and Research Insititute,Helmsley Tower,New York,NY,10021,(212) 746-1255
"START Treatment & Recovery Centers, Inc", ,119-121 West 124th St.,New York,NY,10027,(212) 932-2810
"Connections Community Support Programs, Inc. - Newark", ,3304 Polly Drummond Office Plaza,Newark,DE,19711,(302) 454-7520
"Brandywine Counseling, Inc. at South Chapel",Brandywine Counseling & Community Services,24 Brookhill Drive,Newark,DE,19702,(302) 454-3020
"American Habitare and Counseling, Inc.", ,687 Frelinghuysen Ave.,Newark,NJ,7114,(973) 799-0508
The Lennard Clinic II,Outpatient Methadone Clinic,461 Frelinghuysen Ave.,Newark,NJ,7114,(973) 596-2850
"The Center for Recovery, The Greater Hudson Valley Family Health Center, Inc.", ,3 Commercial Place,Newburgh,NY,12550,(845) 220-2146
Santa Clarita Medical and Mental Health Services, ,24625 Arch St.,Newhall,CA,91321,(661) 288-2644
"Merrimack River Medical Services, Inc.",Health Care Resource Centers,177 Shattuck Way,Newington,NH,3801,(603) 436-0448
The Center of Renewed Promises,The Center of Renewed Promises,1485 Hwy 34E Suite A-1,Newnan,GA,30265,(770) 502-0884
Treatment Center of Newnan, ,931 Lower Fayetteville Road Suite K,Newnan,GA,30263,(770) 502-7055
BAART Behavioral Health Services,Newport Clinic,475 Union St.,Newport,VT,5855,(802) 334-0110
CODAC III-Newport, ,93 Thames St.,Newport,RI,2840,(401) 846-4150
Hampton Roads Clinic,Hampton Roads Clinic,2712 Washington Avenue,Newport News,VA,23607,(757) 240-5223
American Addiction Treatment Center,American Addiction Treatment Center,12695 McManus Blvd Building 2,Newport News,VA,23602,(757) 234-4139
Affinity Healthcare Group Newport News,Opioid Treatment Program,6000 Jefferson Avenue,Newport News,VA,23605,(757) 933-2660
"MedMark Treatment Centers of Alabama, Inc.",MedMark Treatment Centers Dothan,9283 W. U.S. 84,Newton,AL,36352,(334) 692-4455
"Northpointe Council, Inc. Methadone - Maintenance Treatment Program Trott Access Center", ,"Trott Access Center, 1001-11th St.",Niagara Falls,NY,14301,(716) 278-8110
"Connecticut Department of Corrections - Niantic Division, NKA-York Correctional Institution", ,201 West Main St.,Niantic,CT,6357,(860) 451-3084
"Metro Treatment of Georgia, LP",Atlanta Metro Treatment Center,"6500 McDonough Dr., Suite B-2",Norcross,GA,30093,(770) 242-7865
Lakeland Center - Atlanta, ,"7001 Peachtree Industrial Blvd., Suite 404",Norcross,GA,30092,(770) 840-9912
"Norfolk Community Services Board, Opioid Replacement Treatment Services", ,"Tidewater Drive Center ORTP, 7460 Tidewater Dr.",Norfolk,VA,23505,(757) 664-6670
Bloomington Normal Treatment Center, ,"303 Landmark Drive, 2-B",Normal,IL,61761,(309) 808-2388
Montgomery County Recovery Center, ,316 DeKalb St.,Norristown,PA,19401,(610) 272-3710
Valley Forge Medical Center and Hospital, ,1033 West Germantown Pike,Norristown,PA,19403,(610) 539-8500
"Spectrum Health Systems, Inc.", ,1274 Curran Highway,North Adams,MA,1247,(413) 664-9024
"Crossroads Treatment Center of Charleston, PC", ,"2470 Mall Drive,",North Charleston,SC,29406,(843) 207-4721
"Center for Behavioral Health South Carolina, Inc.", ,"2301 Cosgrove Ave., Suite F",North Charleston,SC,29405,(843) 529-0700
Operation PAR Medication Assisted Patient Services, ,"535 Pine Island Rd., Suite M",North Fort Myers,FL,33903,(239) 656-7700
Orchard Hill Treatment Services,"APT Foundation, Inc",352 State Street,North Haven,CT,6473,(203) 781-4600
Western Pacific Med-Corp, ,11321 Camarillo St.,North Hollywood,CA,91602,(818) 506-4455
ADCARE RHODE ISLAND,ADCARE RHODE ISLAND,1950 TOWER HILL ROAD,NORTH KINGSTOWN,RI,2852,(401) 294-6160
"Center for Behavioral Health Las Vegas, Inc.", ,2290 McDaniel Street,North Las Vegas,NV,89030,(702) 399-1600
"Center for Behavioral Health Las Vegas, Inc.", ,3470 West Cheyenne Ave.,North Las Vegas,NV,89032,(702) 636-0085
CATAR Clinic, ,4260 Stockton Drive,North Little Rock,AR,72117,(501) 664-7833
"ATS of North Carolina, LLC",Mountain Health Solutions North Wilkesboro,200 Northview Plaza,North Wilkesboro,NC,28659,(336) 818-0607
"Community Health Care, Inc.",Health Care Resource Centers,441 Pleasant Street,Northampton,MA,1060,(413) 584-2404
Sepulveda VA Opioid Treatment Program, ,"16111 Plummer St., Building 10-A",Northridge,CA,91343,(818) 891-7711 x7986
"Connecticut Counseling Centers, Inc.","Connecticut Counseling Centers, Inc.","20 North Main St., Third Floor",Norwalk,CT,6854,(203) 838-6508
Western Pacific Rehabilitation (Norwalk), ,11902 E. Rosecrans Blvd.,Norwalk,CA,90650,(562) 929-7188
Western Pacific Med-Corp, ,11902 E. Rosecrans Ave.,Norwalk,CA,90650,(562) 929-7188
The Hartford Dispensary - Norwich Clinic,Norwich Clinic,772 West Thames St.,Norwich,CT,6360,(860) 886-0446
Nyack Hospital Recovery Center for Change, ,160 North Midland Avenue,Nyack,NY,10960,(845) 348-2069
"Metropolitan Rehabilitation Clinics, Inc.", ,"21700 Greenfield St., Suite 130",Oak Park,MI,48237,(248) 967-4310
"Humanistic Alternatives to Addiction Research and Treatment - HAART - Oakland, Inc.",HAART-Oakland,"10850 MacArthur Blvd., Suite 200",Oakland,CA,94605,(510) 875-2300 x228
14th St. Clinic, ,1124 International Blvd.,Oakland,CA,94606,(510) 533-0800
Mental Health Program, ,525 21st Street,Oakland,CA,94612,(510) 587-3400
"West Oakland Health Council, Inc., Substance Abuse Service Department", ,700 Adeline Street,Oakland,CA,94607,(510) 302-3740
"Lifeline Treatment Services, Inc.", ,10429 International Blvd.,Oakland,CA,94603,(510) 777-8448
"Metro Treatment of Florida, LP",Quad County Treatment Center,216 NE First Avenue,Ocala,FL,34470,(352) 732-6565
Chesapeake Treatment Services Ocean City, ,12417 Ocean Gateway,Ocean City,MD,21842,(410) 373-2113
"Mission Treatment Services, Inc.", ,1919 Apple Street,Oceanside,CA,92054-4492,(760) 547-1280
"SOAP MAT, LLC", ,"3230 Waring Court, Suite A",Oceanside,CA,92056-4509,(760) 305-7528
West Texas Counseling and Rehabilitation Program of Odessa, ,515 North Golder St.,Odessa,TX,79761,(432) 335-8141
"Metamorphosis, Ogden, Inc.", ,2557 Lincoln Avenue,Ogden,UT,84401,(801) 622-5272
"Oklahoma Treatment Services, LLC",Rightway Medical of OKC West,5401 SW 29th,Oklahoma,OK,73179,(405) 681-2003
Southern Oklahoma Treatment Services,Transitions OKC,4149 Highline Blvd.,Oklahoma City,OK,73108,(405) 942-7650
Oklahoma City Veterans Administration Medical Center,OTP,921 Northeast 13th St.,Oklahoma City,OK,73104,(405) 456-3144
"Mission Treatment Centers, Inc.", ,1737 Linwood Blvd,Oklahoma City,OK,73106,(405) 239-6815
"Able Recovery 1, LLC",Able Recovery,4901 S Pennsylvania Ave,Oklahoma City,OK,73119,(405) 605-4005
Rightway Medical, ,1613 SE 66th St,Oklahoma City,OK,73149,(405) 616-3366
South Sound Clinic of Evergreen Treatment Services,Evergreen Treatment Services,"6700 Martin Way East, Ste. 117",Olympia,WA,98516,(360) 413-6910
Omaha Treatment Center, ,11215 John Galt Boulevard,Omaha,NE,68137,(402) 592-5900
BAART Community HealthCare, ,"1941 South 42nd St., Suite 210",Omaha,NE,68105,(402) 341-6220
"AMS of Wisconsin, LLC","AMS of Wisconsin, LLC",9532 East 16 Frontage Road,Onalaska,WI,54650,(608) 783-0506
"Aegis Treatment Centers, LLC",Narcotic Treatment Program,"125 West ""F"" Street, Suite 101",Ontario,CA,91762,(909) 986-4550
True North Treatment Center, ,234 N. Orem Blvd.,Orem,UT,84057,(801) 691-0672
"Discovery House UC, Inc.", ,714 South State St.,Orem,UT,84058,(801) 426-6565
"Metro Treatment of Florida, LP",Orlando Methadone Treatment Center,1002 North Semoran Blvd.,Orlando,FL,32807,(407) 275-8939
Central Florida Substance Abuse Treatment Center, ,1800 West Colonial Drive,Orlando,FL,32804,(407) 843-0041
"Aspire Health Partners, Inc.",The Center for Drug Free Living,100 West Columbia Ave.,Orlando,FL,32806,(407) 245-0014
Aspire Health Partners,The Center For Drug Free Living,712 West Gore St.,Orlando,FL,32805,(407) 245-0012
"Central Florida Detox, LLC",Orlando Recovery Center,6000 Lake Ellenor Drive,Orlando,FL,32809,(754) 300-3120 x4000
"AMS of Wisconsin, LLC - Oshkosh", ,505 S. Washburn Street,Oshkosh,WI,54904,(920) 232-2332
Farnham Inc,Farnham Family Services,"283 West. 2nd St,",Oswego,NY,13126-3877,(315) 342-4489
"Great Heights Family Medicne, Ottawa, IL", ,315 E Mckinley Road,Ottawa,IL,61350,(815) 434-0228
"VCPHCS XIV, LLC", ,6331 West 110th St.,Overland Park,KS,66211,(913) 696-1911
"Daviess Treatment Services, LLC","Daviess Treatment Services, LLC",3032 Hwy 144,Owensboro,KY,42303,(270) 685-5030
"MedMark Treatment Centers of Alabama, Inc.",MedMark Treatment Centers -- Oxford,118 East Choccolocco St.,Oxford,AL,36203,(256) 831-4601
"Aegis Treatment Centers, LLC",Narcotic Treatment Program,"2055 Saviers Road, Suite 9, 10, 11, 12",Oxnard,CA,93033,(805) 483-2253
"BHGXXXIII, LLC",BHG Paducah Treatment Center,2705 Olivet Church Road,Paducah,KY,42001,(270) 443-0096
"Royal Life Centers, LLC", ,120 State Market Road,Pahokee,FL,33476,(561) 285-9112
"BHG XXIV, LLC",Kentucky Treatment Centers-Paintsville,628 Jefferson Ave.,Paintsville,KY,41240,(606) 789-6966
Central Florida Treatment Center/ Palm Bay, ,2198 Harris Avenue NE,Palm Bay,FL,32905,(321) 951-9750
Behavioral Health of the Palm Beaches, ,106 Blossom Lane,Palm Beach Shores,FL,33404,561-465-1443
"WCHS, Inc.",Desert Treatment Clinic,"1330 North Indian Canyon Dr., Suites A & B",Palm Springs,CA,92262,(760) 322-9065
Palmdale Medical and Mental Health Services, ,"2720 E. Palmdale Blvd. #128, #129",Palmdale,CA,93550,(661) 947-3333
"Radius Foundation, Inc.", ,11952 S.Harlem Ave. Suite 100,Palos Heights,IL,60463,(708) 923-0800
"Soft Landing Interventions, LLC",Soft Landing Recovery at Palos Heights,11925 S. Harlem Avenue,Palos Heights,IL,60463,(708) 361-3074
Treatment Center of Panama City, ,1530 Harrison Avenue,Panama City,FL,32405,(850) 769-5695
Western Pacific Med-Corp, ,9462 Van Nuys Blvd.,Panorama City,CA,91402,(818) 891-8555
Western Pacific Rehabilitation (Panorama), ,9462 Van Nuys Blvd.,Panorama City,CA,91402,(818) 891-8555
Monsignor Wall Social Services Center, ,"230 E. Ridgewood Ave., Building #10, 2nd Floor",Paramus,NJ,7652,201-967-9020
"American Day CD Centers, LLC",High Focus Centers- Paramus location,40 Eisenhower Drive,Paramus,NJ,7652,(201) 291-0055
"VCPHCS XX, LLC",BHG Paris Treatment Center,2555 East Wood St.,Paris,TN,38242,(731) 641-4545
"Parkersburg Treatment Center, LLC",Parkersburg Treatment Center,184 Holiday Hills Dr.,Parkersburg,WV,26104,(304) 420-2400
"Aegis Treatment Centers, LLC",Narcotic Treatment Program,"1450 N. Lake Avenue, Suite 150",Pasadena,CA,91104-2301,(626) 794-1161
"Pasadena Substance Abuse Clinic, Inc.", ,1645 Pasadena Blvd.,Pasadena,TX,77502,(713) 473-1405
"Northeast Life Skills Associates, Inc.", ,121 Howe Ave.,Passaic,NJ,7055,(973) 777-2962
"Paterson Counseling Center, Inc.", ,319-321 Main St.,Paterson,NJ,7505,(973) 523-8316
Addiction Recovery Institute - North, ,31 North Union St.,Pawtucket,RI,2860,(401) 725-2520
"Center for Treatment and Recovery, LLC", ,82 Pond Street,Pawtucket,RI,2860,(401) 727-1287
"Community Health Care, Inc.",Health Care Resource Centers,172 Newbury Street,Peabody,MA,1960,(978) 535-9190
Lexington Center for Recovery Peekskill Clinic, ,3 Corporate Drive,Peekskill,NY,10566,(914) 257-3500
"Ocean Breeze Detox, LLC", ,1300 Hibiscus Drive,Pembroke Pines,FL,33025,954-842-7444
"Pinnacle Treatment Centers NJ-III, T/A Delaware Valley Medical", ,7980 South Crescent Blvd.,Pennsauken,NJ,8109,(856) 665-5100
"Metro Treatment of Florida, LP",Pensacola Metro Treatment Center,2420 South Highway 29,Pensacola,FL,32533,(850) 968-3565
"Lakeview Center, Inc.","Lakeview Center, Inc.",1800 N Palafox St,Pensacola,FL,32501-2141,(850) 466-3400
Central Illinois Center for the Treatment of Addictions, ,3420 N. Rochelle,Peoria,IL,61604,(309) 671-8000
"Rose Medical Association, Inc/ Peoria", ,209 West Romeo B. Garrett Avenue,Peoria,IL,61602,(309) 686-1600
"New Pointe Treatment Center, LLC", ,1031 Keith Dr,Perry,GA,31069,478-987-7912
Polaris Renewal Services, ,3591 Pittsburgh Road,Perryopolis,PA,15473,(724) 736-8390
"Crossroads Treatment Center of Petersburg, PC", ,10543 South Crater Road,Petersburg,VA,23805,(804) 431-5585
Eldorado Texas Community Service Center,Pharr Health Services,5510 N. Cage St. Suite P,Pharr,TX,78577,956-787-3544
The Healing Way,THW Group - The Healing Way,7900 Frankford Avenue,Philadelphia,PA,19136,(215) 335-3520
Family Center,Family Center,1233 Locust Street,Philadelphia,PA,19007,(215) 955-8577
"Addiction Medicine and Health Advocates, Inc.","AMHA, Inc.",928 Market Street,Philadelphia,PA,19107-4220,(215) 923-4202
Parkside Recovery, ,5429 Germantown Ave.,Philadelphia,PA,19144,(215) 754-0246
SOAR, ,9150 Marshall Street,Philadelphia,PA,19115,(215) 464-4450
NorthEast Treatment Centers - OTP,Net Steps,2205 Bridge St.,Philadelphia,PA,19137,(215) 743-6150 x116
John F. Kennedy Drug Treatment Clinic, ,907 North Broad St.,Philadelphia,PA,19123,(215) 235-5520
VAMC Opioid Treatment Program, ,"38th and Woodland Ave., Bldg. 3",Philadelphia,PA,19104,(215) 823-5809
Achievement Through Counseling and Treatment (ACT 1), ,5820 Old York Rd.,Philadelphia,PA,19141,(215) 276-8400
"The Consortium, Inc.",Drug Abuse Rehabilitation Program (D.A.R.P.),451 University Ave.,Philadelphia,PA,19104,(215) 596-8000
Narcotic Addict Rehabilitation Program of Thomas Jefferson University, ,"NE Corner, 21st St. & Washington Ave.",Philadelphia,PA,19146,215-790-9942
Achievement Through Counseling and Treatment (ACT II), ,1745 North Fourth St.,Philadelphia,PA,19122,(215) 236-0100
Mercy Philadelphia Hospital, ,501 South 54th St.,Philadelphia,PA,19143,(215) 748-9391
Parkside Recovery, ,5000 Parkside Ave.,Philadelphia,PA,19131,(215) 879-6116
Kirkbride Center - A Better Way, ,111 North 49th St.,Philadelphia,PA,19139,(215) 471-2600
North Philadelphia Health Systems/ St. Joseph's Hospital,detox unit in acute care hospital,16th St. and Girard Ave.,Philadelphia,PA,19122,(215) 787-9000
Helen L. Goldman Rehabilitation Center, ,801 W. Girard Avenue,Philadelphia,PA,19122,(215) 787-2080
"NorthEast Treatment Services, Inc",North East Treatment Centers,499 N. 5th street,Philadelphia,PA,19123,(215) 451-7034
"Northeast Treatment Centers, Inc",NET Steps II,7520 State Road,Philadelphia,PA,19136,(267) 348-3550
Kensington Hospital Outpatient Treatment Program, ,2100 N. Front Street,Philadelphia,PA,19122,(215) 426-8100
Kensington Hospital Outpatient Treatment Program, ,2100 N. Front Street,Philadelphia,PA,19122,(215) 426-8100
"Pinnacle Treatment Centers NJ-II, T/A Stateline Medical", ,590 Marshall St.,Phillipsburg,NJ,8865,(908) 387-0003
St. Luke's Behavioral Hospital, ,1800 East Van Buren St.,Phoenix,AZ,85006,(602) 251-8808
"Center for Behavioral Health Phoenix, Inc.", ,1501 East Washington St.,Phoenix,AZ,85034,(602) 253-6553
"Intensive Treatment Systems, LLC - Main",Intensive Treatment Systems,651 West Coolidge St.,Phoenix,AZ,85013,(602) 248-0550
"Southwest Behavioral Health Services, Inc.",Seventh Avenue Clinic,"1424 South Seventh Ave., Bldg. C",Phoenix,AZ,85007,(602) 258-3600
"Intensive Treatment Systems, LLC - North", ,"19401 N. Cave Creek Rd., Ste 18",Phoenix,AZ,85024,(602) 996-0099
Alpha Medical Services,Community Medical Services,3825 N. 24th street,Phoenix,AZ,85016-6512,(602) 955-7997
Valle del Sol, ,1209 S. 1st. Ave.,Phoenix,AZ,85003,(602) 258-6797
Lower Buckeye Jail,Correctional Health Services,3250 W Lower Buckeye Rd,Phoenix,AZ,85009,(602) 876-6802
Estrella Jail,Correctional Health Services,2939 W Durango,Phoenix,AZ,85009,(602) 876-5590
Fourth Avenue Jail,Correctional Health Services,201 S. 4th Ave,Phoenix,AZ,85003,(602) 876-9155
Community Medical Services - Northern, ,2301 West Northern,Phoenix,AZ,85021,(602) 866-9378
Bell Treatment Center,Bell Treatment Center,1614 W Bell Rd,Phoenix,AZ,85023,(602) 535-8612
"Addiction Resources, Inc.", ,"4337 W. Indian School Road, Suite 109",Phoenix,AZ,85031,(602) 233-9401
Correctional Health Services,Durango Jail,3225 West Gibson Lane,Phoenix,AZ,85009,(602) 876-7114
"ConnectionsAccess, LLC",Osborn Clinic,3333 N. 7th Ave,Phoenix,AZ,85013, 
"Intensive Treatment Systems, LLC - West", ,4136 N 75th Ave #116,Phoenix,AZ,85033,(623) 247-1234
Recovery Rx L.L.C.,Recovery Rx,"4350 North 19th Ave, Suite 1",Phoenix,AZ,85015,(602) 388-4986
Towers Jail, ,3127 W. Gibson Lane,Phoenix,AZ,85009,(602) 876-7114
El Dorado Community Services Center,Eastside Health Svc.,"5200 San Gabriel Pl., Ste. B&C",Pico Rivera,CA,90660,(562) 222-1331
Tavarua Health Services, ,8207 Whittier Blvd.,Pico Rivera,CA,90660,(562) 695-0737
Pikesville Health Services, ,1209 Greenwood Rd,Pikesville,MD,21208,(410) 484-8500
"BHG XXV, LLC",Kentucky Treatment Centers-Pikeville,368 South Mayo Trail,Pikeville,KY,41501,(606) 437-0047
"ATS of North Carolina, LLC",Carolina Treatment Center - Pinehurst,20 Page Dr.Ste. 8,Pinehurst,NC,28374,(910) 235-9090
"Metro Treatment of Florida, LP",Bay Area Treatment Center,8800 49th Street North,Pinellas Park,FL,33782,(727) 547-5200
VA Pittsburgh Healthcare System Center for Treatment of Addictive Disorders,Opioid Substitution Treatment Clinic,"VA Pittsburgh Healthcare System, University Drive",Pittsburgh,PA,15240,(412) 360-6092
"Pinnacle Treatment Centers PA-IV, LLC",Summit Medical Services,3121 Smallman St.,Pittsburgh,PA,15201,(412) 255-8717
"Pinnacle Treatment Centers PA-II, LLC",Alliance Medical Services Ensign 2,739 Ensign Ave.,Pittsburgh,PA,15226,(412) 488-6360
"Western Psychiatric Institute and Clinic, Narcotic Addiction treatment Program", ,6714 Kelly St.,Pittsburgh,PA,15208,(412) 363-7383
"Center for Behavioral Health Pennsylvania, Inc.",Discovery House,1391 Washington Blvd.,Pittsburgh,PA,15206,(412) 661-9222
"Progressive Medical Specialists, Inc.",Progressive Medical,2900 Smallman St,Pittsburgh,PA,15201,(412) 391-6384
"Tadiso, Inc.", ,1425 Beaver Ave.,Pittsburgh,PA,15233,(412) 322-8415
"Pinnacle Treatment Centers PA-I, LLC", ,729 Ensign Ave.,Pittsburgh,PA,15226,(412) 488-6360
Berkshire Medical Center/McGee Recovery Unit,Berkshire Medical Center,725 North Street,Pittsfield,MA,1201,(413) 442-1400
"Spectrum Health Systems, Inc","Spectrum Health Systems, Inc",390 Merrill Road,Pittsfield,MA,1201,(413) 442-0402
"Organization for Recovery, Inc.", ,519 North Ave.,Plainfield,NJ,7060,(908) 769-4700
West Texas Counseling and Rehabilitation Program of Plano Inc., ,1108 Dobie Dr.,Plano,TX,75074,972-516-2900
"Conifer Park, Inc", ,80 Sharron Ave,Plattsburgh,NY,12901,(518) 561-0130
John Brooks Recovery Center,John Brooks Recovery Center,660 Black Horse Pike,Pleasantville,NJ,8232,(609) 347-8615
Crossroads Treatment Center of Plymouth,Crossroads Treatment Center of Plymouth,"116 Long Pond Road, Suite 2-3",Plymouth,MA,2360,(774) 773-3905
"High Point Treatment Center, Inc.", ,1233 State Rd.,Plymouth,MA,02360-5133,(508) 224-7701
"Aegis Treatment Centers, LLC",Narcotic Treatment Program,1050 North Garey Ave.,Pomona,CA,91767,(909) 623-6391
"Metro Treatment of Florida, LP",Pompano Treatment Center,380 Southwest 12th Ave.,Pompano Beach,FL,33069,(954) 782-9774
"The Retreat of Broward, Inc.", ,100 NW 17th Ave.,Pompano Beach,FL,33069,(954) 977-8380
Oklahoma Treatment Services,Rightway Medical of Ponca City,827 East Hubbard Road,Ponca City,OK,74601,(580) 762-3217
CTIAM's Ponce,Tratamiento con Metadona,Medication Unit,Ponce,PR,00732-7321,(787) 840-6630
Sunrise Treatment Center, ,989 University Dr Suite 108,Pontiac,MI,48342,(248) 481-2267
"BHG XXIX, LLC",BHG Poplar Bluff Treatment Center,1369 North Westwood Blv.,Poplar Bluff,MO,63901,(573) 772-7937
"Best Recovery Health Care, Inc.", ,509 Ninth Ave.,Port Arthur,TX,77642,(409) 982-1770
Bon Secours Community Hospital, ,160 East Main Street,Port Jervis,NY,12771,(845) 858-7233
Operation PAR Medication Assisted Patient Services, ,7720 Washington Street,Port Richey,FL,34668,(727) 816-1200
"Just Believe Recovery Center of Port Saint Lucie, LLC","Just Believe Recovery Center of Port Saint Lucie, LLC",699 NW Airoso Blvd,Port Saint Lucie,FL,34983,(772) 252-1235
"AMETHYST RECOVERY CENTER, LLC",SUBSTANCE ABUSE TREATMENT PROGRAM,2749 SW PORT SAINT LUCIE BLVD,PORT SAINT LUCIE,FL,34953,(772) 301-1678
Addiction Research and Treatment (ART) and BAART Behavioral Health Services (BBHS), ,89 E Mill Avenue,Porterville,CA,93257-3808,(559) 625-8890
"CRC Health Oregon, LLC",Allied Health Services Portland,324 NW Davis Street,Portland,OR,97209,(503) 226-2203
"Merrimack River Medical Services, Inc",Health Care Resource Centers,2300 Congress Street,Portland,ME,4102,(207-221-2292
"Opiate Treatment Program, Portland VA Medical Center", ,3710 SW US Veteran's Hospital Road,Portland,OR,97239,(503) 220-8262
"CRC Health Oregon, LLC",Allied Health Services East,"6601 N.E. 78th Court, Suite A-3",Portland,OR,97218,(503) 252-3949
"CODA, Inc.", ,1027 East Burnside St.,Portland,OR,97214,(503) 239-8400
"CRC Health Oregon, LLC",Allied Health Services Portland - Belmont,2600 Southeast Belmont St.,Portland,OR,97214,(503) 239-5738
"Metro Treatment of Oregon, LP","Metro Treatment of Oregon, LP",16420 Southeast Division Street,Portland,OR,97236,(503) 762-3130
"Integrated Health Clinics, NE", ,3610 Northeast 82nd Ave.,Portland,OR,97220,(503) 408-9585
"City of Portsmouth, Department of Behavioral Healthcare Services, Substance Abuse outpatient Treatment Services",Portsmouth Behavioral Healthcare Services,1811 King Street,Portsmouth,VA,23704,(757) 393-8896
Canton - Potsdam Hospital Detox Unit,Canton - Potsdam Hospital Detox Unit,50 Leroy St.,Potsdam,NY,13676,(315) 261-5969
"Habit Opco, LLC",Habit OPCO - Pottstown,301 Circle of Progress,Pottstown,PA,19464,(610) 970-5410
Mid-Hudson Valley Division of Westchester Medical Center, ,241 North Road,Poughkeepsie,NY,12601,(845) 483-8856
"Lexington Center for Recovery, Inc.-MMTP", ,230 North Rd.,Poughkeepsie,NY,12601,(845) 486-2850
Prescott Valley ORS,"Southwest Behavioral Health Services, Inc.",7600 E. Florentine Ste. 101,Prescott Vallley,AZ,86314,(928) 775-7088
"Bayside Recovery, LLC", ,440 Solomons Island Road N.,Prince Frederick,MD,20678-3941,(443) 486-5680
CODAC North Main, ,530 North Main St,Providence,RI,2904,401-275-5039
Butler Hospital Alcohol and Drug Treatment Services, ,345 Blackstone Blvd.,Providence,RI,2906,(401) 455-6524
"R.I.S.A.T., Inc.",Discovery House,66 Pavilion Ave.,Providence,RI,2905,(401) 461-9110
CODAC Providence, ,349 Huntington Ave.,Providence,RI,2909,(401) 942-1450
Prospect CharterCare RWMC - LLC,Roger Williams Medical Center,825 Chalkstone Ave.,Providence,RI,2908,(401) 456-2457
Drug Dependence Treatment Program,Drug Dependence Treatment Ctr,"830 Chalkstone Avenue, 116",Providence,RI,2908,(401) 273-7100
"The Journey to Hope, Health and Healing","The Journey to Hope, Health and Healing",160 Narragansett Ave.,Providence,RI,2907,(401) 941-4488
Utah County Treatment Program of Project Reality,Project Reality,151 South University Avenue Suite 1400,Provo,UT,84606,(801) 851-7118
Crossroads' Turning Points, ,509 East 13th St.,Pueblo,CO,81001,(719) 546-6666
Colorado Treatment Services,Colorado Treatment Services - Pueblo,511 W. 29th Street,Pueblo,CO,81008,(719) 621-1929
Pulaski Medical,Pulaski Medical,1006 E.Main Street,Pulaski,VA,24301,(540)980-1125
"Community Health Resources, Inc.",Pathways,391 Pomfret St.,Putnam,CT,6260,(860) 963-4971
"Northeast Family Health Care, LLC",Medical Director,1040 S. West End Boulevard,Quakertown,PA,18951-2634,(267) 347-4560
"Gavin Foundation, Inc.",Gavin Quincy,43 Old Colony Ave,Quincy,MA,2170,(617) 845-5778
"Quality Addiction Management, Inc.",Racine Comprehensive Treatment Center,5735 Durand Avenue,Racine,WI,53406,(262) 598-1392
SouthLight Heathcare,same,2101 Garner Rd.,Raleigh,NC,27610,(919) 832-7351
RMTC - Raleigh Methadone Treatment Center, ,6118 St Giles St,Raleigh,NC,27612,(919) 781-5507
The Morse Clinic of North Raleigh,Morse Clinic of North Raleigh,3209 Gresham Lake Road,Raleigh,NC,27615,(919) 977-5993
Middletown Medical,Middletown Medical,600 State Route 35,Red Bank,NJ,07701-5018,(732) 706-1300
"AMS of Delaware, LLC", ,20567 Coastal Highway,Rehoboth Beach,DE,19971,(302) 227-1320
Pennsylvania Adult & Teen Challenge,Pennsylvania Adult & Teen Challenge,Pennsylvania Adult Teen Challenge,Rehrersburg,PA,19550-5000,(717) 933-4148
Center for Behavioral Health Reno, ,"160 Hubbard Way, Suite A",Reno,NV,89502,(775) 829-4472
Evergreen Treatment Services South King County Clinic, ,1412 SW 43rd,Renton,WA,98057,(425) 264-0750
Western Pacific Rehabilitation (Reseda), ,"7232 Canby Ave. Stes. 4,5,6",Reseda,CA,91335,(818) 705-5561
Western Pacific Med-Corp, ,"7232 Canby Ave., Stes 4,5,6",Reseda,CA,91335,(818) 705-5561
"Medical Arts Sanitarium, Cornerstone of Rhinebeck", ,500 Milan Hollow Rd.,Rhinebeck,NY,12572,(845) 266-3481
"Richmond Treatment Center, LLC",Richmond Treatment Center,4265 South A. St.,Richmond,IN,47374,(765) 962-8843
RPMC - Richmond Private Methadone Clinic, ,4926 West Broad St.,Richmond,VA,23230,(804) 673-5241
The Family Counseling Center for Recovery, ,4906 Radford Ave.,Richmond,VA,23230,(804) 354-1996
Department of Veterans Affairs Medical Center - Opioid Agonist Treatment Program,same as above,1201 Broad Rock Blvd.,Richmond,VA,23249,(804) 675-5000
Methadone Outpatient Treatment Program,Human Resources Inc.,15 West Cary St.,Richmond,VA,23220,(804) 644-4636
BAART Behavioral Health Services,Richmond Clinic,1313 Cutting Blvd.,Richmond,CA,94804,(510) 232-0874
Addiction Research & Treatment, ,1313 Cutting Blvd.,Richmond,CA,94804,(510) 232-0874
Metro Treatment of Virginia,New Season,2217 E. Franklin Street,Richmond,VA,23223,(804) 213-0249
Richmond Southside Treatment Center,New Season,9609 Jefferson Davis Highway,Richmond,VA,23237,(804) 275-1116
"Family Counseling Center for Recovery, Southlake", ,"905 Southlake Blvd., Suite C",Richmond,VA,23236,(804) 419-0492
"Samaritan Village Inc., Methadone Treatment Program", ,130-20 89th Rd.,Richmond Hill,NY,11418,(718) 441-2835
"Recovery Concepts, LLC", ,124A Boardwalk Drive,Ridgeland,SC,29936,(843) 645-2770
Crossroads Treatment Center of Northwest Georgia, ,4083 Cloud Springs Road,Ringgold,GA,30736,(706) 820-6087
"Ringgold Treatment Center, LLC", ,8292 Highway 41,Ringgold,GA,30736,(706) 952-2800
Clinica de Tratamiento Integral Asistido con Medicamentos San Juan,CTIAM San Juan,Calle Maga Final Terrenos Hospital Psiqiatria Forense,Rio Piedras,PR,928,(787) 754-4100
Rio Rancho Health Services, ,1558 Stephanie Rd. SE,Rio Rancho,NM,87124, 
"Suffolk County Department of Health Services, Division of Community Mental Hygiene East End Clinic", ,300 Center Dr.,Riverhead,NY,11901,(631) 852-2680
"WCHS, Inc.",Riverside Treatment Center,1021 West La Cadena Drive,Riverside,CA,92501,(951) 784-8010
"Virginia Treatment Center, LLC",Roanoke Treatment Center,3208 Hershberger Road,Roanoke,VA,24017,540-366-5248
"Metro Treatment of Minnesota, LP",Rochester Metro Treatment Center,2360 North Broadway,Rochester,MN,55906-4065,(507) 282-0142
"Clear Choices, LLC", ,373 Cleveland Street,Rochester,PA,15074,(724) 775-7905
Rochester Pathways, ,435 East Henrietta Street,Rochester,NY,14620,(585) 424-6580
Strong Memorial Hospital Methadone Maintenance Treatment Clinic Department of Psychiatry, ,2613 W. Henrietta Rd.,Rochester,NY,14623,(585) 275-3161
ROCK HILL TREATMENT SPECIALISTS, ,1274 EAST MAIN STREET,ROCK HILL,SC,29730,(864) 616-5031
"Center for Alcohol and Drug Services, Inc. - Rock Island Office",Opioid Treatment,4230 11th St.,Rock Island,IL,61201,(309) 788-4571
"Remedies Renewing Lives, Inc.", ,516 Green Street,Rockford,IL,61102,(815) 962-0871
"Colonial Management Group, LP dba Metro Treatment of Maine, LP",Rockland Metro Treatment Center,166 New County Road,Rockland,ME,4841,(207) 596-0312
Medication Assisted Treatment Program, ,981 Rollins Avenue,Rockville,MD,20852,(240) 777-1679
"Montgomery Recovery Services, Inc.", ,14636 Rothgeb Drive,Rockville,MD,20850,(301) 762-5300
"Rocky Mount Treatment Center, LLC", ,104 Zebulon Court,Rocky Mount,NC,27804,(252) 972-4357
"Oklahoma Treatment Services, LLC",Rightway Medical of Roland,117 E. Ray Fine Blvd.,Roland,OK,74954,(918) 427-3344
Therapeutics Interventions Medical Management and Detoxification (MMD), ,1545 Hicks Road,Rolling Meadows,IL,60008,(847) 991-4800
New Horizons Treatment Center, ,36 Chateau Ct.,Rome,GA,30161,(706) 233-9603
Buffalo Beacon Corporation,Beacon Center,303 W. Liberty St,Rome,NY,13440,(315) 367-1290
Adapt OTP,Adapt,548 SE Jackson Street,Roseburg,OR,97470,(541) 673-2770
"Riverside Treatment Services, LLC",Opioid Treatment Program,8359 Pulaski Hwy,Rosedale,MD,21237,(443) 841-2598
Biomedical Behavioral Health Systems, ,31581 Gratiot Avenue,Roseville,MI,48066,(586) 783-4802
St. Paul Metro Treatment Center,St. Paul Metro Treatment Center,2311 Woodbridge St.,Roseville,MN,55113,(651) 773-0832
"Aegis Treatment Centers, LLC",Narcotic Treatment Program,"1133 Coloma Way, Suite A, B, and C",Roseville,CA,95661,(916) 774-6647
"Neptune Clinical Group, Inc.",Private Clinic North,822 Chickamauga Ave.,Rossville,GA,30741,(706) 861-6458
North Fulton Treatment Center, ,601 Bombay Lane,Roswell,GA,30076,(770) 754-4674
Recovery Services of Southern New Mexico,Opioid Treatment Program,1107 South Atkinson,Roswell,NM,88203,(575) 578-4825
Dimock Acute Treatment Services, ,40 Dimock Street,Roxbury,MA,2119,(617) 442-8800
Rutland Regional Medical Center,West Ridge Center,"1 Scale Ave., Bldg. 10",Rutland,VT,5701,(802) 776-5800
"C.O.R.E. Medical Clinic, Inc.", ,2100 Capitol Avenue,Sacramento,CA,95816,(916) 442-4985
"MedMark Treatment Centers - Sacramento, Inc.", ,"7240 East South Gate Dr., Ste. G",Sacramento,CA,95823,(916) 391-4293
"Treatment Associates, Inc.",Sacramento Treatment Clinic,"7225 E. Southgate Drive, Ste D",Sacramento,CA,95823,(916) 394-1000
Bi-Valley Medical Clinic and BAART Behavioral Health Services,BAART Programs Norwood,"310 Harris Ave., Stuites A, E, F and G",Sacramento,CA,95838,(916) 649-6793
Victory Clinical Services IV, ,508 Shattuck Road,Saginaw,MI,48604,(989) 752-7867
Shelby County Treatment Center (SCTC), ,750 Highway 31 South,Saginaw-Alabaster,AL,35007,(205) 216-0202
Marion County Drug Treatment Program,Opioid Treatment Program,2035 Davcor Street S.E.,Salem,OR,97302,(503) 588-5358
"CRC Health Oregon, LLC",Willamette Valley Treatment Center,"3871 Fairview Industrial Drive, S.E.",Salem,OR,97302,(503) 391-9762
Valley Health Associates, ,338 Monterey Street,Salinas,CA,93901,(831) 424-6655 x22
Community Human Services Off Main Clinic, ,1083 South Main St.,Salinas,CA,93901,(831) 424-4828
Rowan Treatment Associates,"Treatment Centers-LLC, Salisbury",448 Jake Alexander Blvd. West,Salisbury,NC,28147,(704) 645-8539
"Secondd Chancee, Inc.","B.N.J. HEALTH SERVICES, INC. SALISBURY",204 NEWTON STREET,SALISBURY,MD,21801,(443) 978-7919
Chesapeake Treatment Services Salisbury, ,1322 Belmont Ave,Salisbury,MD,21804,(410) 831-3904
Wicomico County Health Department Methadone Program - PRMC, ,203 Newton Street,Salisbury,MD,21801,(410) 742-3784
Tranquility Place,Tranquility Place,160 East 800 South Suite B,Salt Lake City,UT,84111,(801) 924-9240
De Novo Services LLC, ,339 East 3900 South #155,Salt Lake City,UT,84107,(801) 263-1056
Discovery House - Utah Inc.,Discovery House,449 East 2100 South,Salt Lake City,UT,84115-3800,(801) 596-2111
Project Reality,Project Reality,150 East 700 South,Salt Lake City,UT,84111,(801) 364-8080
West Texas Counseling and Rehabilitation Program of San Angelo Inc., ,"601 South Irving Place, Suite 4",San Angelo,TX,76903,(325) 653-3683
"River City Rehabilitation Center, Inc.", ,680 Stonewall Ave.,San Antonio,TX,78214,(210) 924-7547
Metro Treatment of Texas LP,San Antonio Treatment Center,3701 West Commerce St.,San Antonio,TX,78207,(210) 434-0531
The Center for Health Care Services,Opiate Addiction Treatment Services,"601 N. Frio, Building #2",San Antonio,TX,78207,(210) 261-3027
MARS S.A. LLC, ,437 McCarty Rd Ste 600,San Antonio,TX,78216,(210) 314-1934
"Metro Treatment of Texas, L.P.",NW San Antonio Treatment Center,3615 Culebra Road,San Antonio,TX,78228-5914,(210) 314-6473
"Texas Treatment Services, LLC",STOP SA,3780 NW Loop 410,San Antonio,TX,78229,(210) 736-4405
"Crossroads Treatment Center of San Antonio, PLLC", ,"5121 Crestway Drive, Suite 200B",San Antonio,TX,78239,(210) 310-3864
"VCPHCS VII, LLC",MedMark Treatment Centers San Antonio Quincy,519 E. Quincy St,San Antonio,TX,78215,(210) 299-1614
"MedMark Treatment Centers of Texas, Inc.",MedMark Treatment Centers San Antonio Military,7428 Military Drive West,San Antonio,TX,78227,(210) 673-8111
"San Diego Health Alliance, Inc.",Fashion Valley Clinic,7545 Metropolitan Dr.,San Diego,CA,92108,(619) 718-9890
"Mission Treatment Services, Inc.", ,8898 Clairemont Mesa Blvd.,San Diego,CA,92123,(858) 715-1211
Eldorado Community Service Center,Euclid Medical & Mental Health Services,1733 Euclid Ave.,San Diego,CA,92105,(619) 263-0433
"Progressive Medical Specialists, INC", ,"4974 El Cajon Blvd., Ste. A",San Diego,CA,92115,(619) 286-4600
BAART Behavioral Health Services, ,433 Turk Street,San Francisco,CA,94102,(415) 928-7800
"Addiction Research and Treatment, Inc., (ART)", ,433 Turk Street,San Francisco,CA,94103,(415) 928-7800
Fort Help Mission Inc., ,1101 Capp Street,San Francisco,CA,94110,(415) 821-1427
BAART Behavioral Health Services,Market Street Clinic,"1111 Market St., First Floor",San Francisco,CA,94103,(415) 863-3883
"Bayview Hunters Point Foundation for Community Improvement, Inc.",Bayview Hunters Point Foundation for Community Improvement. Inc.,1625 Carroll Avenue,San Francisco,CA,94124,(415) 822-8200
VAMC - San Francisco Substance Abuse Treatment Clinic,VAMC - San Francisco Substance Abuse Treatment Clinic,"4150 Clement St., Building 1, Room 12",San Francisco,CA,94121,(415) 750-2050
Westside Methadone Treatment Program, ,1301 Pierce St.,San Francisco,CA,94115,(415) 563-8200
Fort Help, ,915 Bryant St.,San Francisco,CA,94103,(415) 777-9953
Opiate Treatment Outpatient Program San Francisco General Hospital,Opiate Treament Outpatient Program,1001 Potrero Ave. Ward 93,San Francisco,CA,94110,(415) 206-5239
"Addiction Research and Treatment, Inc., (ART)", ,"1111 Market St., First Floor",San Francisco,CA,94103,(415) 863-3883
Central Valley Methadone Clinic, ,2425 Enborg Lane,San Jose,CA,95128,(408) 885-5400
Alexian Health Clinic, ,2101 Alexian Drive,San Jose,CA,95116,(408) 272-6577
Clinica de Tratamiento Integrado asistido con Medicamento de Caguas (centro de Metadona de Caguas), ,P.O. Box 21414,San Juan,PR,00928-1414,(787) 745-0685
"San Diego Health Alliance, Inc.",Capalina Clinic,1560 Capalina Rd.,San Marcos,CA,92069,(760) 744-2104
South County Methadone Clinic,South County Clinic,90 Highland Avenue,San Martin,CA,95046,(408) 852-2420
"Marin Treatment Center, Inc.",Marin Treatment Center,1466 Lincoln Ave.,San Rafael,CA,94901,(415) 457-3755
"Crossroads Treatment Center of Sandy Springs, PC", ,"275 Carpenter Drive, Suite 101",Sandy Springs,GA,30328,(470) 312-2933
"Sanford Treatment Center, LLC", ,2800 Industrial Drive,Sanford,NC,27332,(919) 776-0711
"Spectrum Outpatient - Sanford, ME","Spectrum Health Systems, Inc",69 Eagle Drive,Sanford,ME,4073,(207) 324-2007
"California Treatment Services, LLC",Recovery Solutions of Santa Ana,2101 E. First St.,Santa Ana,CA,92705,(714) 542-3581
"Aegis Treatment Centers, LLC",Narcotic Treatment Program,"4129 State Street, Suite B,D,E,F",Santa Barbara,CA,93110,(805) 964-4795
Janus of Santa Cruz, ,1000 A Emeline Ave.,Santa Cruz,CA,95060,(831) 425-0112
"New Mexico Treatment Services, LLC",Una Ala Clinic,1264 Rodeo Rd,Santa Fe,NM,87505,(505) 982-2129
"Aegis Treatment Centers, LLC",Narcotic Treatment Program,115 East Fesler St.,Santa Maria,CA,93454,(805) 922-6597
"Aegis Treatment Centers, LLC",Narcotic Treatment Program,625 East Main Street,Santa Paula,CA,93060,(805) 525-4669
Redwood Empire Addictions Program, ,"2403 Professional Drive, Suite 103",Santa Rosa,CA,95403,(707) 526-2999
"Santa Rosa Treatment Program, Inc.", ,"1901 Cleveland Ave., Suite B",Santa Rosa,CA,95401,(707) 576-0818
Operation PAR Medication Assisted Patient Services (MAPS), ,6124 South Tamiami Trail,Sarasota,FL,34231,(941) 925-6672
"Colonial Management Group, LP",Sarasota Metro Treatment Center,323 Interstate Blvd,Sarasota,FL,34240,(941) 554-4551
"Spectrum Health Systems, Inc.", ,184 Broadway,Saugus,MA,1906, 
"HealthQwest Frontiers, Inc.","6555 Abercorn St. Ste. 129, Savannah, GA 31405",6707 Forest Park Dr,Savannah,GA,31406,(912) 335-1699
"Metro Treatment of Georgia, LP",Savannah Treatment Center,145-B Southern Blvd.,Savannah,GA,31322,912-233-6430
"Augusta Addiction Associates, LLC",MedMark Treatment Centers - Savannah,600 Commercial Court,Savannah,GA,31406,(912) 352-4357
Solutions of Savannah, ,85 Harrison Street,Savannah,TN,38372,(731) 925-2767
Schaumburg Interventions & Counseling, ,"1340 Remington Rd., Ste. K",Schaumburg,IL,60173,(847) 882-8908
"Mission Treatment Centers, Inc.", ,"617 North Scottsdale Road, Suite D",Scottsdale,AZ,85257,(480) 990-3720
SMC Recovery LLC, ,10207 N Scottsdale Rd,Scottsdale,AZ,85258,(480) 998-4673
Seabrook House, ,"133 Polk Lane, P.O. Box 5055",Seabrook,NJ,8302,(856) 455-7575
"Addiction Medical Facility, LLC", ,1309 Bridgeville Highway,Seaford,DE,19973,(302) 629-2300
Therapeutic Health Services-Summit Branch, ,1116 Summit Ave.,Seattle,WA,98101,(206) 323-0930
Seattle Veterans Administration Medical Center Drug Dependence Treatment Program,Same,"1660 South Columbian Way, Building 24",Seattle,WA,98108,(206) 764-2082
Evergreen Treatment Services Unit 1,Evergreen Treatment Services,1700 Airport Way South,Seattle,WA,98134,(206) 223-3644
Evergreen Treatment Services Unit 1,Evergreen Treatment Services,1700 Airport Way South,Seattle,WA,98134,(206) 223-3644
"Therapeutic Health Services, Seneca Branch", ,1305 Seneca St.,Seattle,WA,98101,(206) 726-4100
"Evergreen Treatment Services, Unit 3",Evergreen Treatment Services,1718 Airport Way South,Seattle,WA,98134-1618,(206) 223-3644
"Integrity House, Inc.", ,595 County Ave.,Secaucus,NJ,07096-2505,201-583-7100
Crossroads Treatment Center of Seneca, ,209 Oconee Square Drive,Seneca,SC,29678,(864) 888-2337
Lakeview Center Inc.,Shalimar Opiate Treatment Program,One 11th Avenue,Shalimar,FL,32579,(850) 609-1040
"Quality Addiction Management, Inc.",Sheboygan Comprehensive Treatment Center,2842 S.Business Drive,Sheboygan,WI,53081,(920) 458-6527
"The Treatment Centers, Inc.",Shoals Treatment Center,3430 North Jackson Hwy.,Sheffield,AL,35660,(256) 383-6646
Therapeutic Health Services - Shoreline, ,16715 Aurora Ave North,Shoreline,WA,98133,(206) 546-9766
"Center for Behavioral Health Louisiana, Inc.", ,"1303 Line Ave., Suite 600",Shreveport,LA,71101,(318) 425-3400
Chatham Recovery,Chatham Recovery,1758 East 11th Street,Siler City,NC,27344-2845,(919) 663-3303
"Aegis Treatment Centers, LLC",Narcotic Treatment Program,"660 East Los Angeles Avenue, Suite B2",Simi Valley,CA,93065,(805) 522-1844
"Center for Behavioral Health Iowa, Inc.", ,2520 Glenn Avenue,Sioux City,IA,51106,(712) 522-4442
"Sioux Falls Treatment Center, LLC", ,2519 W. 8th Street,Sioux Falls,SD,57104,(605) 332-3236
Behavioral Services Center, ,"8707 Skokie Blvd., Suite 207",Skokie,IL,60077,(847) 673-8577
"Connections Community Support Programs, Inc -- Smyrna", ,320 High Street,Smyrna,DE,19977,(302) 659-5060
Test Program - AIR, ,123 Main St,SomeCity,SD,12345, 
"Crossroads Treatment Center of Somerset, PSC", ,607 Clifty Street,Somerset,KY,42503,(606) 485-4730
"Merrimack River Medical Services, Inc.",Health Care Resource Centers,200 Route 108,Somersworth,NH,3878,(603) 953-0077
Somerset Treatment Services Inc., ,110 Rehill Ave.,Somerville,NJ,8876,(908) 722-1232
"Habit Opco, Inc.",Strathmore Treatment Associates,1 Main Street Lower,South Amboy,NJ,8879,(732) 727-2555
"Victory Clinical Services II, LLC",Victory Clinic,4218 Western Ave,South Bend,IN,46619,(574) 233-1524
HowardCenter - Addiction Medicine,Chittenden Clinic,75 San Remo Drive,South Burlington,VT,5403,(802) 488-6540
"ICAN Community Services, Inc.", ,15475 South Park Avenue,South Holland,IL,60473,(708) 596-5680
"Center for Behavioral Health-ME, Inc.",Discovery House - South Portland,400 Western Ave.,South Portland,ME,4106,(207) 774-7111
"Spectrum Health Systems, Inc.","Spectrum Health Systems, Inc.",176 Main Street,Southbridge,MA,1550,(508) 765-5940
The Life Change Center,The Life Change Center,1755 Sullivan Lane,Sparks,NV,89431,(775) 355-7734
"BHG XXXVIII, LLC dba BHG Spartanburg Treatment Center", ,239 Access Road,Spartanburg,SC,29303,(864) 503-0207
Spokane Regional Health District Treatment Services, ,"1101 West College Ave., Room 241",Spokane,WA,99201-2095,(509) 324-1420
"WCHS, Inc.",Spokane Treatment Solutions,"15812 E. Indiana Ave, Ste 100",Spokane Valley,WA,99216,509-795-3133
Soft Landing Interventions of Texas, ,635 Rayford Road,Spring,TX,77386, 
Operation PAR Medication Assisted Patient Services (MAPS), ,1245 Kass Circle,Spring Hill,FL,34606-4312,(352) 666-5709
Springdale Treatment Center, ,7255 Meeshow Drive,Springdale,AR,72762,(479) 306-4480
"Rose Medical Association, Inc. / Springfield", ,3535 Mayflower Blvd.,Springfield,IL,62711,(217) 670-0654
"Springfield Treatment Center, LLC",Springfield Treatment Center,1227 South Ninth Street,Springfield,IL,62703,(217) 679-1406
Carlson Recovery Center,Behavioral Health Network,471 Chestnut St,Springfield,MA,1107,413-733-1431
"Habit Opco, LLC",Habit OPCO - Springfield,2257 Main St.,Springfield,MA,01107-1905,(413) 733-3488
Providence Hospital Springfield Outpatient Methadone Clinic,Mercy Medical Center - MMTP,227 Mill St.,Springfield,MA,1108,(413) 747-9071
"Family Guidance Centers, Springfield", ,120 North 11th St.,Springfield,IL,62703,(217) 544-9858
"DRD Management, Inc.",DRD Springfield Medical Clinic,404 E. Battlefield,Springfield,MO,65807,(417) 865-8045
"BrookStone Medical Center, LLC",BrookStone Medical Centr,198 N 100 E,ST George,UT,84770,(435) 628-1111
"BAART Behavioral Health Services, Inc.", ,242 S. Main St.,St. Albans,VT,05478-1801,(802) 370-3545
"Colonial Management Group, LP",St. Augustine Metro Treatment Center,3574 US 1 South,St. Augustine,FL,32086,(904) 217-7161
"Metro Treatment of Minnesota, LP",St. Cloud Metro Treatment,524 25th Avenue North,St. Cloud,MN,56303,(320) 202-1909
"Metro Treatment of Utah, LP",St. George Metro Treatment,620 S. 400 E. #404,St. George,UT,84770,(435) 656-8918
BAART Behavioral Health Services,St. Johnsbury Clinic,1097 Hospital Drive,St. Johnsbury,VT,5819,(802) 748-6166
"Metro Treatment of Missouri, LP.",St. Joseph Metro Treatment Center,3935 Sherman Avenue,St. Joseph,MO,64506,(816) 233-7300
West End Clinic, ,5736 West Florissant Ave.,St. Louis,MO,63120,(314) 381-0560
"St. Louis Veterans Administration, Opiate Addiction Treatment Program",Bell Street Clinic,915 North Grand Ave.,St. Louis,MO,63106,(314) 289-6418
"Coastal Community Behavioral Health, LLC", ,5155 Hwy 40 East,St. Mary's,GA,31558,(912) 434-1794
St. Joseph's Hospital Addiction Services Unit, ,45 W. 10th St,St. Paul,MN,55102,(651) 326-3645
"Specialized Treatment Services, Inc. / St. Paul","STS, Inc",311 Spruce Street,St. Paul,MN,55101,(651)888-6800
"Liberation Programs Inc., Main St. Clinic", ,117 Main St.,Stamford,CT,6901,(203) 356-1980
Western Pacific Rehabilitation (Stanton), ,10751 Dale St.,Stanton,CA,90680,(714) 821-5311
Western Pacific Med-Corp, ,10751 Dale St.,Stanton,CA,90680,(714) 821-5311
PA Care LLC,State College Medical,3091 Enterprise Drive,State College,PA,16801,(814) 235-6988
Staten Island University Hospital- Detoxification Unit,Staten Island University Hospital,375 Seguine Avenue,Staten Island,NY,10309,(718) 226-2790
Staten Island University Hospital Behavioral Sciences Water St.-MMTP,Staten Island Univesity Hospital,111 Water St.,Staten Island,NY,10304,(718) 226-4990
"Staten Island University Hospital Behavioral Sciences, Seguine Ave. M.M.T.P.",Staten Island University Hospital,392 Seguine Ave.,Staten Island,NY,10309,(718) 226-2807
"Reliance Treatment Center of Statesboro, LLC",Reliance Treatment Center of Statesboro,201 Donehoo Street,Statesboro,GA,30458,(912) 489-7827
Addiction Recovery Medical Services,ARMS,536 Signal Hill Drive Ext.,Statesville,NC,28625,(704) 872-0234
McLeod Addictive Disease Center - Statesville,McLeod Center,636 Signal Hill Dr. Extension,Statesville,NC,28625,(704) 871-2992
Quality Behavioral Health, ,37490 Dequindre,Sterling Heights,MI,48310,(313) 922-7777
"Comprehensive Management Group, LLC",Northeast Alabama Treatment Center,196 County Road 85,Stevenson,AL,35772,(256) 437-2728
"MBA Wellness Centers, LLC","MBA Wellness Centers, LLC",1233 Eagles Landing Parkway,Stockbridge,GA,30281,(770) 474-4009
"Aegis Treatment Centers, LLC",Healthy Connections,"1947 N. California Street, Ste-B",Stockton,CA,95204,(209) 463-0870
"Aegis Treatment Centers, LLC",Healthy Connections dba: 5th Street Medical Clinic,1839 S. El Dorado Street,Stockton,CA,95206,(209) 463-0872
"Aegis Treatment Centers, LLC",Narcotic Treatment Program,"8626 Lower Sacramento Rd., #41",Stockton,CA,95210,(209) 478-2487
"MedMark Treatment Centers - Stockton, Inc.", ,1105-1111 N. El Dorado St. and 33 Magnolia St. Suites 3 and 5,Stockton,CA,95202,(209) 938-0228
"Pilsen-Little Village Community Mental Health, Inc.","Pilsen Wellness Center, Inc.",1546 N. Mannheim Rd.,Stone Park,IL,60165,(708) 410-0856
Center for Human Services, ,2 Research Dr.,Stratford,CT,6615,(203) 386-8802
"Coastal Detox, Inc",Coastal Detox,1131 SE Indian Street,Stuart,FL,34997,(772) 219-1355
Good Samaritan Hospital, ,255 Lafayette Ave.,Suffern,NY,10901,(845) 368-5302
"Crossroads Treatment Center of Suffolk, PC", ,1258 Holland Road,Suffolk,VA,23434,(757) 809-4771
"Narcotic Addiction Treatment Agency, Inc.", ,8741 Laurel Canyon Blvd.,Sun Valley,CA,91352,(818) 768-5525
"Metro Treatment of Florida, LP",Sunrise Treatment Center,2175-7 North University Dr.,Sunrise,FL,33322,(954) 578-7684
"Crossroads Treatment Center at Sugarloaf, PC", ,2855 Lawrenceville Suwanee Road,Suwanee,GA,30025,(770) 904-3955
"Metro Treatment of New Hampshire, L.P.",Keene Metro Treatment,1076 West Swanzey Rd.,Swanzey,NH,3446,(603) 358-0050
Crouse Hospital OTP, ,410 South Crouse Ave. 1st fl.,Syracuse,NY,13210,(315) 470-8334
Syracuse Brick House Inc.,Syracuse Behavioral Healthcare,329 N. Salina Street,Syracuse,NY,13203,(315) 471-1564
Veterans Administration Hospital,American Lake Opioid Treatment Program,"American Lake Dr., Bldg. 61",Tacoma,WA,98493,(253) 583-1661
"Treatment Services - unit 1, Tacoma-Pierce County Health Department", ,3629 S D Street,Tacoma,WA,98418,253-798-6565
"Another Way, Inc.", ,1363 Holton Lane,Takoma Park,MD,20912,(301) 434-2622
"Metro Treatment of Florida, LP",Leon County Treatment Center,3976 Woodville Hwy.,Tallahassee,FL,32305,(850) 878-7776
"Metro Treatment of Florida, LP",Tampa Metro Treatment Center,7207 & 7225 North Nebraska Ave.,Tampa,FL,33604,(813) 236-1182
"DACCO, Opiate Addiction Treatment Services",Drug Abuse Compehension,4422 E. Columbus Drive,Tampa,FL,33605,(813) 384-4010
"Tarzana Treatment Center, Inc.",Maintance Program,18646 Oxnard St.,Tarzana,CA,91356,(818) 654-3815
"Tarzana Treatment Centers, Inc.",Detox Program,18646 Oxnard St.,Tarzana,CA,91356,(818) 654-3815
"Habit Opco, LLC",Habit OPCO - Taunton,66 Main Street,Taunton,MA,2780,(508) 880-1598
Women's Recovery from Addictions Program, ,60 Hodges Avenue,Taunton,MA,2780,(508) 977-3526
ADDICTION RECOVERY MEDICAL SERVICES TAYLORSVILLE, ,31 EAST MAIN ST,TAYLORSVILLE,NC,28681,(704) 872-0234
"Discovery House-TV, Inc.",Discovery House,5983 South Redwood Road,Taylorsville,UT,84123,(801) 293-9999
"Center For Behavioral Health, Inc., Tempe", ,2123 E. Southern Avenue,Tempe,AZ,85282,(480) 897-7044
"Valle Del Sol, Inc.", ,509 South Rockford Dr.,Tempe,AZ,85281,602-258-6797
"West Texas Counseling and Rehabilitation Program of Temple, Inc.", ,2610 Exchange Pl.,Temple,TX,76504,(254) 742-0490
Tewksbury Treatment Center of NBH,Lahey Health Behavioral Services,365 East Street - Saunders Building,Tewksbury,MA,1876,(978) 259-7000
"Arkansas Treatment Services, PA", ,408 Hazel Street,Texarkana,AR,71854,(870) 774-0421
"Treatment Centers, LLC",Thomasville Treatment Associates,1301 National Hwy,Thomasville,NC,27360,(336) 472-8230
"BHG XLV, LLC d/b/a BHG Tifton Treatment Center", ,2402 N. Tift Ave.,Tifton,GA,31794,(229) 382-7898
"CRC Health Oregon, LLC",Allied Health Services Tigard,"10763 SW Greenburg Rd, Ste. 100",Tigard,OR,97223,(503) 684-8159
Medmark Treatment Centers Timonium,Medmark Treatment Centers Timonium,2 W. Aylesbury Rd.,Timonium,MD,21093,(410) 561-9591
Medmark Treatment Centers Awakenings,Medmark Treatment Centers Awakenings,2 West Aylesbury Rd.,Timonium,MD,21093,(410) 561-9591
Pittard Clinic, ,1654 Falls Rd.,Toccoa,GA,30577,(706) 886-4420
Zepf Center, ,2005 Ashland Ave,Toledo,OH,43620,(419) 841-7701
Counseling and Recovery Services,Counseling and Recovery Services,705 Malone,Tomball,TX,77375,281-351-8585
"Pinnacle Treatment Centers NJ-I, T/A Ocean Medical Services", ,2001 Route 37 East,Toms River,NJ,8753,(732) 288-9322
"Topeka Treatment Center, LLC", ,3360 SW Harrison Street,Topeka,KS,66611,(785) 266-4100
Hartford Dispensary - Torrington Clinic,"140 Commercial Boulevard, Torrington, CT 06790",140 Commercial Boulevard,Torrington,CT,6790,(860) 482-8796
"Trenton Healthcare, LLC", ,801 New York Avenue,Trenton,NJ,8638,(609) 393-8000
"New Horizon Treatment Services, Inc.","New Horizon Treatment Services, Inc.",132 Perry St.,Trenton,NJ,8618,(609) 394-8988
"Wheeling Treatment Center, LLC",Wheeling Treatment Center,40 Orrs Lane,Triadelphia,WV,26059,(304) 547-9197
"Conifer Park, Inc","Conifer Park, Inc",2435 Sixth Ave,Troy,NY,12180,(518) 274-5143
"COPE Community Services, Inc.", ,5401 E 5th St,Tucson,AZ,85711,(520) 879-6680
"Center for Behavioral Health Tucson, Inc.", ,2437 N. Stone Ave,Tucson,AZ,85705,(520) 624-0250
Community Medical Services- Northwest Tucson, ,2001 W. Orange Grove,Tucson,AZ,85704,(520) 298-1650
"Connections Access, LLC - Jones Clinic", ,1135 N Jones Blvd,Tucson,AZ,85716,(520) 448-0670
CODAC Behavioral Health Services,CODAC MAAT,380 East Fort Lowell Road,Tucson,AZ,85719,(520) 202-1786
ETANO Center, ,"2340 North Tucson Blvd., Suites 110, 120 & 130",Tucson,AZ,85716,(520) 325-3323
"Behavioral Awareness Center, Inc.","Behavioral Awareness Center, Inc.",2002 WEST ANKLAM RD,Tucson,AZ,85745,(520) 629-9126
La Frontera - Hope Center,same,260 South Scott Ave.,Tucson,AZ,85701,(520) 884-8470
Pascua Yaqui Tribe-Health Department,New Beginnings Opioid Treatment Program,7490 South Camino De Oeste,Tucson,AZ,85757,(520) 879-6003
Community Medical Services of Tucson,Community Medical Services of Tucson/Olive Branch,6626 East Carondelet Dr.,Tucson,AZ,85710,(520) 298-1650
Kings View Substance Abuse Program - Tulare County,Kings View Substance Abuse Program - Tulare County,559 East Bardsley Ave.,Tulare,CA,93274,(559) 688-7531
"Oklahoma Treatment Services, LLC",Tulsa Rightway Medical,3445 S Sheridan Road E,Tulsa,OK,74145,(918) 610-3366
"Mission Treatment Centers, Inc.", ,5550 South Garnett,Tulsa,OK,74146,(918) 665-2501
Keetoowah Cherokee Treatment Services, ,2727 East Admiral Place,Tulsa,OK,74110,918-835-3017
"The Center for Therapeutic Interventions, PLLC",CTI,7477 East 46th Place South,Tulsa,OK,74145,(918) 384-0002
"TTC, L.L.C.",Tuscaloosa Treatment Center,1001 Mimosa Park Road,Tuscaloosa,AL,35405,(205) 752-5857
Methadone Clinic of East Texas, ,1510 S. Vine Avenue,Tyler,TX,75701,(903) 526-4055
"Addiction Alternatives for Opiate-Heroin, Inc.",Add-Life Recovery Center,1909 Rickety Lane,Tyler,TX,75703,(903) 596-0606
The Recovery Village, ,633 Umatilla Blvd,Umatilla,FL,32784,(352) 699-8000
"Metro Treatment of Pennsylvania, LP",Uniontown Metro Treatment Center,1023 Pittsburgh Road,Uniontown,PA,15401,(724) 912-6800
Crozer Chester Medical Center, ,1 Medical Center Blvd,upland,PA,19013,(610) 497-7459
Treatment Center of Valdosta, ,2301 University Dr.,Valdosta,GA,31602,(229) 242-4673
"Successful Alternatives for Addiction Counseling Services, Inc.",MedMark Treatment Centers - Vallejo,1628 Broadway Suite A and B,Vallejo,CA,95489,(707) 649-8300
Lexington Center for Recovery Methadone Maintenance Treatment Program,"Lexington Center For Recovery, INC.",706 Executive Boulevard,Valley Cottage,NY,10989-2038,(845) 362-3904
"Porter-Starke Services, Inc", ,701 Wall Street,Valparaiso,IN,46383,(219) 476-4676
Van Nuys Medical and Mental Health Services, ,6265 Sepulveda Blvd.,Van Nuys,CA,91411,(818) 779-0555
Western Pacific Med-Corp, ,14332 Victory Blvd.,Van Nuys,CA,91401,(818) 989-1996
Columbia River Mental Health Services Center for Dual Diagnosis Recovery,NorthStar,6926 NE Fourth Plain Blvd.,Vancouver,WA,98661,(360) 993-3035
"WCHS, Inc.",Vancouver Treatment Solutions,2009 NE 117th Street,Vancouver,WA,98686,(360) 566-9112
"RHJ Medical Center, Inc./Vandergrift", ,2994 River Road,Vandergrift,PA,15690,724-696-9600
Venice Medical and Mental Health Services, ,717 Lincoln Boulevard,Venice,CA,90291,(310) 399-9883
Western Pacific Med-Corp, ,955 East Thompson Blvd.,Ventura,CA,93002,(805) 641-9100
"Aegis Treatment Centers, LLC", ,5225 Telegraph Road,Ventura,CA,93003-4113,(805) 765-6495
"Staunton Treatment Center, LLC", ,15 Green Hills Drive,Verona,VA,24482,(804) 230-0999
"Best Recovery Health Care, Inc.", ,1708 North Laurent St.,Victoria,TX,77901,(361) 572-9122
Extended Wellness, ,604 Broad Foot Drive,Vidalia,GA,30474,(478) 274-8426
VBMC - Virginia Beach Methadone Clinic, ,"1728 Virginia Beach Blvd., Suite 113",Virginia Beach,VA,23454,(757) 437-0411
"BHG XLII, LLC",BHG Virginia Beach Treatment Center,5715 Princess Anne Road Suite,Virginia Beach,VA,23462,(936) 890-9541
BAART Behavioral Health Services/ART,Visalia Clinic,1646 South Court St.,Visalia,CA,93277,(559) 625-8890
"Medmark Treatment Centers of Texas, Inc.",Medmark Treatment Centers - Waco,2210 Washington Avenue,Waco,TX,76701,(254) 755-6411
CHAMP Clinic of Maui (Comprehensive Health and Attitude Management Program), ,"270 Waiehu Beach Rd, #115","Wailuku, Maui",HI,96793,(808) 249-8784
CODAC South County, ,350 Columbia St.,Wakefield,RI,2879,(401) 789-0934
"Open ARMMS, Inc.", ,2590 Business Park Ct.,Waldorf,MD,20601,(301) 645-5538
"Metro Treatment of Mississippi, LP",DeSoto Treatment Center,8900 Delta Bluff Cove,Walls,MS,38680,(662) 510-4660
"Spectrum Outpatient - Waltham, MA","Spectrum Health Systems, Inc.",210 Bear Hill Road,Waltham,MA,2452,(781) 290-4970
HealthQwest,HealthQwest,607 A Russell Parkway,Warner Robins,GA,31088,(478) 225-9860
"Premier Services of Michigan, LLC",Premier Care Warren,23700 Van Dyke Ave.,Warren,MI,48089,(586) 758-6670
Meridian Healthcare, ,"320 High Street, N.E.",Warren,OH,44481,(330) 318-3873
Bradford Health Services -Warrior Medically Monitored Residential Detoxification Adult NTP, ,1189 Allbritton Road,Warrior,AL,35180,(205) 244-2960
Addiction Recovery Institute - South,ARI South,205 Hallene Rd. Suite 102,Warwick,RI,2886,(401) 737-4788
PIDARC,MMTP,"2112 F St., Northwest, Suite 102",Washington,DC,20037,(202) 296-4455
"Progressive Medical Specialist, Inc.",OTP,2453 West Pike Rd.,Washington,PA,15342,(724) 873-5655
DOC Central Detention Facility Methadone Program, ,1900 D Street SE,Washington,DC,20003,(202) 671-2066
Good Hope Institute, ,"1320 Good Road, SE",Washington,DC,20020,(202) 610-1886
UPO Comprehensive Treatment Center, ,"1900 Massachusetts Avenue, S.E. Bldg. 13",Washington,DC,20003,(202) 682-6599
Department of Veterans Affairs Community Clinic,Washington DC VA Medical Center,50 Irving Street N.W.,Washington,DC,20422,(202) 745-8000 x8336
"Echo Treatment Center, LLC",Methadone Clinic,50 east Wylie ave suites 2 and 3,washington,PA,15301,724-222-6220
Community Medical Services - Wasilla,Community Medical Services,2521 E. Mountain Village Drive,Wasilla,AK,99654-8525,(907) 290-3760
Methadone Clinic of East Texas- Waskom, ,670 Spur 156,Waskom,TX,75692,(903) 687-2586
"Connecticut Counseling Centers, Inc. Waterbury Methadone Program","Connecticut Counseling Centers, Inc. Waterbury Methadone Program",4 Midland Rd.,Waterbury,CT,6705,(203) 755-8874
Connecticut Counseling Centers Inc.,Connecticut Counseling Centers Inc.,50 Brookside Road,Waterbury,CT,6708,(203) 568-7466
Bio-Medical Behavioral Health Care,BIOMED,2520 Elizabeth Lake Rd.,Waterford,MI,48328,(586) 783-4802
"Credo Community Center for the Treatment of Addictions, Inc.", ,595 W Main St,Watertown,NY,13601,(315) 788-1530
"Discovery House of Central Maine, Inc.", ,40 Airport Road,Waterville,ME,4901,(207) 872-7272
"Habit Opco, LLC",Habit OPCO - Watsontown,759 Susquehanna Trail,Watsontown,PA,17777,(570) 538-1240
Janus South County,Janus South County,"284 Pennsylvania Ave., Suite 1",Watsonville,CA,95076,(831) 319-4200
"JEM Treatment, Inc","JEM Treatment, Inc",2424 Washington Street,Waukegan,IL,60085,(847) 336-7733
Lake County Health Department Drug Abuse Program, ,3004 West Grand Ave.,Waukegan,IL,60085,(847) 377-8120
"Quality Addiction Management, Inc.",Waukesha Comprehensive Treatment Center,2422 North Grandview Blvd.,Waukesha,WI,53188,(262) 549-6600
"Milwaukee Health Services System, LLC",Wausau Comprehensive Treatment Center,210 Washington Street,Wausau,WI,54403,(715) 845-3637
Treatment Center of Waycross, ,"1766 Memorial Drive, Suite-3",Waycross,GA,31501,(912) 285-2658
"Crossroads Treatment Center of Weaverville, PC", ,901 Old Mars Hill Highway,Weaverville,NC,28787,828-645-3687
"The Watershed at Clear Lake, Inc.", ,20 Professional Park Drive,Webster,TX,77598,(281) 724-6162
Metro Treatment of South Carolina,Columbia Metro Treatment Center,421 Capitol Square,West Columbia,SC,29169,(803) 791-9422
"Aegis Treatment Centers, LLC",Narcotic Treatment Program,1825 East Thelborn St.,West Covina,CA,91791,(626) 915-3844
Outpatient Substance Abuse Clinic Veterans Administration Medical Center 689/90, ,950 Campbell Ave.,West Haven,CT,6516,(203) 932-5711 x4811
"APT Foundation, Inc.","APT Foundation, Inc.",184 Front Avenue,West Haven,CT,6516,(203) 781-4600
"Habit Opco, LLC",Habit OPCO - West Lebanon,254 Plainfield Road,West Lebanon,NH,3784,(603) 298-2146
"Crossroads Treatment Center of West Memphis, PC", ,103 S. Avalon Street,West Memphis,AR,72301,(870) 394-4307
"Quality Addiction Management, Inc.",West Milwaukee Comprehensive Treatment Center,1610 Miller Park Way,West Milwaukee,WI,53214,(414) 672-3801
"BHG XXVIII, LLC",BHG West Plains Treatment Center,1639 Bruce Smith Pkwy,West Plains,MO,65775,(417) 257-1833
New Directions Treatment Services, ,20-22 North Sixth Ave.,West Reading,PA,19611,(610) 478-0646
"Spectrum Health Systems, Inc.", ,154 Oak Street,Westborough,MA,1581,(508) 898-1570
"Spectrum Health Systems, Inc.",New England Recovery Center,153 Oak Street,Westborough,MA,1581,844-900-6372
CAP Quality Care, ,"One Delta Dr., Suite A",Westbrook,ME,4092,(207) 856-7227
THE JOURNEY TO HOPE HEALTH & HEALING INC, ,86 Beach St.,Westerly,RI,2891,(401) 596-0969
Genesis Treatment Services, ,"1106 Business Parkway, Suite B",Westminster,MD,21157,(410) 751-7771
"BH Health Services, Inc.", ,450 E. Main Street,Westminster,MD,21157,(410) 871-3005
"VCPHCS XI, LLC",BHG Westminster Treatment Center,8402 Clay Street,Westminster,CO,80031,(303) 487-7776
"9 Village Inn Opco, LLC",Recovery Centers of America Westminster,9 Village Inn,Westminster,MA,1441, 
"Spectrum Health Systems, inc.", ,15 Winter Court,Weymouth,MA,2188,(781) 331-0690
Spectrum Health Systems, ,861 Main Street,Weymouth,MA,2190,(781) 331-3709
"Stonybrook Center, Inc","Stonybrook Center, Inc.",1506 E. Roosevelt Rd,Wheaton,IL,60187,(630) 221-1400
"Addictive Behavioral Change Health Group, L.L.C",Matrix Center,9918 East Harry,Wichita,KS,67207,(316) 260-3445
"Wichita Treatment Center, Inc.",Wichita Treatment Center,939 N. Main Street,Wichita,KS,67203-3608,(316) 263-8807
Center for Change,"Center for Change, LLC","1333 North Broadway, Suite A,B,C,D",Wichita,KS,67214,(316) 201-1234
"Metro Treatment Center, Inc.", ,"630 N. St. Francis, Suite C",Wichita,KS,67214,(316) 263-1623
"Texas Treatment Services, LLC",Wichita Falls Treatment Services,207 Broad Street,Wichita Falls,TX,76301,(940) 500-4903
Tri-State Treatment,Opiate Treatment Facility,1236 Highway 299,Wildwood,GA,30757,423-428-0045
"Wikes-Barre Behavioral Hospital Company, LLC.",CHOICES,Rear 307 Laird St.,Wilkes-Barre,PA,18705,(570) 408-9320
American Addiction Treatment Center,American Addiction Treatment Center,5583 Mooretown Road,Williamsburg,VA,23188,(757) 585-7611
"Williamson Treatment Center, LLC",Williamson Treatment Center,1609 West 3rd Avenue,Williamson,WV,25661-3006,(304) 235-0026
"Williamsport Family Medical Center, LLC", ,2062 Lycoming Creek Road,Williamsport,PA,17701,(570) 505-1123
The Hartford Dispensary -Willimantic Clinic,Willimantic Clinic,54-56 Boston Post Road,Willimantic,CT,6226,(860) 456-7990
"Brandywine Counseling, Inc., Lancaster","Brandywine Counseling, Inc.",2713 Lancaster Ave.,Wilmington,DE,19805,(302) 656-2348
"Aegis Treatment Centers, LLC",Narcotic Treatment Program,1322 N. Avalon Blvd.,Wilmington,CA,90744,(310) 513-1300
"Wilmington Treatment Center, Inc.", ,2520 Troy Drive,Wilmington,NC,28401,(910) 762-2727
"Transcultural Health Development, Inc.",Coastal Recovery Center,117 East Harry Bridges Blvd.,Wilmington,CA,90744,(310) 549-8383
"Coastal Horizons Center, Inc.","Coastal Horizons Center, Inc.",615 Shipyard Blvd.,Wilmington,NC,28412,(910) 343-0145
Metro Treatment of North Carolina LP -Wilmington,New Hanover Treatment Center,1611 Castle Hayne Road,Wilmington,NC,28401,(910) 251-6644
NorthEast Treatment Centers Inc. Kirkwood Detox,NET Kirkwood Detox Center,3315 Kirkwood Highway,Wilmington,DE,19808,(302) 691-0140
Recovery Centers of America Outpatient Services LLC,Recovery Centers of America at Delaware,2383 Limestone Road,Wilmington,DE,19808,(610) 994-2928
"Reflections of Hope, LLP",Reflections of Hope,33 Darlington Avenue,Wilmington,NC,28403,910-782-8752
Wilson Professional Services Treatment Center, ,3709 Nash Street NW,Wilson,NC,27893,(252) 206-5799
"Crossroads Treatment Center of Winchester, PC", ,"500 Pegasus Court, Suite 500",Winchester,VA,22602,(540) 313-4196
ARS Virginia,ARS Winchester,210 Front Royal Pike,Winchester,VA,22601,(540) 545-8794
Insight Human Services, ,665 West Fourth St.,Winston Salem,NC,27101,(336) 725-8389
"ATS of North Carolina, LLC",Winston-Salem Comprehensive Treatment Center,1617 S. Hawthorne Road,Winston-Salem,NC,27103,(877) 204-7652
"Therapeutics, LLC", ,50222 Dennis Court,Wixom,MI,48393,(248) 525-6832
"Community Health Care, Inc",Health Care Resource Centers,9 Forbes Rd,Woburn,MA,1801,(781) 838-6757
"Valhalla Place, LLC","Valhalla Place, LLC","6043 Hudson Road, Suite 220",Woodbury,MN,55125,(651) 925-8200
A Helping Hand Health Services, ,6401 Dogwood Rd,Woodlawn,MD,21207,410-653-0021
"Woodstock Treatment Center, LLC", ,270 Heritage Walk,Woodstock,GA,30188,(678) 494-5700
"R.I.S.A.T., Inc.",Discovery House,"1625 Diamond Hill Rd., Camelot Bldg.",Woonsocket,RI,2895,(401) 762-1511
Community Healthlink - Thayer Detox, ,12 Queen St.,Worcester,MA,1610,(508) 860-1000
"ADCARE Hospital Of Worcester, Inc.", ,107 Lincoln St.,Worcester,MA,1605,(508) 799-9000
"Spectrum Health Systems, Inc.", ,585 Lincoln St.,Worcester,MA,1605,(508) 831-0045
"Spectrum Outpatient Services, Inc.", ,105 Merrick St.,Worcester,MA,1605,(508) 797-6100
Motivating Youth Recovery (MYR), ,26 Queen St.,Worcester,MA,1610,(508) 860-1244
Aloria of Worcester,Washburn House,1183 Main Street,Worcester,MA,1603,(860) 324-9313
Comprehensive Healthcare, ,402 South Fourth Ave.,Yakima,WA,98902,(509) 575-2924
"Habit Opco, LLC",Habit OPCO - Yarmouth,31A Workshop Road,Yarmouth,MA,02664-1814,(508) 398-5155
St. John's Riverside Hospital-Park Care Pavilion O.T.P., ,2 Park Avenue,Yonkers,NY,10703,(914) 964-7714
Medically Managed Inpatient Detoxification,St. John's Riverside Hospital - Park Care Pavilion,2 Park Ave.,Yonkers,NY,10703,(914) 964-7873
St. Joseph's Hospital Methadone Maintenance Treatment Program,St. Joseph's Hospital Methadone Maintenance Treatment Program,317 South Broadway,Yonkers,NY,10705,(914) 378-7566
Pyramid Healthcare York Pharmacotherapy Services, ,104 Davies Drive,York,PA,17402,(717) 840-2300
Meridian Community Care,Meridian Community Care,527 North Meridian Rd.,Youngstown,OH,44509,(330) 797-0070
"Pinnacle Treatment Centers OH-VIII, LLC",Youngstown Treatment Services,3622 Belmont Avenue,Youngstown,OH,44505, 
"Community Bridges, Inc. - Yuma OTP","Comunity Bridges, Inc.- Yuma OTP",3250 E.40th St.,Yuma,AZ,85365,(928) 373-6743
Morse Clinic of Zebulon, ,877 E. Gannon Ave,Zebulon,NC,27597,(919) 269-7343